{"type":"FeatureCollection","features":[{"type":"Feature","id":3,"geometry":{"type":"MultiPolygon","coordinates":[[[[-113.56081909999995,37.10313270000006],[-113.56103659999997,37.103134000000068],[-113.56138769999995,37.103136300000074],[-113.56195329999997,37.103138800000067],[-113.56212859999999,37.103139600000077],[-113.56215419999995,37.103139800000065],[-113.56217509999999,37.103139600000077],[-113.56217259999994,37.102973700000064],[-113.56216759999995,37.102689400000031],[-113.56216469999998,37.102435200000059],[-113.56215639999999,37.102015400000028],[-113.56215529999997,37.101946400000031],[-113.56215269999996,37.101809700000047],[-113.56215089999995,37.101674200000048],[-113.56214799999998,37.101512600000035],[-113.56214689999996,37.101453400000025],[-113.56214439999997,37.101338100000078],[-113.56211639999998,37.101339800000062],[-113.56203419999997,37.101343300000053],[-113.56161549999996,37.101364900000078],[-113.56152729999997,37.101370100000054],[-113.56138189999996,37.10164130000004],[-113.56119159999997,37.102003600000046],[-113.56103989999997,37.10229170000008],[-113.56091099999998,37.102538200000026],[-113.56087499999995,37.102635900000053],[-113.56077549999998,37.102906200000064],[-113.56069149999996,37.10313270000006],[-113.56072179999995,37.103132100000039],[-113.56081909999995,37.10313270000006]]],[[[-113.56697429999997,37.107690000000048],[-113.56697289999994,37.107957400000032],[-113.56697289999994,37.108010600000057],[-113.56697249999996,37.108103200000073],[-113.56697329999997,37.108130500000073],[-113.56708789999999,37.108130500000073],[-113.56730099999999,37.108130500000073],[-113.56741379999994,37.108130500000073],[-113.56741119999998,37.107970300000034],[-113.56740879999995,37.10779830000007],[-113.56740699999995,37.107649300000048],[-113.56740629999996,37.107640100000026],[-113.56737419999996,37.107638500000064],[-113.56725309999996,37.10763680000008],[-113.56733889999998,37.10763860000003],[-113.56715379999997,37.107635000000073],[-113.56697469999995,37.107631600000047],[-113.56697429999997,37.107690000000048]]],[[[-113.60511459999998,37.102184300000033],[-113.60520149999996,37.102450500000032],[-113.60513979999996,37.102725000000078],[-113.60502579999996,37.103015400000061],[-113.60492569999997,37.103562300000078],[-113.60485399999999,37.103747000000055],[-113.60470579999998,37.103930800000057],[-113.60329919999998,37.104721200000029],[-113.60258899999997,37.105229300000076],[-113.60204119999997,37.105740300000036],[-113.60017549999998,37.108179000000064],[-113.60017009999996,37.108241700000065],[-113.60026279999994,37.108406500000058],[-113.60015099999998,37.109462500000063],[-113.60020869999994,37.109633900000063],[-113.60039439999997,37.109733100000028],[-113.60091899999998,37.110609800000077],[-113.60110439999994,37.111180600000068],[-113.60119139999995,37.111647400000038],[-113.60103399999997,37.112303700000041],[-113.60094169999996,37.112503700000048],[-113.60082599999998,37.112661900000035],[-113.60108449999996,37.113423000000068],[-113.60203809999996,37.114658400000053],[-113.60234839999998,37.11482710000007],[-113.60253579999994,37.114965700000027],[-113.60278309999995,37.115241600000047],[-113.60287249999999,37.115343400000029],[-113.60314139999997,37.115995800000064],[-113.60286429999996,37.116516800000056],[-113.60353469999995,37.116545300000041],[-113.60536899999994,37.116628100000071],[-113.60796829999998,37.11663580000004],[-113.60806449999995,37.11662890000008],[-113.60806179999997,37.116116000000034],[-113.61061239999998,37.116077400000052],[-113.61087189999995,37.11570480000006],[-113.61103349999996,37.11540130000003],[-113.61112569999995,37.115074700000037],[-113.61125839999994,37.114600900000028],[-113.61146029999998,37.113952300000051],[-113.61156409999995,37.113561400000037],[-113.61163339999996,37.113262400000053],[-113.61169099999995,37.112204400000053],[-113.61172559999994,37.11106360000008],[-113.61176029999996,37.110438000000045],[-113.61181219999997,37.109315600000059],[-113.61182949999994,37.108970600000077],[-113.61182369999995,37.108506000000034],[-113.61181789999995,37.10802300000006],[-113.61181789999995,37.10742040000008],[-113.61185829999994,37.107130600000062],[-113.61188719999996,37.107024800000033],[-113.61196209999997,37.106817800000044],[-113.61204869999995,37.106666000000075],[-113.61218709999997,37.106366900000069],[-113.61247549999996,37.105814900000041],[-113.61270049999996,37.105419300000051],[-113.61289079999995,37.105046700000059],[-113.61312729999997,37.104724600000054],[-113.61338109999997,37.104379600000073],[-113.61369259999998,37.103993200000048],[-113.61412519999999,37.103468700000064],[-113.61445979999996,37.103031700000031],[-113.61473659999996,37.10271890000007],[-113.61505529999994,37.102247900000066],[-113.61590039999999,37.101591800000051],[-113.61702269999995,37.102675800000043],[-113.61729489999999,37.103727900000024],[-113.61786209999997,37.10426300000006],[-113.61990179999998,37.10495190000006],[-113.62060629999996,37.104749000000027],[-113.62141269999995,37.104876500000046],[-113.62189149999995,37.105097300000068],[-113.62244259999994,37.105257800000061],[-113.62408999999997,37.106579800000077],[-113.62461759999997,37.107267800000045],[-113.62650829999995,37.108622600000047],[-113.62766289999996,37.108409600000073],[-113.62929679999996,37.109009000000071],[-113.63058129999996,37.10932530000008],[-113.63146699999999,37.109280600000034],[-113.63204319999994,37.109013800000071],[-113.63269929999996,37.10930280000008],[-113.63294009999998,37.109588100000053],[-113.63338869999995,37.109936700000048],[-113.63351679999994,37.11045850000005],[-113.63342529999994,37.111054100000047],[-113.63367709999994,37.111393000000078],[-113.63407769999998,37.111591200000078],[-113.63442199999997,37.111652200000037],[-113.63495179999995,37.11219600000004],[-113.63556699999998,37.112570100000028],[-113.63771039999995,37.113379100000031],[-113.63804879999998,37.113483100000053],[-113.63850779999996,37.113742700000046],[-113.63898129999995,37.114279100000033],[-113.63921939999994,37.114579500000048],[-113.63933059999999,37.114853400000072],[-113.63990089999999,37.115411700000038],[-113.63992039999999,37.115564100000029],[-114.05252099999996,37.11383440000003],[-114.05285949999995,37.104168500000071],[-114.05221349999999,37.096733900000061],[-114.05179819999995,37.090955100000031],[-114.05175199999996,37.087642100000039],[-114.05159749999996,37.078283300000066],[-113.60836779999994,37.080736700000045],[-113.60829859999996,37.08057910000008],[-113.60782329999995,37.080635800000039],[-113.60642739999997,37.080773800000031],[-113.60408199999995,37.081051900000034],[-113.60398969999994,37.080755000000067],[-113.60385839999998,37.080301800000029],[-113.60381809999996,37.080146400000046],[-113.60377339999997,37.080000300000052],[-113.60370989999996,37.079826600000047],[-113.60364789999994,37.079696600000034],[-113.60353689999994,37.079487200000074],[-113.60336529999995,37.079250200000047],[-113.60318359999997,37.079007500000046],[-113.60303359999995,37.07885790000006],[-113.60285619999996,37.078688800000066],[-113.60263409999999,37.078517400000067],[-113.60231399999998,37.078298800000027],[-113.60179199999999,37.077982400000053],[-113.60145599999998,37.077767300000062],[-113.60079549999995,37.077366900000072],[-113.60070609999997,37.077324300000043],[-113.59977309999999,37.076915900000074],[-113.59894389999994,37.076607600000045],[-113.59861229999996,37.076486800000055],[-113.59845799999999,37.076441900000077],[-113.59820849999994,37.076377500000035],[-113.59796189999997,37.076328000000046],[-113.59773879999995,37.076284800000053],[-113.59741739999998,37.076264300000048],[-113.59721229999997,37.076256800000067],[-113.59720289999996,37.076160500000071],[-113.59719569999999,37.076084300000048],[-113.59711329999999,37.075798400000053],[-113.59697399999999,37.075553200000058],[-113.59672789999996,37.075250100000062],[-113.59646399999997,37.074923400000046],[-113.59610389999995,37.074442600000054],[-113.59602449999994,37.074169900000072],[-113.59468779999997,37.074095100000079],[-113.59364169999998,37.073964000000046],[-113.59358509999998,37.073985200000038],[-113.59346399999998,37.074031200000036],[-113.59329239999994,37.074100300000055],[-113.59285899999998,37.074347200000034],[-113.59259219999996,37.074732300000051],[-113.59250799999995,37.075201500000048],[-113.59265369999997,37.076477900000043],[-113.59270999999995,37.076841500000057],[-113.59240139999997,37.076894400000072],[-113.59199759999996,37.076965800000039],[-113.59147079999997,37.077054100000055],[-113.59152349999999,37.077397200000064],[-113.59155519999996,37.077551400000061],[-113.59162439999994,37.077740000000063],[-113.59166189999996,37.077818300000047],[-113.59176289999999,37.077935600000046],[-113.59195029999995,37.078059900000028],[-113.59221569999994,37.078156500000034],[-113.59267709999995,37.078313000000037],[-113.59339239999997,37.078559200000029],[-113.59405209999994,37.078819000000067],[-113.59401319999995,37.081025300000078],[-113.59560339999996,37.084625800000026],[-113.59575129999996,37.094626100000028],[-113.60495039999995,37.101255200000026],[-113.60511459999998,37.102184300000033]]]]},"properties":{"OBJECTID":3,"Shape_Length":1.0265886595598439,"Shape_Area":0.015806312125218883,"VertexCount":17}}]}