{"type":"FeatureCollection","features":[{"type":"Feature","id":1,"geometry":{"type":"MultiPolygon","coordinates":[[[[-113.56676769999996,37.097461400000043],[-113.56690930099995,37.097462002000043],[-113.56705069999998,37.097462337000024],[-113.56735720099999,37.097462900000039],[-113.56736701199998,37.097462909000058],[-113.56746089999996,37.097463000000062],[-113.56748140099995,37.097462700000051],[-113.56748209999995,37.09743700000007],[-113.56748279999999,37.097329100000024],[-113.56748339999996,37.097283200000049],[-113.56748386199996,37.097159609000073],[-113.56748399999998,37.097100400000045],[-113.56748570199994,37.096866800000043],[-113.56748629999998,37.096751700000027],[-113.56748632199998,37.096749478000049],[-113.56748569999996,37.096738300000027],[-113.56743160099995,37.096737700000062],[-113.56730990099999,37.096737800000028],[-113.56702510099996,37.096737200000064],[-113.56689589999996,37.096737300000029],[-113.56670809999997,37.096737300000029],[-113.56663451899999,37.09673734200004],[-113.56646820099996,37.096738000000073],[-113.56640979999997,37.096738000000073],[-113.56640979299999,37.096737696000048],[-113.56640889999994,37.096737700000062],[-113.56640910099998,37.096708100000058],[-113.56641000099995,37.096574900000064],[-113.56641009899994,37.096563759000048],[-113.56641000099995,37.096556700000065],[-113.56641068599998,37.096496886000068],[-113.56641209999998,37.096336000000065],[-113.56641244699995,37.096271854000065],[-113.56641230299999,37.096261799000047],[-113.56622290099995,37.096260500000028],[-113.56597699999998,37.096259700000076],[-113.56593253899996,37.09625931000005],[-113.56512323999999,37.096889633000046],[-113.56494744399998,37.097026552000045],[-113.56493002799999,37.097044009000058],[-113.56493189699995,37.097044974000028],[-113.56495400099999,37.097056300000077],[-113.56498030099999,37.097069800000043],[-113.56498789999995,37.097073900000055],[-113.56499777499994,37.09707901400003],[-113.56501829999996,37.09708900000004],[-113.56519474299995,37.097181033000027],[-113.56530279999998,37.097237000000064],[-113.56536189999997,37.097266900000079],[-113.56545850099997,37.097317500000031],[-113.56548337499999,37.097330380000074],[-113.56550309999994,37.097340200000076],[-113.56560470099998,37.097393100000033],[-113.56564290099999,37.097404100000062],[-113.56570520099996,37.097422597000048],[-113.56577620099995,37.097443200000043],[-113.56581479999994,37.09745520000007],[-113.56597099999999,37.097455500000081],[-113.56624999999997,37.097457200000065],[-113.56637794299996,37.097459839000066],[-113.56639720099997,37.097460000000069],[-113.56647010099999,37.097460700000056],[-113.56659620099998,37.097461300000077],[-113.56666100099994,37.097461300000077],[-113.56676769999996,37.097461400000043]]],[[[-113.56430854299998,37.10013602500004],[-113.56432589999997,37.100136300000031],[-113.56432590099996,37.100135505000026],[-113.56432599999999,37.10007470000005],[-113.56432599999999,37.100001900000052],[-113.56432529999995,37.099936600000035],[-113.56432529999995,37.099873700000046],[-113.56432450099999,37.099748900000066],[-113.56432406999994,37.09967976400003],[-113.56432330099994,37.099625900000035],[-113.56431122199996,37.09962536300003],[-113.56430980099998,37.099625300000071],[-113.56428089999997,37.099625300000071],[-113.56413749999996,37.099623600000029],[-113.56377636799999,37.099621907000028],[-113.56362210099996,37.099620800000025],[-113.56360082999998,37.099620646000062],[-113.56331252299998,37.09961833400007],[-113.56320859999994,37.099617400000056],[-113.56319974899998,37.099617400000056],[-113.56315580099999,37.099616900000058],[-113.56270089999998,37.099614203000044],[-113.56270029999996,37.099614200000076],[-113.56267530199995,37.099614201000065],[-113.56235262699994,37.100029021000068],[-113.56227876599996,37.100123972000063],[-113.56227419099997,37.100131679000071],[-113.56227352599996,37.10013280000004],[-113.56232447299999,37.10013280000004],[-113.56232839999996,37.10013280000004],[-113.56233920099999,37.10013280000004],[-113.56245933599996,37.100133095000047],[-113.56291029999994,37.10013420000007],[-113.56320547499996,37.10013420000007],[-113.56328889999998,37.10013420000007],[-113.56357776399994,37.100134900000057],[-113.56411409999998,37.100136200000065],[-113.56415651399999,37.100136078000048],[-113.56428809999994,37.100135700000067],[-113.56430854299998,37.10013602500004]]],[[[-113.56853500099999,37.103794900000025],[-113.56853449999994,37.10393520000008],[-113.56853409999997,37.104044700000031],[-113.56866089999994,37.104045400000075],[-113.56906050099997,37.104046800000049],[-113.56913510099997,37.104046501000028],[-113.56913519999995,37.104029900000057],[-113.56913519999995,37.104002300000047],[-113.56913440099999,37.103950500000053],[-113.56913229999998,37.103803000000028],[-113.56913129999998,37.103764500000068],[-113.56912259999996,37.103763600000036],[-113.56909659999997,37.103762700000061],[-113.56893379999997,37.103758700000071],[-113.56864390099997,37.103751700000032],[-113.56853569999998,37.10375010000007],[-113.56853500099999,37.103794900000025]]],[[[-113.56306250399996,37.105705861000047],[-113.56306239999998,37.105710800000054],[-113.56305816699995,37.105849288000059],[-113.56305709999998,37.105884200000048],[-113.56305239999995,37.106053600000052],[-113.56304840099995,37.106208700000025],[-113.56304569999998,37.10629490000008],[-113.56304389999997,37.106361900000024],[-113.56304280199998,37.106388965000065],[-113.56304700699997,37.106388998000057],[-113.56313229899996,37.106389682000042],[-113.56318449999998,37.106390100000056],[-113.56327030099999,37.106390700000077],[-113.56363120099996,37.106393300000036],[-113.56378669999998,37.106394400000056],[-113.56387109999997,37.106395300000031],[-113.56392299999999,37.106395700000064],[-113.56394499999999,37.106395700000064],[-113.56394610099994,37.106299800000045],[-113.56394653199999,37.106162796000035],[-113.56394730099998,37.105918200000076],[-113.56394700099997,37.105902400000048],[-113.56394765799996,37.10572366100007],[-113.56394779999999,37.105685100000073],[-113.56394749999998,37.105632700000058],[-113.56307817299995,37.105625811000039],[-113.56306669999998,37.105626100000052],[-113.56306419599997,37.10562598000007],[-113.56306250399996,37.105705861000047]]],[[[-113.55904871499996,37.107444216000033],[-113.55908059899997,37.107444359000056],[-113.55910689999996,37.107443600000067],[-113.55917320099996,37.10744274700005],[-113.55919239999997,37.107442200000037],[-113.55926309999995,37.107439900000031],[-113.55935632499995,37.107439900000031],[-113.55959920099997,37.107436300000074],[-113.55965696799996,37.10743575500004],[-113.55996279999999,37.107431500000075],[-113.56003699999997,37.107430300000033],[-113.56007020099997,37.107430300000033],[-113.56037260099998,37.107425100000057],[-113.56039764799999,37.107425454000065],[-113.56040830099994,37.107425300000045],[-113.56053443099995,37.107423565000033],[-113.56061920099995,37.10742220000003],[-113.56089190899996,37.107418210000048],[-113.56100969999994,37.107416400000034],[-113.56101185399996,37.107416400000034],[-113.56104330099998,37.107415400000036],[-113.56132809999997,37.107413100000031],[-113.56135885299994,37.10741226500005],[-113.56139569999999,37.10741100000007],[-113.56158279999994,37.107407800000033],[-113.56181569999995,37.107405000000028],[-113.56194616699997,37.107402735000051],[-113.56196909999994,37.107402300000047],[-113.56200730199998,37.10740171100008],[-113.56201119799999,37.107192869000073],[-113.56201207699996,37.107049863000043],[-113.56201199999998,37.107046800000035],[-113.56201229999999,37.106994200000031],[-113.56201267899996,37.106964757000071],[-113.56201319999997,37.106877600000075],[-113.56201360099999,37.10685060000003],[-113.56201460099999,37.106743800000061],[-113.56201569999996,37.106611600000065],[-113.56201629199995,37.10652089000007],[-113.56201610299996,37.106504100000052],[-113.56199920099999,37.106503900000064],[-113.56184740099997,37.106503800000041],[-113.56184120099999,37.106503801000031],[-113.56150479999997,37.106503900000064],[-113.56148102899999,37.106503700000076],[-113.56147009999995,37.106503700000076],[-113.56138050799996,37.106503700000076],[-113.56113940099999,37.106504100000052],[-113.56110369999999,37.106503900000064],[-113.56083180099995,37.106504100000052],[-113.56064020099996,37.106504100000052],[-113.56060559999997,37.106503800000041],[-113.56045455999998,37.106503745000055],[-113.56026629999997,37.106503800000041],[-113.56012793799999,37.106503650000036],[-113.56003622699996,37.106503628000041],[-113.55960200099997,37.106503900000064],[-113.55958134299999,37.106503774000032],[-113.55943319499994,37.106504283000049],[-113.55914000099995,37.107211603000053],[-113.55904871499996,37.107444216000033]]],[[[-113.56636189999995,37.107656500000076],[-113.56636500599996,37.107765100000051],[-113.56636789999999,37.107849400000077],[-113.56637319999999,37.108008100000063],[-113.56637500099998,37.10807120000004],[-113.56637609999996,37.108101100000056],[-113.56637650099998,37.108116900000027],[-113.56637608799997,37.108119983000051],[-113.56637609999996,37.108120500000041],[-113.56637579999995,37.108127600000046],[-113.56642619999997,37.108127900000056],[-113.56659679999996,37.108128800000031],[-113.56678599999998,37.108130200000062],[-113.56697220099994,37.108130800000026],[-113.56697329999997,37.108130500000073],[-113.56697256099994,37.108105269000077],[-113.56697259999999,37.10810250000003],[-113.56697277199999,37.108040292000055],[-113.56697289999994,37.108010600000057],[-113.56697289999994,37.10799389400006],[-113.56697299999996,37.107957800000065],[-113.56697325199997,37.107890140000052],[-113.56697430099996,37.107690000000048],[-113.56697470099999,37.107631600000047],[-113.56715379999997,37.107635000000073],[-113.56730138499995,37.107637870000076],[-113.56732159999996,37.107638300000076],[-113.56732730699997,37.107638374000032],[-113.56733889999998,37.10763860000003],[-113.56732949599996,37.107638403000067],[-113.56738730799998,37.107639153000036],[-113.56740630199994,37.107640099000037],[-113.56740630099995,37.107639400000039],[-113.56740668199996,37.107626727000024],[-113.56740705899995,37.107614157000057],[-113.56740769999999,37.107592800000077],[-113.56740928099998,37.107485763000057],[-113.56741029999995,37.107432500000073],[-113.56741239999997,37.107281200000045],[-113.56740410099997,37.107280800000069],[-113.56739039999997,37.107280800000069],[-113.56737191099995,37.107280779000064],[-113.56736750099998,37.107280700000047],[-113.56708148199999,37.10727974100007],[-113.56697989999998,37.107279300000073],[-113.56697113299998,37.107279250000033],[-113.56692729999997,37.107278500000064],[-113.56651990099999,37.107277200000055],[-113.56640489999995,37.107277200000055],[-113.56636239899996,37.107277200000055],[-113.56636358899999,37.107277598000053],[-113.56636329999998,37.107277600000032],[-113.56636219999996,37.107290200000079],[-113.56636180099997,37.107329100000072],[-113.56635969999996,37.107462200000043],[-113.56635819999997,37.107548400000042],[-113.56636012999996,37.107611661000078],[-113.56636189999995,37.107656500000076]]],[[[-113.56214409099999,37.109037900000033],[-113.56214409999995,37.109037700000044],[-113.56214379899995,37.109037901000079],[-113.56214409099999,37.109037900000033]]],[[[-113.56214409099999,37.109037900000033],[-113.56214189999997,37.109086600000069],[-113.56213799999995,37.109195800000066],[-113.56212999999997,37.10940800000003],[-113.56212269999997,37.109599900000035],[-113.56211799999994,37.109731500000066],[-113.56211619999999,37.10978440000008],[-113.56215409999999,37.10978440000008],[-113.56223859999994,37.109784300000058],[-113.56227929999994,37.109784000000047],[-113.56250529999994,37.109783200000038],[-113.56280979999997,37.109782000000052],[-113.56290389999998,37.109781700000042],[-113.56321169999995,37.10978010000008],[-113.56320949999997,37.109694500000046],[-113.56320550099997,37.109567900000059],[-113.56320050099998,37.109410300000036],[-113.56319180099996,37.109123000000068],[-113.56318890099999,37.109037600000079],[-113.56317449999995,37.109037600000079],[-113.56263419999999,37.109037500000056],[-113.56236980099999,37.109037600000079],[-113.56224039999995,37.109037900000033],[-113.56214409099999,37.109037900000033]]],[[[-113.64083720099995,37.161307600000043],[-113.64089540099997,37.161339300000066],[-113.64092629999999,37.161356700000056],[-113.64095610099997,37.161373200000071],[-113.64097311799998,37.161382747000061],[-113.64097639999994,37.161384300000066],[-113.64101341199995,37.161356426000054],[-113.64105669999998,37.161323200000027],[-113.64107709999996,37.161307700000066],[-113.64108749999997,37.161300200000028],[-113.64108807499997,37.161300195000024],[-113.64108820099995,37.161300100000062],[-113.64109112499995,37.161300165000057],[-113.64110830099997,37.16130000000004],[-113.64127429999996,37.16130400000003],[-113.64147077699994,37.16130864400003],[-113.64239545599997,37.161329293000051],[-113.64240889999996,37.161329500000079],[-113.64240947799999,37.161296702000072],[-113.64241949399997,37.160109700000078],[-113.64242329999996,37.159593600000051],[-113.64242799999994,37.159046100000069],[-113.64243169999997,37.158596200000034],[-113.64243489999996,37.158221400000059],[-113.64243600099996,37.158096400000034],[-113.64243760099998,37.157887500000072],[-113.64243970099994,37.157635700000071],[-113.64244040099999,37.157606600000065],[-113.64244059999999,37.157606600000065],[-113.64310729999994,37.157604400000025],[-113.64314090099998,37.157605500000045],[-113.64478669999994,37.157600500000058],[-113.64579120399998,37.157605618000048],[-113.64687281399995,37.157605300000057],[-113.64716999999996,37.157603900000026],[-113.64721289999994,37.157605000000046],[-113.64721290699998,37.157605200000035],[-113.64721360099998,37.157605200000035],[-113.64721416699996,37.157639071000062],[-113.64721830099995,37.157750300000032],[-113.64722521799996,37.158300712000027],[-113.64724401199999,37.159426032000056],[-113.64724514099998,37.159479198000042],[-113.64874102499999,37.159465419000071],[-113.65005079999997,37.159450900000024],[-113.65086949999994,37.159445812000058],[-113.65197767999996,37.159435605000056],[-113.65197524699994,37.159282198000028],[-113.65195728399999,37.158348867000029],[-113.65195039999998,37.158008700000039],[-113.65194509999998,37.157728700000064],[-113.65194509999998,37.15771581000007],[-113.65194390099998,37.157653500000038],[-113.65249517399997,37.157644858000026],[-113.65283209999996,37.157635400000061],[-113.65450710099998,37.157604000000049],[-113.65581696899994,37.157592785000077],[-113.67012347399998,37.157368509000037],[-113.67012989999995,37.157368200000064],[-113.67014320099997,37.157368200000064],[-113.67012733499996,37.15155678800005],[-113.67012441199995,37.150486049000051],[-113.67010469699994,37.143265337000059],[-113.67008958799994,37.142627207000032],[-113.67008954899995,37.142625526000074],[-113.67006590099999,37.142589200000032],[-113.67005853499995,37.142577678000066],[-113.66952130099997,37.14172080000003],[-113.66950903599997,37.141701185000045],[-113.66937399999995,37.141482200000041],[-113.66936309999994,37.141464600000063],[-113.66932199999997,37.141399700000079],[-113.66922430099999,37.141243600000053],[-113.66911609999994,37.141069900000048],[-113.66901569999999,37.140911700000061],[-113.66895589999996,37.140817700000071],[-113.66888560099994,37.140707100000043],[-113.66878029999998,37.140541800000051],[-113.66855919999995,37.140209900000059],[-113.66851150099995,37.14013650000004],[-113.66836440099996,37.139965200000063],[-113.66823029999995,37.139808900000048],[-113.66820300199998,37.139776515000051],[-113.66815679999996,37.139721200000054],[-113.66815569699997,37.139720403000069],[-113.66794220099996,37.139566500000058],[-113.66777529999996,37.13944680000003],[-113.66771650099997,37.139404300000024],[-113.66746330099994,37.139300000000048],[-113.66728150099999,37.139224400000046],[-113.66719209999997,37.139187600000071],[-113.66688279999994,37.139126700000077],[-113.66667770099997,37.139086200000065],[-113.66666100499998,37.139083184000071],[-113.66663709999995,37.139078300000051],[-113.66663010099995,37.139077601000054],[-113.66649020099999,37.139063200000066],[-113.66608479999996,37.139023400000042],[-113.66571849999997,37.138989000000038],[-113.66561470099998,37.138979200000051],[-113.66529860099996,37.138929500000074],[-113.66520199999997,37.138914000000057],[-113.66513060099999,37.138899600000059],[-113.66507649999994,37.138888100000031],[-113.66506429999998,37.138886400000047],[-113.66502169999995,37.13887260000007],[-113.66498500099999,37.138861100000042],[-113.66496979999994,37.138857100000052],[-113.66494960099999,37.138850200000036],[-113.66488179999999,37.138819700000056],[-113.66477799999996,37.13877430000008],[-113.66474642299994,37.138760504000061],[-113.66450999999995,37.138654100000053],[-113.66447607599997,37.138640514000031],[-113.66447450099997,37.138639800000078],[-113.66441899999995,37.138605900000073],[-113.66436419999997,37.138572000000067],[-113.66431149999994,37.138538700000026],[-113.66422639999996,37.138484600000027],[-113.66417379999996,37.138451900000064],[-113.66414806499995,37.138435935000075],[-113.66413402599994,37.138427087000025],[-113.66411479999999,37.138414800000078],[-113.66410790399999,37.138410625000063],[-113.66406630999995,37.13838441300004],[-113.66404630099998,37.138364800000033],[-113.66400160099994,37.138319700000068],[-113.66393889999995,37.138255900000047],[-113.66387998399995,37.138196767000068],[-113.66374599999995,37.138058400000034],[-113.66370009999997,37.137992301000054],[-113.66365408799999,37.137924516000055],[-113.66356279999997,37.137784800000077],[-113.66347200099995,37.137628500000062],[-113.66340536499996,37.137503608000031],[-113.66339079999995,37.137472700000046],[-113.66336919999998,37.137427900000034],[-113.66336708499995,37.137423527000067],[-113.66332099999994,37.13731510000008],[-113.66327956299995,37.137203795000062],[-113.66326570099994,37.137162900000078],[-113.66326105599995,37.137149257000033],[-113.66323449999999,37.137053000000037],[-113.66319989999994,37.136887400000035],[-113.66317969999994,37.136703500000067],[-113.66317479699995,37.136641280000049],[-113.66317740099998,37.136609900000053],[-113.66318430099994,37.13652460000003],[-113.66319389999995,37.136407400000053],[-113.66320079999997,37.136324100000024],[-113.66320650399996,37.136254062000035],[-113.66323449999999,37.135919500000057],[-113.66323832299997,37.135862603000078],[-113.66324290099999,37.135806500000058],[-113.66325410099995,37.135667500000068],[-113.66326549999997,37.135527600000046],[-113.66330411299998,37.135056473000077],[-113.66332679999999,37.134802000000036],[-113.66334409999996,37.134579000000031],[-113.66334366599995,37.134572457000047],[-113.66334400099998,37.134569600000077],[-113.66334230799998,37.13455199200007],[-113.66334119999999,37.134535300000039],[-113.66333669599999,37.13449360900006],[-113.66333460099997,37.134471800000028],[-113.66332640099995,37.134394200000031],[-113.66331450099995,37.134282400000075],[-113.66329640099997,37.134195600000055],[-113.66328309999994,37.134130600000049],[-113.66325429399996,37.134053953000034],[-113.66324609999998,37.134027200000048],[-113.66323739699999,37.134010289000059],[-113.66322869999999,37.133988100000067],[-113.66320449999995,37.133943200000033],[-113.66317240099994,37.133882000000028],[-113.66314789999996,37.133838000000026],[-113.66311580099995,37.133794900000055],[-113.66305959999994,37.133720200000027],[-113.66302569999999,37.133675900000071],[-113.66297020099995,37.133617300000026],[-113.66296505999998,37.133611806000033],[-113.66296050099999,37.133606400000076],[-113.66286820099998,37.133505300000024],[-113.66286025099998,37.133499723000057],[-113.66285949999997,37.133498900000063],[-113.66269799999998,37.133382200000028],[-113.66265869999995,37.133353700000043],[-113.66260889999995,37.133325900000045],[-113.66258620099995,37.133362100000056],[-113.66256919999995,37.133389600000044],[-113.66252089999995,37.133467800000062],[-113.66247760099998,37.13355480000007],[-113.66242880099998,37.133653600000059],[-113.66242120099997,37.133668500000056],[-113.66241510399999,37.133680824000066],[-113.66241150099995,37.133687400000042],[-113.66141240099995,37.133857500000033],[-113.66140246299994,37.133859202000053],[-113.66128839999999,37.133878400000071],[-113.66120189999998,37.133893400000034],[-113.66104975799999,37.13391959900008],[-113.66074550099995,37.133971700000075],[-113.66073381199999,37.134064198000033],[-113.66072160099998,37.134153200000071],[-113.66062359999995,37.134165900000028],[-113.66052380099995,37.134154200000069],[-113.66035649999998,37.134134700000061],[-113.66008399999998,37.134148500000038],[-113.65987769999998,37.134160000000065],[-113.65979990099999,37.134163400000034],[-113.65976806299994,37.134166257000061],[-113.65976129999996,37.134166600000071],[-113.65976256899995,37.134149029000071],[-113.65976670099997,37.134104800000046],[-113.65961830099997,37.134031600000071],[-113.65956047699996,37.134003353000026],[-113.65929989999995,37.133873400000027],[-113.65920541199995,37.13386715300004],[-113.65914529999998,37.133861400000058],[-113.65895640099995,37.133822400000042],[-113.65877422399996,37.13378769500008],[-113.65869919999994,37.133772400000055],[-113.65849259399994,37.13367871500003],[-113.65845980499995,37.133596046000036],[-113.65841149999994,37.133472100000063],[-113.65829168899995,37.133438618000071],[-113.65820369999994,37.133413100000041],[-113.65803880899995,37.133367948000057],[-113.65789979999994,37.133329100000026],[-113.65781042299994,37.133385486000066],[-113.65774079999994,37.133428000000038],[-113.65756480099998,37.133544100000051],[-113.65747829999998,37.133600500000057],[-113.65733780099998,37.133658100000048],[-113.65716769999995,37.133759300000065],[-113.65695570099996,37.13389490000003],[-113.65675089999996,37.134027100000026],[-113.65657850099996,37.134200800000031],[-113.65643860099999,37.134339900000043],[-113.65639733699999,37.134382616000039],[-113.65634380099999,37.134436100000073],[-113.65599769999994,37.134645400000068],[-113.65599640499994,37.134644123000044],[-113.65591549999999,37.134558100000049],[-113.65586559999997,37.134511700000076],[-113.65583499999997,37.134511400000065],[-113.65580912999997,37.134520351000049],[-113.65576410099999,37.134535000000028],[-113.65569709299996,37.13455857200006],[-113.65568789999998,37.13456160000004],[-113.65568701199999,37.134562118000076],[-113.65568279999997,37.134563600000035],[-113.65564619899999,37.134585945000026],[-113.65544569999997,37.134703000000059],[-113.65536151999999,37.134752215000049],[-113.65533669999996,37.13476600000007],[-113.65522162999997,37.134828201000062],[-113.65484830099996,37.135004000000038],[-113.65461910099998,37.135118900000066],[-113.65456569999998,37.135175300000071],[-113.65446619999994,37.135187900000062],[-113.65429319999998,37.135208600000055],[-113.65425518099994,37.135210200000074],[-113.65419516999998,37.135211241000036],[-113.65405809999999,37.13520520000003],[-113.65398459999994,37.135204000000044],[-113.65391287799997,37.135205125000027],[-113.65391199999999,37.135205100000064],[-113.65390191899996,37.135204877000035],[-113.65382019999998,37.135200600000076],[-113.65371059999995,37.135200600000076],[-113.65361239999999,37.135188800000037],[-113.65353804899996,37.135180956000056],[-113.65349423799995,37.135175805000074],[-113.65343000099995,37.135163500000033],[-113.65336719999999,37.135141700000077],[-113.65324324399995,37.135100500000078],[-113.65299179599998,37.135009411000055],[-113.65288420099995,37.134962900000062],[-113.65277460099998,37.134916400000066],[-113.65264619999999,37.134860600000025],[-113.65256759999994,37.134826700000076],[-113.65249989999995,37.134795100000076],[-113.65242410099995,37.13475770000008],[-113.65230230099996,37.134696800000029],[-113.65222509999995,37.134657100000027],[-113.65207950099995,37.134604200000069],[-113.65199895999996,37.134574054000041],[-113.65181239999998,37.134483200000034],[-113.65169119999996,37.134385300000076],[-113.65149660599997,37.134197456000038],[-113.65145220099998,37.134150700000077],[-113.65137939999994,37.134069100000033],[-113.65135490099999,37.134043200000065],[-113.65131670099998,37.134001800000078],[-113.65127480099994,37.133957000000066],[-113.65121569999997,37.13389490000003],[-113.65108660099997,37.133790800000043],[-113.65087179999995,37.13362120000005],[-113.65087043599999,37.133620151000059],[-113.65071350099998,37.133493200000032],[-113.65029274599999,37.133274928000048],[-113.65029249999998,37.133274800000038],[-113.64994548299995,37.133204185000068],[-113.64987429999996,37.133189700000059],[-113.64987897499998,37.13309266400006],[-113.64988242199996,37.133021125000027],[-113.64988869999996,37.132890800000041],[-113.64992938199998,37.132858337000073],[-113.64998770099999,37.132812700000045],[-113.64990019999999,37.132706900000073],[-113.65012230099995,37.132612600000073],[-113.64993809999999,37.132425200000057],[-113.64987829999995,37.132364800000062],[-113.64984079999999,37.13232400000004],[-113.64982060099999,37.132308500000079],[-113.64976439999998,37.132266500000071],[-113.64970739999995,37.132314800000074],[-113.64964698699998,37.132367543000043],[-113.64963069099997,37.132381723000037],[-113.64955260099998,37.132438000000036],[-113.64948630099997,37.132486300000039],[-113.64944439999999,37.13251050000008],[-113.64941492299994,37.132529043000034],[-113.64933462699997,37.132574687000044],[-113.64933285399997,37.132575618000033],[-113.64926938199994,37.132607027000063],[-113.64925359999995,37.132612100000074],[-113.64920268399999,37.132632133000072],[-113.64907548799999,37.132679154000073],[-113.64904370099998,37.132689700000071],[-113.64894999999996,37.13271780000008],[-113.64893795599994,37.132721506000053],[-113.64845737299999,37.13285303300006],[-113.64823340099997,37.132913700000074],[-113.64793559999998,37.132999400000074],[-113.64766148699999,37.133074101000034],[-113.64764740099997,37.133077900000046],[-113.64762883599997,37.133083000000056],[-113.64741050099997,37.133142500000076],[-113.64719836499995,37.133200996000028],[-113.64699781699994,37.133255613000074],[-113.64694609999998,37.133269100000064],[-113.64690500099999,37.133280600000035],[-113.64686969299999,37.133293651000031],[-113.64685569999995,37.133298000000025],[-113.64682845799996,37.133309312000051],[-113.64681779999995,37.133313400000077],[-113.64680510099998,37.133319010000037],[-113.64672949999999,37.13335040000004],[-113.64670259899998,37.133371264000061],[-113.64668340099996,37.133384300000046],[-113.64667247899996,37.133392492000041],[-113.64665449999995,37.133405000000039],[-113.64661269999999,37.133451500000035],[-113.64659086499995,37.133475986000064],[-113.64656160099997,37.133507900000041],[-113.64654350099994,37.133527400000048],[-113.64650599999999,37.133609600000057],[-113.64692000099996,37.133812400000068],[-113.64688332299994,37.133869096000069],[-113.64681997999998,37.13396132500003],[-113.64680990599999,37.133970903000034],[-113.64677809999995,37.133996700000068],[-113.64674500099994,37.134027200000048],[-113.64668949999998,37.134065700000065],[-113.64665990099996,37.134084100000052],[-113.64650129999995,37.13416280000007],[-113.64638190299996,37.134221489000026],[-113.64631430099996,37.134253800000067],[-113.64605189999997,37.134382600000038],[-113.64544909999995,37.13466770000008],[-113.64542658399995,37.134637800000064],[-113.64540739999995,37.134609300000079],[-113.64534539999994,37.134556400000065],[-113.64524300099998,37.134473100000037],[-113.64511829999998,37.134368500000051],[-113.64496539999999,37.134300100000075],[-113.64474259999997,37.134202900000048],[-113.64457160099994,37.134128000000032],[-113.64446490099999,37.134079700000029],[-113.64432240099995,37.134016300000042],[-113.64404049999996,37.133892200000048],[-113.64374069999997,37.133759100000077],[-113.64361164399998,37.133702282000058],[-113.64330029999996,37.13356420000008],[-113.64330013599999,37.133564184000079],[-113.64329839999999,37.133563400000071],[-113.64307849999994,37.133540400000072],[-113.64289179999997,37.133543800000041],[-113.64275699999996,37.133545600000048],[-113.64245113599998,37.133550385000035],[-113.64242818599996,37.133550633000027],[-113.64241009999995,37.133550200000059],[-113.64226880099994,37.133551300000079],[-113.64224499999995,37.133551900000043],[-113.64172009999999,37.133557600000074],[-113.64168882899997,37.133558067000024],[-113.64135999999996,37.133561500000042],[-113.64123019999994,37.133564400000068],[-113.64094039999998,37.133573000000069],[-113.64087480099994,37.133566700000074],[-113.64084266699996,37.133564504000049],[-113.64081459999994,37.13356170000003],[-113.64082470099999,37.133684100000039],[-113.64061778799999,37.133695731000046],[-113.64061150099997,37.133696000000043],[-113.64060655599997,37.13369636200008],[-113.64059520099994,37.133697000000041],[-113.64050976699997,37.133703451000031],[-113.64004620099996,37.13373740000003],[-113.63985440099998,37.133751200000063],[-113.63985202499998,37.133751406000044],[-113.63983250099994,37.133752800000025],[-113.63964000099998,37.133768300000042],[-113.63959099999994,37.133771700000068],[-113.63926989999999,37.133833300000049],[-113.63914369999998,37.133856800000046],[-113.63899020099996,37.133887300000026],[-113.63896209999996,37.133893600000079],[-113.63880129999995,37.13392470000008],[-113.63863150099996,37.133956300000079],[-113.63847289999995,37.133987300000058],[-113.63844259999996,37.133993100000055],[-113.63828609999996,37.134024100000033],[-113.63821039999999,37.134038500000031],[-113.63817719999997,37.134045400000048],[-113.63811669999996,37.134057400000074],[-113.63798909999997,37.134082700000079],[-113.63794359999997,37.13409310000003],[-113.63785859999996,37.134120100000075],[-113.63778730099995,37.134143800000061],[-113.63774088499997,37.134160101000077],[-113.63772829099997,37.13416419400005],[-113.63770079999995,37.134172000000035],[-113.63768055999998,37.134183137000036],[-113.63767940899999,37.13418374500003],[-113.63766302599998,37.134191894000026],[-113.63766485999997,37.134156062000045],[-113.63766620099994,37.134144900000024],[-113.63766829999997,37.134119100000078],[-113.63766930099996,37.134057700000028],[-113.63766780099996,37.133861200000069],[-113.63766930099996,37.133756500000061],[-113.63766729999998,37.132979000000034],[-113.63766729999998,37.132918700000062],[-113.63766509999999,37.132552500000031],[-113.63766380999999,37.132387271000027],[-113.63766299999997,37.132199293000042],[-113.63766299999997,37.132124300000044],[-113.63766237499999,37.132054289000052],[-113.63765530099994,37.130413700000076],[-113.63764960099996,37.129590500000063],[-113.63765530099994,37.129047900000046],[-113.63764379999998,37.12854660000005],[-113.63764207599996,37.128461948000052],[-113.63764189999995,37.128433400000063],[-113.63763389999997,37.128024200000027],[-113.63763056499994,37.127896690000057],[-113.63762460099997,37.127603800000031],[-113.63760729999996,37.126943900000072],[-113.63760552599996,37.126861526000027],[-113.63760597299995,37.126790390000053],[-113.63760869999999,37.126757600000076],[-113.63760644499996,37.126697701000069],[-113.63760618499998,37.126656314000059],[-113.63760710099996,37.126598400000034],[-113.63760581899999,37.126598014000024],[-113.63760580099995,37.126595100000031],[-113.63744397699998,37.12654927300008],[-113.63719469999995,37.126474200000075],[-113.63653332299998,37.126286368000081],[-113.63598619999999,37.126126400000032],[-113.63580296799995,37.126078679000045],[-113.63514410099998,37.125887900000066],[-113.63386929999996,37.125515300000075],[-113.63301010099997,37.125270089000026],[-113.63260109999999,37.12515170000006],[-113.63128309999996,37.124783800000046],[-113.63094279999996,37.124687200000039],[-113.62816059999994,37.12390570000008],[-113.62766511599995,37.123767385000065],[-113.62692690099999,37.123558700000046],[-113.62674864799999,37.123508052000034],[-113.62615299999999,37.12333540000003],[-113.62597114999994,37.123286631000042],[-113.62566359999994,37.123198800000068],[-113.62563548099996,37.123191417000044],[-113.62557040099995,37.123172200000056],[-113.62540890099996,37.123126200000058],[-113.62523300099997,37.123082500000066],[-113.62505419999997,37.123045700000034],[-113.62489259999995,37.123011200000064],[-113.62483148399997,37.123000565000041],[-113.62481719999994,37.122997600000076],[-113.62477685999994,37.122991058000025],[-113.62473399999999,37.122983600000055],[-113.62456100099996,37.122953700000039],[-113.62440464599996,37.122930702000076],[-113.62437010099995,37.122925100000032],[-113.62410797799998,37.122886385000072],[-113.62403610099994,37.122875500000077],[-113.62403382299999,37.122875433000047],[-113.62401869999997,37.122873200000072],[-113.62387449999994,37.122868600000061],[-113.62374394599999,37.122866998000063],[-113.62364089999994,37.12286400000005],[-113.62351307699998,37.122864784000058],[-113.62315919999998,37.122861700000044],[-113.62290504399999,37.122862128000065],[-113.62266899999997,37.122859400000038],[-113.62127626899996,37.122857679000049],[-113.62127778399997,37.12286000000006],[-113.62125689999999,37.12300520000008],[-113.62125367599998,37.123025612000049],[-113.62124700099997,37.123076200000071],[-113.62122578699996,37.123202186000071],[-113.62120859999999,37.123311000000058],[-113.62118849999996,37.12343750000008],[-113.62115942099996,37.123493959000029],[-113.62113889999995,37.123535000000061],[-113.62103712399994,37.123640130000069],[-113.62101820099997,37.123659900000064],[-113.62100690399996,37.123671345000048],[-113.62090520099997,37.123776400000054],[-113.62080563399996,37.123836808000078],[-113.62078509999998,37.123849600000028],[-113.62060940099997,37.123956500000077],[-113.62060723799999,37.123957175000044],[-113.62060389999999,37.123959200000058],[-113.62048989999994,37.123996000000034],[-113.62045100099999,37.124009800000067],[-113.62044420699999,37.124012407000066],[-113.62017759999998,37.124120100000027],[-113.61988519999994,37.12423670000004],[-113.61984730299997,37.124250884000048],[-113.61981558899998,37.124263660000054],[-113.61973619999998,37.124352800000054],[-113.61946660099994,37.124639300000069],[-113.61943839999998,37.124749500000064],[-113.61943134599994,37.12477610500008],[-113.61941569999999,37.124840600000027],[-113.61934333299996,37.124940968000033],[-113.61924000099998,37.125087400000041],[-113.61909974899999,37.125288569000077],[-113.61912933399998,37.125352408000026],[-113.61914740099996,37.125390000000039],[-113.61916889999998,37.125439200000073],[-113.61917974199997,37.12555560800007],[-113.61919729999994,37.125735400000053],[-113.61921750099998,37.125943500000062],[-113.61921829999994,37.125991298000031],[-113.61921970099996,37.126015900000027],[-113.61922046599994,37.126075090000029],[-113.61922259999994,37.126136100000053],[-113.61922311599994,37.126173918000063],[-113.61922639999995,37.126263200000039],[-113.61922639999995,37.12640220000003],[-113.61922827299998,37.126479326000037],[-113.61922989999999,37.126507700000047],[-113.61923468599997,37.126557254000033],[-113.61923850099998,37.126587200000074],[-113.61923711199995,37.126633800000036],[-113.61925459999998,37.126633800000036],[-113.61931230099998,37.126633300000037],[-113.61943160099997,37.126633300000037],[-113.61944709399995,37.126633300000037],[-113.61947049999998,37.126633200000072],[-113.61947811899995,37.126633300000037],[-113.61955529999994,37.126633300000037],[-113.61963780099995,37.126633300000037],[-113.61978102699999,37.126637287000051],[-113.61978960099998,37.12663740000005],[-113.61998750099997,37.126643300000069],[-113.62002699999999,37.126644400000032],[-113.62004304999999,37.126650361000031],[-113.62008809999998,37.126665500000058],[-113.62008989999998,37.126700800000037],[-113.62009085599999,37.126723344000027],[-113.62009140099997,37.126734700000043],[-113.62009140099997,37.126736200000039],[-113.62009550099998,37.129268800000034],[-113.62010034799999,37.129328119000036],[-113.62010170099995,37.129335200000071],[-113.62010640099999,37.129368800000066],[-113.62010521299999,37.12936882200006],[-113.62010529999998,37.129369500000053],[-113.61924199999999,37.129368301000056],[-113.61924258999994,37.129604552000046],[-113.61924263899999,37.129610683000067],[-113.61924729999998,37.12981590000004],[-113.61925100099995,37.13002460000007],[-113.61925030099997,37.130111300000067],[-113.61925320099999,37.130356300000074],[-113.61925660099996,37.130562700000041],[-113.61925720099998,37.130658400000073],[-113.61926190099996,37.130876000000058],[-113.61926190099996,37.131050900000048],[-113.61926260099995,37.131221200000027],[-113.61926499999998,37.131578200000035],[-113.61926369999998,37.131716100000062],[-113.61926309999996,37.131981600000074],[-113.61926269999998,37.132065900000043],[-113.61926233699995,37.132074513000077],[-113.61926239999997,37.132082400000058],[-113.61926200199997,37.132082462000028],[-113.61926199999999,37.132082500000024],[-113.61926160799999,37.132082523000065],[-113.61924429999999,37.132085200000063],[-113.61917080099994,37.132088700000054],[-113.61915041999998,37.132088846000045],[-113.61904220099996,37.132095000000049],[-113.61829389999997,37.13209930000005],[-113.61726389999995,37.132107800000028],[-113.61613579999994,37.132115700000043],[-113.61495369999994,37.132120500000042],[-113.61481619999995,37.132121000000041],[-113.61480533299999,37.132121000000041],[-113.61479179999998,37.132121100000063],[-113.61477759599995,37.13211969200006],[-113.61465407099996,37.132111052000027],[-113.61462701699998,37.132111253000062],[-113.61458149999999,37.132111900000041],[-113.61446150099999,37.132113000000061],[-113.61434139999994,37.13211350000006],[-113.61426029999996,37.132114100000024],[-113.61426129999995,37.13260310000004],[-113.61426129999995,37.13313560000006],[-113.61426210099995,37.133526200000063],[-113.61426210099995,37.133600000000058],[-113.61426210099995,37.13363860000004],[-113.61426210099995,37.133639500000072],[-113.61418839999999,37.133766800000046],[-113.61412399999995,37.133878000000038],[-113.61406229999994,37.133950700000071],[-113.61404938899994,37.133965056000079],[-113.61408769999997,37.133977700000059],[-113.61415549999998,37.134001200000057],[-113.61421969999998,37.134021300000029],[-113.61443379999997,37.134126000000037],[-113.61462270099997,37.134218500000031],[-113.61471691999998,37.134264543000029],[-113.61486180099996,37.134335200000066],[-113.61486506099999,37.134336936000068],[-113.61494499999998,37.134376000000032],[-113.61532290099996,37.134580100000051],[-113.61546919999995,37.134668600000055],[-113.61553403999994,37.134707624000043],[-113.61564249999998,37.134772700000042],[-113.61569205999996,37.134802729000057],[-113.61583689999998,37.134889900000076],[-113.61592310499998,37.134942602000024],[-113.61609169999997,37.135043200000041],[-113.61610407099994,37.135050608000029],[-113.61610439899999,37.13505080200008],[-113.61622424999996,37.135121950000041],[-113.61624859999995,37.135136200000034],[-113.61626303399999,37.13514480200007],[-113.61650970099998,37.135289400000033],[-113.61662830699998,37.135360339000044],[-113.61663729999998,37.135365600000057],[-113.61668759999998,37.135404100000073],[-113.61679490099999,37.135486900000046],[-113.61695040099994,37.135606700000039],[-113.61707459999997,37.135701900000072],[-113.61714079499995,37.135753008000052],[-113.61762509999994,37.136124900000027],[-113.61771275399997,37.13619419500003],[-113.61775279999995,37.136224900000059],[-113.61791809999994,37.136352100000067],[-113.61804209999997,37.136447200000077],[-113.61814525099999,37.136526669000034],[-113.61840040899995,37.136722525000039],[-113.61852869999996,37.136820800000066],[-113.61867079999996,37.13693150000006],[-113.61878039999999,37.137016200000062],[-113.61891189999994,37.13711690000008],[-113.61891698599999,37.137120994000043],[-113.61892809999995,37.137129500000071],[-113.61893858599996,37.137138380000067],[-113.61898159999998,37.137173000000075],[-113.61902179999998,37.137207200000034],[-113.61907568399994,37.137253842000064],[-113.61914939999997,37.137315200000046],[-113.61918298999996,37.137345123000046],[-113.61919159999997,37.137352400000054],[-113.61924536799995,37.137398832000031],[-113.61924959999999,37.13740080000008],[-113.61931239999996,37.137487600000043],[-113.61932558399997,37.137505649000047],[-113.61935930099997,37.137551300000041],[-113.61936802999998,37.137563063000073],[-113.61938229999998,37.137580700000058],[-113.61943646799995,37.13765528700003],[-113.61946719999997,37.137696700000049],[-113.61959930099999,37.137875800000074],[-113.61961778899996,37.137900750000028],[-113.61964399999999,37.13793540000006],[-113.61966768499997,37.137968085000068],[-113.61977669999999,37.138115200000072],[-113.61991740099995,37.138305000000059],[-113.61993807199997,37.138333084000067],[-113.61994110099994,37.138337100000058],[-113.61994730899994,37.138345634000075],[-113.62003759999999,37.138468300000056],[-113.62004892399995,37.138484737000056],[-113.62008459999998,37.138532600000076],[-113.62012103199999,37.138589412000044],[-113.62012749999997,37.138598800000068],[-113.62025389999997,37.138795100000038],[-113.62037460099998,37.138982200000044],[-113.62046659999999,37.139126300000044],[-113.62056332499998,37.13927800600004],[-113.62056479499995,37.139280302000031],[-113.62072309999996,37.139528600000062],[-113.62076870099997,37.139600700000074],[-113.62078139099998,37.139621211000076],[-113.62079620099996,37.139642500000036],[-113.62098232499994,37.139941000000078],[-113.62099329999995,37.139958400000069],[-113.62102973099996,37.140017016000058],[-113.62123749999995,37.140350000000069],[-113.62135870099996,37.140543800000046],[-113.62141520199998,37.140634715000033],[-113.62143839999999,37.140671800000064],[-113.62160359999996,37.140930700000069],[-113.62168167899995,37.141055919000053],[-113.62170629999997,37.141094400000043],[-113.62183029999994,37.141294500000072],[-113.62183223099998,37.14129783900006],[-113.62186980099995,37.141358400000058],[-113.62188729999997,37.141386200000056],[-113.62192199999998,37.14146020000004],[-113.62198910099994,37.141605100000049],[-113.62214560099994,37.141944300000034],[-113.62225360099995,37.142177900000036],[-113.62226991299997,37.142213437000066],[-113.62233789999999,37.142360100000076],[-113.62237057599998,37.142432725000049],[-113.62237799999997,37.142448900000034],[-113.62238428699999,37.142463201000055],[-113.62252249999995,37.142770400000074],[-113.62265219999995,37.142980800000032],[-113.62284839999995,37.143284300000062],[-113.62314970099999,37.143701500000077],[-113.62316223399995,37.143718732000025],[-113.62317799999994,37.143739800000048],[-113.62333739999997,37.14395230000008],[-113.62343369999996,37.144080400000064],[-113.62353629999996,37.144237000000032],[-113.62360291399995,37.144338713000025],[-113.62367180099994,37.144440600000053],[-113.62383330099999,37.144693500000074],[-113.62383432499996,37.14469508600007],[-113.62389819999999,37.14479190000003],[-113.62413060099999,37.145146800000077],[-113.62416776799995,37.14520340200005],[-113.62421537699998,37.145273964000069],[-113.62421540199995,37.14527399900004],[-113.62430039999998,37.145381500000042],[-113.62433356499997,37.145422887000052],[-113.62440429999998,37.145510800000068],[-113.62444752799996,37.145565939000051],[-113.62456049999997,37.14570770000006],[-113.62468470599998,37.145864268000025],[-113.62468699999994,37.145867100000032],[-113.62469011499996,37.145871086000056],[-113.62472399999996,37.145913800000073],[-113.62483520099994,37.146052200000042],[-113.62494709999999,37.146192500000041],[-113.62497216899999,37.146224192000034],[-113.62506620099998,37.146340700000053],[-113.62530442799999,37.146643576000031],[-113.62539709999999,37.146760100000051],[-113.62555660099997,37.14696020000008],[-113.62568739999995,37.147124700000063],[-113.62575179999999,37.147204900000077],[-113.62581920099996,37.147290200000043],[-113.62592109999997,37.147418500000072],[-113.62594930599994,37.147453861000031],[-113.62601509999996,37.147531500000071],[-113.62605204299996,37.147582667000052],[-113.62606180099999,37.147594900000058],[-113.62608989999995,37.147631300000057],[-113.62612350099994,37.147671400000036],[-113.62616547899995,37.147714817000065],[-113.62619249999995,37.147739600000079],[-113.62630929999995,37.147856800000056],[-113.62643620099999,37.147981000000073],[-113.62671019999999,37.148258000000055],[-113.62719460899996,37.148745566000059],[-113.62733965299998,37.148891134000053],[-113.62770387399996,37.14925278700008],[-113.62777729999999,37.149322700000027],[-113.62789301499998,37.149430531000064],[-113.62794019999995,37.149474100000077],[-113.62825599999996,37.149767100000076],[-113.62828641099998,37.149796197000057],[-113.62841319999995,37.149913800000036],[-113.62849429999994,37.14999030000007],[-113.62864729999995,37.150132000000042],[-113.62867978699995,37.15016177900003],[-113.62873909999996,37.150215400000036],[-113.62874618599994,37.150223082000025],[-113.62875390099998,37.150230400000055],[-113.62880560099995,37.150270100000057],[-113.62888600099996,37.150331600000072],[-113.62891091499995,37.150350274000061],[-113.62891510099996,37.150353300000063],[-113.62897419999996,37.150395900000035],[-113.62913133999996,37.150516789000051],[-113.62919579999999,37.150565300000039],[-113.62936509999997,37.150693700000033],[-113.62954979999995,37.150833400000067],[-113.62957340599996,37.150851444000068],[-113.62999799999994,37.151170600000057],[-113.63058210099996,37.15161420000004],[-113.63085749999999,37.151815300000067],[-113.63100189999994,37.151921700000059],[-113.63102369999996,37.151937400000065],[-113.63121160099996,37.152074900000059],[-113.63133629999999,37.152165800000034],[-113.63136430599997,37.152186306000033],[-113.63145589999999,37.152252100000055],[-113.63157560099995,37.152342900000065],[-113.63194050099997,37.152627900000027],[-113.63258829999995,37.153130800000042],[-113.63267516199994,37.153198265000071],[-113.63267640099997,37.153199200000074],[-113.63268094799997,37.153202760000056],[-113.63278399999996,37.153282800000056],[-113.63296720099999,37.153425300000038],[-113.63304899999997,37.153488200000027],[-113.63316000099996,37.153574400000025],[-113.63323860099996,37.153636500000061],[-113.63328119999994,37.153686200000038],[-113.63336499299999,37.153788463000069],[-113.63342439999997,37.153859500000067],[-113.63346473799999,37.153908905000037],[-113.63351590099995,37.15397100000007],[-113.63357750099999,37.154046000000051],[-113.63437350099997,37.154983300000026],[-113.63473172299996,37.155403281000076],[-113.63485969999999,37.155553000000054],[-113.63495649999999,37.15566670000004],[-113.63515440099997,37.155897000000039],[-113.63532250099996,37.156094400000029],[-113.63536440099995,37.156143300000053],[-113.63546650099994,37.156262900000058],[-113.63552039999996,37.156325400000071],[-113.63555179999997,37.156362200000046],[-113.63558369999998,37.156399300000032],[-113.63559679999997,37.156414300000051],[-113.63563649399998,37.156460589000062],[-113.63574630099998,37.156586600000026],[-113.63597130099998,37.15686020000004],[-113.63597471899999,37.156864308000024],[-113.63598159999998,37.156872400000054],[-113.63599604099994,37.156889935000038],[-113.63609963499999,37.157014444000026],[-113.63611579999997,37.157033600000034],[-113.63620580099996,37.157141700000068],[-113.63624710099998,37.157191100000034],[-113.63627003099998,37.157218624000052],[-113.63796459999998,37.159210500000029],[-113.63805200299998,37.15931613500004],[-113.63810100099994,37.159373800000026],[-113.63816409999998,37.159448300000065],[-113.63833309999995,37.159647100000029],[-113.63836989999999,37.159683500000028],[-113.63841039999994,37.159724900000072],[-113.63844099999994,37.159756100000038],[-113.63846440099996,37.159779600000036],[-113.63853879999999,37.159855300000061],[-113.63861689999999,37.159935000000075],[-113.63875807799997,37.160077769000054],[-113.63879308199995,37.160112350000077],[-113.63898770099996,37.160302900000033],[-113.63905793499998,37.160370906000026],[-113.63912363699995,37.160433160000025],[-113.63920770099998,37.16050290000004],[-113.63927109999997,37.160555300000055],[-113.63929290099998,37.160572400000035],[-113.63930660099999,37.160584400000062],[-113.63932670099996,37.160601000000042],[-113.63935589999994,37.160625000000039],[-113.63937369999996,37.160639200000048],[-113.63943769999997,37.160680400000047],[-113.63948491999997,37.160710705000042],[-113.63956819999999,37.160758500000043],[-113.63965654199995,37.160804607000046],[-113.63970230099994,37.160825600000067],[-113.63976379999997,37.160852900000066],[-113.63983620099998,37.160885800000074],[-113.63987709999998,37.160902300000032],[-113.63998469999996,37.160946900000056],[-113.64016739999994,37.161018632000037],[-113.64017900099998,37.161022900000034],[-113.64023849999995,37.16104480000007],[-113.64033730099999,37.161081800000034],[-113.64034152999994,37.161083801000075],[-113.64038879999998,37.161104100000045],[-113.64046250099994,37.161136000000056],[-113.64051920099996,37.161160300000063],[-113.64066709999997,37.161223600000028],[-113.64076139999997,37.161266200000057],[-113.64083720099995,37.161307600000043]]]]},"properties":{"OBJECTID":1,"OBJECTID_1":5,"VertexCount":13,"Shape_Length":0.20873270865811686,"Shape_Area":0.0012312969605965136}},{"type":"Feature","id":71,"geometry":{"type":"Polygon","coordinates":[[[-113.56307817299995,37.105625811000039],[-113.56394749999998,37.105632700000058],[-113.56394779999999,37.105685100000073],[-113.56394779999999,37.105631906000042],[-113.56394670099996,37.105631900000049],[-113.56379599999997,37.105631100000039],[-113.56359080099998,37.105629600000043],[-113.56320509999995,37.105626700000073],[-113.56308649999994,37.105625600000053],[-113.56307817299995,37.105625811000039]]]},"properties":{"OBJECTID":71,"OBJECTID_1":null,"VertexCount":null,"Shape_Length":0.0018446024526668353,"Shape_Area":2.6741064988512075e-10}},{"type":"Feature","id":73,"geometry":{"type":"Polygon","coordinates":[[[-113.55943365499996,37.106503170000053],[-113.55943319499994,37.106504283000049],[-113.55958134299999,37.106503774000032],[-113.55945469999995,37.106503000000032],[-113.55943365499996,37.106503170000053]]]},"properties":{"OBJECTID":73,"OBJECTID_1":null,"VertexCount":null,"Shape_Length":0.00029704423895327237,"Shape_Area":1.0123636307285174e-10}}]}