{"type":"FeatureCollection","features":[{"type":"Feature","id":1,"geometry":{"type":"MultiPolygon","coordinates":[[[[-113.56320509999995,37.105626700000073],[-113.56359080099998,37.105629600000043],[-113.56379599999997,37.105631100000039],[-113.56394670099996,37.105631900000049],[-113.56394740099995,37.105622400000073],[-113.56394779999999,37.105603500000029],[-113.56394809999995,37.10557440000008],[-113.56394809999995,37.105546500000059],[-113.56394849999998,37.105471900000055],[-113.56394849999998,37.10544740000006],[-113.56394849999998,37.105279600000074],[-113.56394920099996,37.10516350000006],[-113.56394950099997,37.104998700000067],[-113.56394969999997,37.104977725000026],[-113.56394969999997,37.104952400000059],[-113.56395009999994,37.10492510000006],[-113.56394929999999,37.10490580000004],[-113.56394990099994,37.104873076000047],[-113.56394990099994,37.104862700000069],[-113.56395009999994,37.104829267000071],[-113.56395009999994,37.104790900000069],[-113.56395020099995,37.104778359000079],[-113.56395020099995,37.104748362000066],[-113.56394999999998,37.10474320000003],[-113.56395015899994,37.104736099000036],[-113.56394990399997,37.104695698000057],[-113.56390499999998,37.104694800000061],[-113.56387119999999,37.104694701000028],[-113.56383609999995,37.104694600000073],[-113.56372260099994,37.104694300000062],[-113.56369007399996,37.10469420000004],[-113.56362680099994,37.10469420000004],[-113.56341567599998,37.104693379000025],[-113.56331809999995,37.104693100000077],[-113.56314658699995,37.10469233300006],[-113.56298379999998,37.104691700000046],[-113.56297656299995,37.104691700000046],[-113.56296379999998,37.104691900000034],[-113.56291660099998,37.104691600000024],[-113.56289500299999,37.104691480000042],[-113.56268570099996,37.104690805000075],[-113.56236179999996,37.104690000000062],[-113.56232041599998,37.104689859000075],[-113.56218580099994,37.104689600000029],[-113.56216429199998,37.104689803000042],[-113.56215636099995,37.104689952000058],[-113.56215409999999,37.10469530000006],[-113.56215409999999,37.104706800000031],[-113.56215577399996,37.10482399600005],[-113.56215629999997,37.104832300000055],[-113.56215866799994,37.104939922000028],[-113.56216119999999,37.105028300000072],[-113.56216540099996,37.105200600000046],[-113.56216980099998,37.105353900000068],[-113.56217179999999,37.105433900000037],[-113.56217390099999,37.105506100000071],[-113.56217537299995,37.105579682000041],[-113.56218399999995,37.105580300000042],[-113.56221749999997,37.105582300000037],[-113.56229399999995,37.105586600000038],[-113.56238110099997,37.105592000000058],[-113.56241520099996,37.105594100000076],[-113.56244620099994,37.105595900000026],[-113.56262139999995,37.105606300000034],[-113.56263028799998,37.105606933000047],[-113.56279726899999,37.105614884000033],[-113.56289760099997,37.105618900000024],[-113.56294920099998,37.105621500000041],[-113.56301259999998,37.105623500000036],[-113.56304173699999,37.105624900000066],[-113.56304669999997,37.105624900000066],[-113.56306419999999,37.105625700000076],[-113.56306419599997,37.10562598000007],[-113.56306669999998,37.105626100000052],[-113.56307817299995,37.105625811000039],[-113.56308649999994,37.105625600000053],[-113.56320509999995,37.105626700000073]]],[[[-113.67008954899995,37.142625526000074],[-113.67008958799994,37.142627207000032],[-113.67010469699994,37.143265337000059],[-113.67012441199995,37.150486049000051],[-113.67012733499996,37.15155678800005],[-113.67014320099997,37.157368200000064],[-113.67020770099998,37.165858700000058],[-113.67012000099999,37.174313743000027],[-113.67012000099999,37.174344900000051],[-113.67012029999995,37.174598900000035],[-113.67012040099996,37.174669700000038],[-113.67011979999995,37.174859900000058],[-113.67012010099995,37.175001000000066],[-113.67011989999997,37.175347000000045],[-113.67011949999994,37.175444700000071],[-113.67011799999995,37.175671900000054],[-113.67011750099999,37.175765600000034],[-113.67011410099997,37.176247500000045],[-113.67011119999995,37.176594300000033],[-113.67011119999995,37.176650400000028],[-113.67009880099994,37.177261200000032],[-113.67009880099994,37.177932200000043],[-113.67010949999997,37.179338400000063],[-113.67011489999999,37.18018040000004],[-113.67012019999999,37.181291700000031],[-113.67012019999999,37.181860100000051],[-113.67011489999999,37.182236200000034],[-113.67012559999995,37.184668000000045],[-113.66988229999998,37.210381300000051],[-113.66979649999996,37.232115800000031],[-113.66971070099999,37.23939340000004],[-113.66966769999999,37.24267320000007],[-113.66966250099995,37.243441500000074],[-113.66980106799997,37.243440967000026],[-114.05144419999999,37.240894200000071],[-114.05146720099998,37.236118300000044],[-114.05154388399995,37.226754906000053],[-114.05124736099998,37.158099635000042],[-114.05105635399997,37.11384184700006],[-114.00136799999996,37.11407070000007],[-113.71501453399998,37.11524929400008],[-113.71492499999999,37.119175700000028],[-113.71492248699997,37.120822382000028],[-113.71491230099997,37.121439100000032],[-113.71492063199997,37.122037585000044],[-113.71491059999994,37.128610600000059],[-113.71490969999996,37.132845700000075],[-113.71490389999997,37.135609400000078],[-113.71500783199997,37.140853573000072],[-113.71504159999995,37.142557400000044],[-113.71402460099995,37.14260790000003],[-113.71110250999999,37.142573630000072],[-113.71088669999995,37.142571100000055],[-113.70496740099998,37.142560600000024],[-113.70447619999999,37.142560600000024],[-113.70397909999997,37.142560900000035],[-113.70356679999998,37.142561000000057],[-113.70324460099994,37.142561500000056],[-113.70313070099996,37.142527600000051],[-113.70292660099994,37.142467200000056],[-113.70274709999995,37.142484200000069],[-113.70238489999997,37.14251790000003],[-113.70191649999998,37.142562000000055],[-113.70165909999997,37.142412200000024],[-113.70159508599994,37.142375085000026],[-113.70131069999996,37.142210200000079],[-113.70127599999995,37.142189700000074],[-113.70120390099999,37.142019300000072],[-113.70115919999995,37.141911300000061],[-113.70110299999999,37.141779100000065],[-113.70109227999995,37.14177333300006],[-113.70106879999997,37.141760700000077],[-113.70084020299998,37.141643997000074],[-113.70066430099996,37.141553500000043],[-113.70059413799999,37.141517738000061],[-113.70045809999999,37.141448400000058],[-113.70034380099997,37.141389500000059],[-113.70002519999997,37.14122610000004],[-113.69990270099998,37.141163800000072],[-113.69982879999998,37.141059200000029],[-113.69967770099998,37.14084390000005],[-113.69953209999994,37.140636400000062],[-113.69940839999998,37.140460500000074],[-113.69936509999997,37.14039899900007],[-113.69933560099997,37.140357100000074],[-113.69930099999999,37.140309100000025],[-113.69924550099995,37.140329800000075],[-113.69892430099998,37.140451300000052],[-113.69871065899997,37.140532566000047],[-113.69858989999994,37.140578500000061],[-113.69850733299995,37.140609801000039],[-113.69847409999994,37.140622400000041],[-113.69844328999994,37.140634157000079],[-113.69840019999998,37.140650600000072],[-113.69812329999996,37.14067330000006],[-113.69793319999997,37.140689100000031],[-113.69770559999995,37.140707500000076],[-113.69753310099998,37.140721900000074],[-113.69750510399996,37.140724135000028],[-113.69737530099997,37.140734500000065],[-113.69721672599997,37.14074755200005],[-113.69715659999997,37.140752500000076],[-113.69715590099997,37.140644000000066],[-113.69715549999995,37.140414400000054],[-113.69715519999994,37.140219500000057],[-113.69715549999995,37.140048500000034],[-113.69715590099997,37.139846900000066],[-113.69715549999995,37.139637400000026],[-113.69715590099997,37.139435100000071],[-113.69715569999994,37.139209600000072],[-113.69715569999994,37.139021400000047],[-113.69715569999994,37.138940300000058],[-113.69715569999994,37.138939700000037],[-113.69689610099999,37.13874480000004],[-113.69680982099999,37.13868053200008],[-113.69672009999999,37.138613700000064],[-113.69642660099998,37.138393300000075],[-113.69625641399995,37.138496026000041],[-113.69580549999995,37.138768200000072],[-113.69575523299994,37.138798733000044],[-113.69560579999995,37.138889500000062],[-113.69528239999994,37.139085100000045],[-113.69502690899998,37.139239228000065],[-113.69502579899995,37.139239899000074],[-113.69475460099994,37.139403500000071],[-113.69472833799995,37.139419704000034],[-113.69464649999998,37.139470200000062],[-113.69435949999996,37.139643400000068],[-113.69417409999994,37.139756400000067],[-113.69410920099995,37.139794900000027],[-113.69404569999995,37.139799500000038],[-113.69382550499995,37.139813598000046],[-113.69363180099998,37.139826000000028],[-113.69320999999997,37.139852900000051],[-113.69311676599995,37.139858737000054],[-113.69310326999994,37.139859582000042],[-113.69302469999997,37.139864500000044],[-113.69263952999995,37.139890060000027],[-113.69252290099996,37.139897800000028],[-113.69252254399998,37.139897579000035],[-113.69236569999998,37.139800100000059],[-113.69196849999997,37.139554700000076],[-113.69138545499999,37.139194385000053],[-113.69137140099997,37.139185700000041],[-113.69136236399999,37.139180148000037],[-113.69126757999999,37.13912190800005],[-113.69112630099994,37.139035100000058],[-113.69056389999997,37.138687900000036],[-113.69009519999997,37.138395900000035],[-113.69004699399994,37.138365976000046],[-113.68969150099997,37.138145300000076],[-113.68905693099998,37.137753286000077],[-113.68896759999996,37.13769810000008],[-113.68866469999995,37.137513100000035],[-113.68854881499999,37.137438852000059],[-113.68848879999996,37.137400400000047],[-113.68852199999998,37.137269700000047],[-113.68860647699995,37.13694797900007],[-113.68861228399999,37.136925863000045],[-113.68863159999995,37.136852300000044],[-113.68866179999998,37.136753500000054],[-113.68864588899999,37.136717734000058],[-113.68863879999998,37.136701800000026],[-113.68854461999996,37.136452376000079],[-113.68850029999999,37.136335000000031],[-113.68836049999999,37.135964900000033],[-113.68835803499996,37.135963257000071],[-113.68829489499996,37.135921176000068],[-113.68818449999998,37.135847600000034],[-113.68790292399996,37.135661403000029],[-113.68763510099996,37.13548430000003],[-113.68758609999998,37.135452100000066],[-113.68722665099995,37.135521416000074],[-113.68714479999994,37.135537200000044],[-113.68676120099997,37.135611900000072],[-113.68625219999996,37.135709600000041],[-113.68570710599994,37.135819058000038],[-113.68565660399997,37.135829200000046],[-113.68563790099995,37.135864800000036],[-113.68562125099999,37.135913566000056],[-113.68558289999999,37.13602590000005],[-113.68539829999997,37.136515600000052],[-113.68528469299997,37.136606203000042],[-113.68525410099994,37.136630600000046],[-113.68518244499995,37.136693434000051],[-113.68502340099997,37.136832900000059],[-113.68488600799998,37.136946530000046],[-113.68479341899996,37.137023106000072],[-113.68479269999995,37.137023700000043],[-113.68470551799999,37.13701736400003],[-113.68419280099994,37.136980100000073],[-113.68394179999996,37.136964000000035],[-113.68353789899999,37.136937642000078],[-113.68329359999996,37.136921700000073],[-113.68316865099996,37.13696963600006],[-113.68310540099998,37.13699390000005],[-113.68298137699998,37.137041841000041],[-113.68294189999995,37.13705710000005],[-113.68263859999996,37.137174900000048],[-113.68197279999998,37.137432600000068],[-113.68187840099995,37.137468400000046],[-113.68187813499998,37.137468310000031],[-113.68186038299996,37.137462309000057],[-113.68180770099997,37.137444500000072],[-113.68171039299995,37.137410066000029],[-113.68170059999994,37.137406600000077],[-113.68144430099994,37.137317200000041],[-113.68139720399995,37.13730087700003],[-113.68120309999995,37.137233600000059],[-113.68092269999994,37.137135600000079],[-113.68071109999994,37.137061700000061],[-113.68054630099999,37.137004000000047],[-113.68050229999994,37.136989300000039],[-113.68030910099998,37.136940200000026],[-113.68023949999997,37.136922600000048],[-113.68021344899995,37.136915866000038],[-113.68013389999999,37.136895300000049],[-113.68006287199995,37.136877325000057],[-113.68005210099994,37.136874600000056],[-113.68002884399999,37.13686866900008],[-113.67978899999997,37.136807500000032],[-113.67957989999996,37.136754100000076],[-113.67948880899996,37.136731184000041],[-113.67938909999998,37.136706100000026],[-113.67918909999997,37.136654800000031],[-113.67913551399994,37.136641283000074],[-113.67907770099998,37.136626700000079],[-113.67897239999996,37.136600200000032],[-113.67890530099999,37.136582400000066],[-113.67873450999997,37.13653925300008],[-113.67848770099994,37.136476900000048],[-113.67062242899999,37.136521961000028],[-113.67061559999996,37.13652200000007],[-113.67037748999996,37.136751035000032],[-113.66990546799997,37.137205064000057],[-113.66988889999999,37.137221000000068],[-113.66997582599998,37.138903803000062],[-113.67002309999998,37.139819000000045],[-113.67003879799995,37.140482010000028],[-113.67008954899995,37.142625526000074]]]]},"properties":{"OBJECTID":1,"OBJECTID_1":2,"VertexCount":53,"Shape_Length":1.0358928373299183,"Shape_Area":0.047553528665607588}},{"type":"Feature","id":2,"geometry":{"type":"Polygon","coordinates":[[[-113.56232041599998,37.104689859000075],[-113.56236179999996,37.104690000000062],[-113.56268570099996,37.104690805000075],[-113.56239369999997,37.104690000000062],[-113.56232041599998,37.104689859000075]]]},"properties":{"OBJECTID":2,"OBJECTID_1":null,"VertexCount":null,"Shape_Length":0.00073057248578620561,"Shape_Area":1.50887000067212e-11}},{"type":"Feature","id":3,"geometry":{"type":"Polygon","coordinates":[[[-113.56268570099996,37.104690805000075],[-113.56289500299999,37.104691480000042],[-113.56286250099998,37.10469130000007],[-113.56268570099996,37.104690805000075]]]},"properties":{"OBJECTID":3,"OBJECTID_1":null,"VertexCount":null,"Shape_Length":0.00041860627986621936,"Shape_Area":7.8677526320015978e-12}},{"type":"Feature","id":4,"geometry":{"type":"Polygon","coordinates":[[[-113.56297656299995,37.104691700000046],[-113.56298379999998,37.104691700000046],[-113.56314658699995,37.10469233300006],[-113.56298289999995,37.104691600000024],[-113.56297656299995,37.104691700000046]]]},"properties":{"OBJECTID":4,"OBJECTID_1":null,"VertexCount":null,"Shape_Length":0.00034005166087778686,"Shape_Area":8.2163518953827062e-12}},{"type":"Feature","id":5,"geometry":{"type":"Polygon","coordinates":[[[-113.56341567599998,37.104693379000025],[-113.56362680099994,37.10469420000004],[-113.56369007399996,37.10469420000004],[-113.56352790099999,37.104693700000041],[-113.56341567599998,37.104693379000025]]]},"properties":{"OBJECTID":5,"OBJECTID_1":null,"VertexCount":null,"Shape_Length":0.00054879882613867036,"Shape_Area":2.8001049118330757e-11}},{"type":"Feature","id":6,"geometry":{"type":"Polygon","coordinates":[[[-113.56394990399997,37.104695698000057],[-113.56395015899994,37.104736099000036],[-113.56395080099998,37.104707500000075],[-113.56394999999998,37.104695700000036],[-113.56394990399997,37.104695698000057]]]},"properties":{"OBJECTID":6,"OBJECTID_1":null,"VertexCount":null,"Shape_Length":8.0931185799484239e-05,"Shape_Area":1.7180692828992356e-11}},{"type":"Feature","id":7,"geometry":{"type":"Polygon","coordinates":[[[-113.56395020099995,37.104748362000066],[-113.56395020099995,37.104778359000079],[-113.56395039999995,37.104753500000072],[-113.56395020099995,37.104748362000066]]]},"properties":{"OBJECTID":7,"OBJECTID_1":null,"VertexCount":null,"Shape_Length":5.9998648817863291e-05,"Shape_Area":2.9847014818047056e-12}},{"type":"Feature","id":8,"geometry":{"type":"Polygon","coordinates":[[[-113.56216429199998,37.104689803000042],[-113.56215409999999,37.104689900000039],[-113.56215360099998,37.104700500000035],[-113.56215399999996,37.104752800000028],[-113.56215399999996,37.104791900000066],[-113.56215379999998,37.104792800000041],[-113.56215577399996,37.10482399600005],[-113.56215409999999,37.104706800000031],[-113.56215409999999,37.10469530000006],[-113.56215636099995,37.104689952000058],[-113.56216429199998,37.104689803000042]]]},"properties":{"OBJECTID":8,"OBJECTID_1":null,"VertexCount":null,"Shape_Length":0.00028683273265792608,"Shape_Area":1.0553930138786275e-10}},{"type":"Feature","id":9,"geometry":{"type":"Polygon","coordinates":[[[-113.56395009999994,37.104829267000071],[-113.56394990099994,37.104862700000069],[-113.56394990099994,37.104873076000047],[-113.56395009999994,37.104862200000071],[-113.56395009999994,37.104829267000071]]]},"properties":{"OBJECTID":9,"OBJECTID_1":null,"VertexCount":null,"Shape_Length":8.7620412607062576e-05,"Shape_Area":4.3092454696385148e-12}},{"type":"Feature","id":10,"geometry":{"type":"Polygon","coordinates":[[[-113.56394969999997,37.104977725000026],[-113.56394950099997,37.104998700000067],[-113.56394920099996,37.10516350000006],[-113.56394849999998,37.105279600000074],[-113.56394849999998,37.10544740000006],[-113.56394879999999,37.105351800000051],[-113.56394909999995,37.10522990000004],[-113.56394969999997,37.105057000000045],[-113.56394969999997,37.104977725000026]]]},"properties":{"OBJECTID":10,"OBJECTID_1":null,"VertexCount":null,"Shape_Length":0.00093935521429813654,"Shape_Area":1.1591416069582758e-10}},{"type":"Feature","id":11,"geometry":{"type":"Polygon","coordinates":[[[-113.56215866799994,37.104939922000028],[-113.56216290099997,37.105132300000037],[-113.56216790099995,37.105301300000065],[-113.56217450099996,37.10553740000006],[-113.56217537299995,37.105579682000041],[-113.56217390099999,37.105506100000071],[-113.56217179999999,37.105433900000037],[-113.56216980099998,37.105353900000068],[-113.56216540099996,37.105200600000046],[-113.56216119999999,37.105028300000072],[-113.56215866799994,37.104939922000028]]]},"properties":{"OBJECTID":11,"OBJECTID_1":null,"VertexCount":null,"Shape_Length":0.0012799625919077519,"Shape_Area":2.5713047362862354e-10}},{"type":"Feature","id":12,"geometry":{"type":"Polygon","coordinates":[[[-113.56217537299995,37.105579682000041],[-113.56217539999994,37.105581000000029],[-113.56237749999997,37.105592700000045],[-113.56262120099996,37.105606500000079],[-113.56263028799998,37.105606933000047],[-113.56262139999995,37.105606300000034],[-113.56244620099994,37.105595900000026],[-113.56241520099996,37.105594100000076],[-113.56238110099997,37.105592000000058],[-113.56229399999995,37.105586600000038],[-113.56221749999997,37.105582300000037],[-113.56218399999995,37.105580300000042],[-113.56217537299995,37.105579682000041]]]},"properties":{"OBJECTID":12,"OBJECTID_1":null,"VertexCount":null,"Shape_Length":0.00091267786016258556,"Shape_Area":3.6649863843742063e-10}},{"type":"Feature","id":13,"geometry":{"type":"Polygon","coordinates":[[[-113.56279726899999,37.105614884000033],[-113.56293409999995,37.105621400000075],[-113.56301340099998,37.105624900000066],[-113.56304173699999,37.105624900000066],[-113.56301259999998,37.105623500000036],[-113.56294920099998,37.105621500000041],[-113.56289760099997,37.105618900000024],[-113.56279726899999,37.105614884000033]]]},"properties":{"OBJECTID":13,"OBJECTID_1":null,"VertexCount":null,"Shape_Length":0.00048937921830070755,"Shape_Area":1.5505151454068736e-10}},{"type":"Feature","id":14,"geometry":{"type":"MultiPolygon","coordinates":[[[[-113.56320509999995,37.105626700000073],[-113.56359080099998,37.105629600000043],[-113.56379599999997,37.105631100000039],[-113.56394670099996,37.105631900000049],[-113.56394740099995,37.105622400000073],[-113.56394779999999,37.105603500000029],[-113.56394809999995,37.10557440000008],[-113.56394809999995,37.105546500000059],[-113.56394849999998,37.105471900000055],[-113.56394849999998,37.10544740000006],[-113.56394879999999,37.105351800000051],[-113.56394909999995,37.10522990000004],[-113.56394969999997,37.105057000000045],[-113.56394969999997,37.104977725000026],[-113.56394969999997,37.104952400000059],[-113.56395009999994,37.10492510000006],[-113.56394929999999,37.10490580000004],[-113.56394990099994,37.104873076000047],[-113.56395009999994,37.104862200000071],[-113.56395009999994,37.104829267000071],[-113.56395009999994,37.104790900000069],[-113.56395020099995,37.104778359000079],[-113.56395039999995,37.104753500000072],[-113.56395020099995,37.104748362000066],[-113.56394999999998,37.10474320000003],[-113.56395015899994,37.104736099000036],[-113.56395080099998,37.104707500000075],[-113.56394999999998,37.104695700000036],[-113.56394990399997,37.104695698000057],[-113.56390499999998,37.104694800000061],[-113.56387119999999,37.104694701000028],[-113.56383609999995,37.104694600000073],[-113.56372260099994,37.104694300000062],[-113.56369007399996,37.10469420000004],[-113.56352790099999,37.104693700000041],[-113.56341567599998,37.104693379000025],[-113.56331809999995,37.104693100000077],[-113.56314658699995,37.10469233300006],[-113.56298289999995,37.104691600000024],[-113.56297656299995,37.104691700000046],[-113.56296379999998,37.104691900000034],[-113.56291660099998,37.104691600000024],[-113.56289500299999,37.104691480000042],[-113.56286250099998,37.10469130000007],[-113.56268570099996,37.104690805000075],[-113.56239369999997,37.104690000000062],[-113.56232041599998,37.104689859000075],[-113.56218580099994,37.104689600000029],[-113.56216429199998,37.104689803000042],[-113.56215409999999,37.104689900000039],[-113.56215360099998,37.104700500000035],[-113.56215399999996,37.104752800000028],[-113.56215399999996,37.104791900000066],[-113.56215379999998,37.104792800000041],[-113.56215577399996,37.10482399600005],[-113.56215629999997,37.104832300000055],[-113.56215866799994,37.104939922000028],[-113.56216290099997,37.105132300000037],[-113.56216790099995,37.105301300000065],[-113.56217450099996,37.10553740000006],[-113.56217537299995,37.105579682000041],[-113.56217539999994,37.105581000000029],[-113.56237749999997,37.105592700000045],[-113.56262120099996,37.105606500000079],[-113.56263028799998,37.105606933000047],[-113.56279726899999,37.105614884000033],[-113.56293409999995,37.105621400000075],[-113.56301340099998,37.105624900000066],[-113.56304173699999,37.105624900000066],[-113.56304669999997,37.105624900000066],[-113.56306419999999,37.105625700000076],[-113.56306419599997,37.10562598000007],[-113.56306669999998,37.105626100000052],[-113.56307817299995,37.105625811000039],[-113.56308649999994,37.105625600000053],[-113.56320509999995,37.105626700000073]]],[[[-113.67008954899995,37.142625526000074],[-113.67008958799994,37.142627207000032],[-113.67010469699994,37.143265337000059],[-113.67012441199995,37.150486049000051],[-113.67012733499996,37.15155678800005],[-113.67014320099997,37.157368200000064],[-113.67020770099998,37.165858700000058],[-113.67012000099999,37.174313743000027],[-113.67012000099999,37.174344900000051],[-113.67012029999995,37.174598900000035],[-113.67012040099996,37.174669700000038],[-113.67011979999995,37.174859900000058],[-113.67012010099995,37.175001000000066],[-113.67011989999997,37.175347000000045],[-113.67011949999994,37.175444700000071],[-113.67011799999995,37.175671900000054],[-113.67011750099999,37.175765600000034],[-113.67011410099997,37.176247500000045],[-113.67011119999995,37.176594300000033],[-113.67011119999995,37.176650400000028],[-113.67009880099994,37.177261200000032],[-113.67009880099994,37.177932200000043],[-113.67010949999997,37.179338400000063],[-113.67011489999999,37.18018040000004],[-113.67012019999999,37.181291700000031],[-113.67012019999999,37.181860100000051],[-113.67011489999999,37.182236200000034],[-113.67012559999995,37.184668000000045],[-113.66988229999998,37.210381300000051],[-113.66979649999996,37.232115800000031],[-113.66971070099999,37.23939340000004],[-113.66966769999999,37.24267320000007],[-113.66966250099995,37.243441500000074],[-113.66980106799997,37.243440967000026],[-114.05144419999999,37.240894200000071],[-114.05146720099998,37.236118300000044],[-114.05154388399995,37.226754906000053],[-114.05124736099998,37.158099635000042],[-114.05105635399997,37.11384184700006],[-114.00136799999996,37.11407070000007],[-113.71501453399998,37.11524929400008],[-113.71492499999999,37.119175700000028],[-113.71492248699997,37.120822382000028],[-113.71491230099997,37.121439100000032],[-113.71492063199997,37.122037585000044],[-113.71491059999994,37.128610600000059],[-113.71490969999996,37.132845700000075],[-113.71490389999997,37.135609400000078],[-113.71500783199997,37.140853573000072],[-113.71504159999995,37.142557400000044],[-113.71402460099995,37.14260790000003],[-113.71110250999999,37.142573630000072],[-113.71088669999995,37.142571100000055],[-113.70496740099998,37.142560600000024],[-113.70447619999999,37.142560600000024],[-113.70397909999997,37.142560900000035],[-113.70356679999998,37.142561000000057],[-113.70324460099994,37.142561500000056],[-113.70313070099996,37.142527600000051],[-113.70292660099994,37.142467200000056],[-113.70274709999995,37.142484200000069],[-113.70238489999997,37.14251790000003],[-113.70191649999998,37.142562000000055],[-113.70165909999997,37.142412200000024],[-113.70159508599994,37.142375085000026],[-113.70131069999996,37.142210200000079],[-113.70127599999995,37.142189700000074],[-113.70120390099999,37.142019300000072],[-113.70115919999995,37.141911300000061],[-113.70110299999999,37.141779100000065],[-113.70109227999995,37.14177333300006],[-113.70106879999997,37.141760700000077],[-113.70084020299998,37.141643997000074],[-113.70066430099996,37.141553500000043],[-113.70059413799999,37.141517738000061],[-113.70045809999999,37.141448400000058],[-113.70034380099997,37.141389500000059],[-113.70002519999997,37.14122610000004],[-113.69990270099998,37.141163800000072],[-113.69982879999998,37.141059200000029],[-113.69967770099998,37.14084390000005],[-113.69953209999994,37.140636400000062],[-113.69940839999998,37.140460500000074],[-113.69936509999997,37.14039899900007],[-113.69933560099997,37.140357100000074],[-113.69930099999999,37.140309100000025],[-113.69924550099995,37.140329800000075],[-113.69892430099998,37.140451300000052],[-113.69871065899997,37.140532566000047],[-113.69858989999994,37.140578500000061],[-113.69850733299995,37.140609801000039],[-113.69847409999994,37.140622400000041],[-113.69844328999994,37.140634157000079],[-113.69840019999998,37.140650600000072],[-113.69812329999996,37.14067330000006],[-113.69793319999997,37.140689100000031],[-113.69770559999995,37.140707500000076],[-113.69753310099998,37.140721900000074],[-113.69750510399996,37.140724135000028],[-113.69737530099997,37.140734500000065],[-113.69721672599997,37.14074755200005],[-113.69715659999997,37.140752500000076],[-113.69715590099997,37.140644000000066],[-113.69715549999995,37.140414400000054],[-113.69715519999994,37.140219500000057],[-113.69715549999995,37.140048500000034],[-113.69715590099997,37.139846900000066],[-113.69715549999995,37.139637400000026],[-113.69715590099997,37.139435100000071],[-113.69715569999994,37.139209600000072],[-113.69715569999994,37.139021400000047],[-113.69715569999994,37.138940300000058],[-113.69715569999994,37.138939700000037],[-113.69689610099999,37.13874480000004],[-113.69680982099999,37.13868053200008],[-113.69672009999999,37.138613700000064],[-113.69642660099998,37.138393300000075],[-113.69625641399995,37.138496026000041],[-113.69580549999995,37.138768200000072],[-113.69575523299994,37.138798733000044],[-113.69560579999995,37.138889500000062],[-113.69528239999994,37.139085100000045],[-113.69502690899998,37.139239228000065],[-113.69502579899995,37.139239899000074],[-113.69475460099994,37.139403500000071],[-113.69472833799995,37.139419704000034],[-113.69464649999998,37.139470200000062],[-113.69435949999996,37.139643400000068],[-113.69417409999994,37.139756400000067],[-113.69410920099995,37.139794900000027],[-113.69404569999995,37.139799500000038],[-113.69382550499995,37.139813598000046],[-113.69363180099998,37.139826000000028],[-113.69320999999997,37.139852900000051],[-113.69311676599995,37.139858737000054],[-113.69310326999994,37.139859582000042],[-113.69302469999997,37.139864500000044],[-113.69263952999995,37.139890060000027],[-113.69252290099996,37.139897800000028],[-113.69252254399998,37.139897579000035],[-113.69236569999998,37.139800100000059],[-113.69196849999997,37.139554700000076],[-113.69138545499999,37.139194385000053],[-113.69137140099997,37.139185700000041],[-113.69136236399999,37.139180148000037],[-113.69126757999999,37.13912190800005],[-113.69112630099994,37.139035100000058],[-113.69056389999997,37.138687900000036],[-113.69009519999997,37.138395900000035],[-113.69004699399994,37.138365976000046],[-113.68969150099997,37.138145300000076],[-113.68905693099998,37.137753286000077],[-113.68896759999996,37.13769810000008],[-113.68866469999995,37.137513100000035],[-113.68854881499999,37.137438852000059],[-113.68848879999996,37.137400400000047],[-113.68852199999998,37.137269700000047],[-113.68860647699995,37.13694797900007],[-113.68861228399999,37.136925863000045],[-113.68863159999995,37.136852300000044],[-113.68866179999998,37.136753500000054],[-113.68864588899999,37.136717734000058],[-113.68863879999998,37.136701800000026],[-113.68854461999996,37.136452376000079],[-113.68850029999999,37.136335000000031],[-113.68836049999999,37.135964900000033],[-113.68835803499996,37.135963257000071],[-113.68829489499996,37.135921176000068],[-113.68818449999998,37.135847600000034],[-113.68790292399996,37.135661403000029],[-113.68763510099996,37.13548430000003],[-113.68758609999998,37.135452100000066],[-113.68722665099995,37.135521416000074],[-113.68714479999994,37.135537200000044],[-113.68676120099997,37.135611900000072],[-113.68625219999996,37.135709600000041],[-113.68570710599994,37.135819058000038],[-113.68565660399997,37.135829200000046],[-113.68563790099995,37.135864800000036],[-113.68562125099999,37.135913566000056],[-113.68558289999999,37.13602590000005],[-113.68539829999997,37.136515600000052],[-113.68528469299997,37.136606203000042],[-113.68525410099994,37.136630600000046],[-113.68518244499995,37.136693434000051],[-113.68502340099997,37.136832900000059],[-113.68488600799998,37.136946530000046],[-113.68479341899996,37.137023106000072],[-113.68479269999995,37.137023700000043],[-113.68470551799999,37.13701736400003],[-113.68419280099994,37.136980100000073],[-113.68394179999996,37.136964000000035],[-113.68353789899999,37.136937642000078],[-113.68329359999996,37.136921700000073],[-113.68316865099996,37.13696963600006],[-113.68310540099998,37.13699390000005],[-113.68298137699998,37.137041841000041],[-113.68294189999995,37.13705710000005],[-113.68263859999996,37.137174900000048],[-113.68197279999998,37.137432600000068],[-113.68187840099995,37.137468400000046],[-113.68187813499998,37.137468310000031],[-113.68186038299996,37.137462309000057],[-113.68180770099997,37.137444500000072],[-113.68171039299995,37.137410066000029],[-113.68170059999994,37.137406600000077],[-113.68144430099994,37.137317200000041],[-113.68139720399995,37.13730087700003],[-113.68120309999995,37.137233600000059],[-113.68092269999994,37.137135600000079],[-113.68071109999994,37.137061700000061],[-113.68054630099999,37.137004000000047],[-113.68050229999994,37.136989300000039],[-113.68030910099998,37.136940200000026],[-113.68023949999997,37.136922600000048],[-113.68021344899995,37.136915866000038],[-113.68013389999999,37.136895300000049],[-113.68006287199995,37.136877325000057],[-113.68005210099994,37.136874600000056],[-113.68002884399999,37.13686866900008],[-113.67978899999997,37.136807500000032],[-113.67957989999996,37.136754100000076],[-113.67948880899996,37.136731184000041],[-113.67938909999998,37.136706100000026],[-113.67918909999997,37.136654800000031],[-113.67913551399994,37.136641283000074],[-113.67907770099998,37.136626700000079],[-113.67897239999996,37.136600200000032],[-113.67890530099999,37.136582400000066],[-113.67873450999997,37.13653925300008],[-113.67848770099994,37.136476900000048],[-113.67062242899999,37.136521961000028],[-113.67061559999996,37.13652200000007],[-113.67037748999996,37.136751035000032],[-113.66990546799997,37.137205064000057],[-113.66988889999999,37.137221000000068],[-113.66997582599998,37.138903803000062],[-113.67002309999998,37.139819000000045],[-113.67003879799995,37.140482010000028],[-113.67008954899995,37.142625526000074]]]]},"properties":{"OBJECTID":14,"OBJECTID_1":null,"VertexCount":null,"Shape_Length":1.0358961447674111,"Shape_Area":0.047553529749390172}},{"type":"Feature","id":15,"geometry":{"type":"Polygon","coordinates":[[[-113.56394670099996,37.105631900000049],[-113.56394779999999,37.105631906000042],[-113.56394779999999,37.105620800000054],[-113.56394809999995,37.105603900000062],[-113.56394849999998,37.105506400000024],[-113.56394849999998,37.105471900000055],[-113.56394809999995,37.105546500000059],[-113.56394809999995,37.10557440000008],[-113.56394779999999,37.105603500000029],[-113.56394740099995,37.105622400000073],[-113.56394670099996,37.105631900000049]]]},"properties":{"OBJECTID":15,"OBJECTID_1":null,"VertexCount":null,"Shape_Length":0.0003211410839005536,"Shape_Area":3.6289348186791712e-11}},{"type":"Feature","id":16,"geometry":{"type":"MultiPolygon","coordinates":[[[[-113.56320509999995,37.105626700000073],[-113.56359080099998,37.105629600000043],[-113.56379599999997,37.105631100000039],[-113.56394670099996,37.105631900000049],[-113.56394779999999,37.105631906000042],[-113.56394779999999,37.105620800000054],[-113.56394809999995,37.105603900000062],[-113.56394849999998,37.105506400000024],[-113.56394849999998,37.105471900000055],[-113.56394849999998,37.10544740000006],[-113.56394849999998,37.105279600000074],[-113.56394920099996,37.10516350000006],[-113.56394950099997,37.104998700000067],[-113.56394969999997,37.104977725000026],[-113.56394969999997,37.104952400000059],[-113.56395009999994,37.10492510000006],[-113.56394929999999,37.10490580000004],[-113.56394990099994,37.104873076000047],[-113.56394990099994,37.104862700000069],[-113.56395009999994,37.104829267000071],[-113.56395009999994,37.104790900000069],[-113.56395020099995,37.104778359000079],[-113.56395020099995,37.104748362000066],[-113.56394999999998,37.10474320000003],[-113.56395015899994,37.104736099000036],[-113.56394990399997,37.104695698000057],[-113.56390499999998,37.104694800000061],[-113.56387119999999,37.104694701000028],[-113.56383609999995,37.104694600000073],[-113.56372260099994,37.104694300000062],[-113.56369007399996,37.10469420000004],[-113.56362680099994,37.10469420000004],[-113.56341567599998,37.104693379000025],[-113.56331809999995,37.104693100000077],[-113.56314658699995,37.10469233300006],[-113.56298379999998,37.104691700000046],[-113.56297656299995,37.104691700000046],[-113.56296379999998,37.104691900000034],[-113.56291660099998,37.104691600000024],[-113.56289500299999,37.104691480000042],[-113.56268570099996,37.104690805000075],[-113.56236179999996,37.104690000000062],[-113.56232041599998,37.104689859000075],[-113.56218580099994,37.104689600000029],[-113.56216429199998,37.104689803000042],[-113.56215636099995,37.104689952000058],[-113.56215409999999,37.10469530000006],[-113.56215409999999,37.104706800000031],[-113.56215577399996,37.10482399600005],[-113.56215629999997,37.104832300000055],[-113.56215866799994,37.104939922000028],[-113.56216119999999,37.105028300000072],[-113.56216540099996,37.105200600000046],[-113.56216980099998,37.105353900000068],[-113.56217179999999,37.105433900000037],[-113.56217390099999,37.105506100000071],[-113.56217537299995,37.105579682000041],[-113.56218399999995,37.105580300000042],[-113.56221749999997,37.105582300000037],[-113.56229399999995,37.105586600000038],[-113.56238110099997,37.105592000000058],[-113.56241520099996,37.105594100000076],[-113.56244620099994,37.105595900000026],[-113.56262139999995,37.105606300000034],[-113.56263028799998,37.105606933000047],[-113.56279726899999,37.105614884000033],[-113.56289760099997,37.105618900000024],[-113.56294920099998,37.105621500000041],[-113.56301259999998,37.105623500000036],[-113.56304173699999,37.105624900000066],[-113.56304669999997,37.105624900000066],[-113.56306419999999,37.105625700000076],[-113.56306419599997,37.10562598000007],[-113.56306669999998,37.105626100000052],[-113.56307817299995,37.105625811000039],[-113.56308649999994,37.105625600000053],[-113.56320509999995,37.105626700000073]]],[[[-113.67008954899995,37.142625526000074],[-113.67008958799994,37.142627207000032],[-113.67010469699994,37.143265337000059],[-113.67012441199995,37.150486049000051],[-113.67012733499996,37.15155678800005],[-113.67014320099997,37.157368200000064],[-113.67020770099998,37.165858700000058],[-113.67012000099999,37.174313743000027],[-113.67012000099999,37.174344900000051],[-113.67012029999995,37.174598900000035],[-113.67012040099996,37.174669700000038],[-113.67011979999995,37.174859900000058],[-113.67012010099995,37.175001000000066],[-113.67011989999997,37.175347000000045],[-113.67011949999994,37.175444700000071],[-113.67011799999995,37.175671900000054],[-113.67011750099999,37.175765600000034],[-113.67011410099997,37.176247500000045],[-113.67011119999995,37.176594300000033],[-113.67011119999995,37.176650400000028],[-113.67009880099994,37.177261200000032],[-113.67009880099994,37.177932200000043],[-113.67010949999997,37.179338400000063],[-113.67011489999999,37.18018040000004],[-113.67012019999999,37.181291700000031],[-113.67012019999999,37.181860100000051],[-113.67011489999999,37.182236200000034],[-113.67012559999995,37.184668000000045],[-113.66988229999998,37.210381300000051],[-113.66979649999996,37.232115800000031],[-113.66971070099999,37.23939340000004],[-113.66966769999999,37.24267320000007],[-113.66966250099995,37.243441500000074],[-113.66980106799997,37.243440967000026],[-114.05144419999999,37.240894200000071],[-114.05146720099998,37.236118300000044],[-114.05154388399995,37.226754906000053],[-114.05124736099998,37.158099635000042],[-114.05105635399997,37.11384184700006],[-114.00136799999996,37.11407070000007],[-113.71501453399998,37.11524929400008],[-113.71492499999999,37.119175700000028],[-113.71492248699997,37.120822382000028],[-113.71491230099997,37.121439100000032],[-113.71492063199997,37.122037585000044],[-113.71491059999994,37.128610600000059],[-113.71490969999996,37.132845700000075],[-113.71490389999997,37.135609400000078],[-113.71500783199997,37.140853573000072],[-113.71504159999995,37.142557400000044],[-113.71402460099995,37.14260790000003],[-113.71110250999999,37.142573630000072],[-113.71088669999995,37.142571100000055],[-113.70496740099998,37.142560600000024],[-113.70447619999999,37.142560600000024],[-113.70397909999997,37.142560900000035],[-113.70356679999998,37.142561000000057],[-113.70324460099994,37.142561500000056],[-113.70313070099996,37.142527600000051],[-113.70292660099994,37.142467200000056],[-113.70274709999995,37.142484200000069],[-113.70238489999997,37.14251790000003],[-113.70191649999998,37.142562000000055],[-113.70165909999997,37.142412200000024],[-113.70159508599994,37.142375085000026],[-113.70131069999996,37.142210200000079],[-113.70127599999995,37.142189700000074],[-113.70120390099999,37.142019300000072],[-113.70115919999995,37.141911300000061],[-113.70110299999999,37.141779100000065],[-113.70109227999995,37.14177333300006],[-113.70106879999997,37.141760700000077],[-113.70084020299998,37.141643997000074],[-113.70066430099996,37.141553500000043],[-113.70059413799999,37.141517738000061],[-113.70045809999999,37.141448400000058],[-113.70034380099997,37.141389500000059],[-113.70002519999997,37.14122610000004],[-113.69990270099998,37.141163800000072],[-113.69982879999998,37.141059200000029],[-113.69967770099998,37.14084390000005],[-113.69953209999994,37.140636400000062],[-113.69940839999998,37.140460500000074],[-113.69936509999997,37.14039899900007],[-113.69933560099997,37.140357100000074],[-113.69930099999999,37.140309100000025],[-113.69924550099995,37.140329800000075],[-113.69892430099998,37.140451300000052],[-113.69871065899997,37.140532566000047],[-113.69858989999994,37.140578500000061],[-113.69850733299995,37.140609801000039],[-113.69847409999994,37.140622400000041],[-113.69844328999994,37.140634157000079],[-113.69840019999998,37.140650600000072],[-113.69812329999996,37.14067330000006],[-113.69793319999997,37.140689100000031],[-113.69770559999995,37.140707500000076],[-113.69753310099998,37.140721900000074],[-113.69750510399996,37.140724135000028],[-113.69737530099997,37.140734500000065],[-113.69721672599997,37.14074755200005],[-113.69715659999997,37.140752500000076],[-113.69715590099997,37.140644000000066],[-113.69715549999995,37.140414400000054],[-113.69715519999994,37.140219500000057],[-113.69715549999995,37.140048500000034],[-113.69715590099997,37.139846900000066],[-113.69715549999995,37.139637400000026],[-113.69715590099997,37.139435100000071],[-113.69715569999994,37.139209600000072],[-113.69715569999994,37.139021400000047],[-113.69715569999994,37.138940300000058],[-113.69715569999994,37.138939700000037],[-113.69689610099999,37.13874480000004],[-113.69680982099999,37.13868053200008],[-113.69672009999999,37.138613700000064],[-113.69642660099998,37.138393300000075],[-113.69625641399995,37.138496026000041],[-113.69580549999995,37.138768200000072],[-113.69575523299994,37.138798733000044],[-113.69560579999995,37.138889500000062],[-113.69528239999994,37.139085100000045],[-113.69502690899998,37.139239228000065],[-113.69502579899995,37.139239899000074],[-113.69475460099994,37.139403500000071],[-113.69472833799995,37.139419704000034],[-113.69464649999998,37.139470200000062],[-113.69435949999996,37.139643400000068],[-113.69417409999994,37.139756400000067],[-113.69410920099995,37.139794900000027],[-113.69404569999995,37.139799500000038],[-113.69382550499995,37.139813598000046],[-113.69363180099998,37.139826000000028],[-113.69320999999997,37.139852900000051],[-113.69311676599995,37.139858737000054],[-113.69310326999994,37.139859582000042],[-113.69302469999997,37.139864500000044],[-113.69263952999995,37.139890060000027],[-113.69252290099996,37.139897800000028],[-113.69252254399998,37.139897579000035],[-113.69236569999998,37.139800100000059],[-113.69196849999997,37.139554700000076],[-113.69138545499999,37.139194385000053],[-113.69137140099997,37.139185700000041],[-113.69136236399999,37.139180148000037],[-113.69126757999999,37.13912190800005],[-113.69112630099994,37.139035100000058],[-113.69056389999997,37.138687900000036],[-113.69009519999997,37.138395900000035],[-113.69004699399994,37.138365976000046],[-113.68969150099997,37.138145300000076],[-113.68905693099998,37.137753286000077],[-113.68896759999996,37.13769810000008],[-113.68866469999995,37.137513100000035],[-113.68854881499999,37.137438852000059],[-113.68848879999996,37.137400400000047],[-113.68852199999998,37.137269700000047],[-113.68860647699995,37.13694797900007],[-113.68861228399999,37.136925863000045],[-113.68863159999995,37.136852300000044],[-113.68866179999998,37.136753500000054],[-113.68864588899999,37.136717734000058],[-113.68863879999998,37.136701800000026],[-113.68854461999996,37.136452376000079],[-113.68850029999999,37.136335000000031],[-113.68836049999999,37.135964900000033],[-113.68835803499996,37.135963257000071],[-113.68829489499996,37.135921176000068],[-113.68818449999998,37.135847600000034],[-113.68790292399996,37.135661403000029],[-113.68763510099996,37.13548430000003],[-113.68758609999998,37.135452100000066],[-113.68722665099995,37.135521416000074],[-113.68714479999994,37.135537200000044],[-113.68676120099997,37.135611900000072],[-113.68625219999996,37.135709600000041],[-113.68570710599994,37.135819058000038],[-113.68565660399997,37.135829200000046],[-113.68563790099995,37.135864800000036],[-113.68562125099999,37.135913566000056],[-113.68558289999999,37.13602590000005],[-113.68539829999997,37.136515600000052],[-113.68528469299997,37.136606203000042],[-113.68525410099994,37.136630600000046],[-113.68518244499995,37.136693434000051],[-113.68502340099997,37.136832900000059],[-113.68488600799998,37.136946530000046],[-113.68479341899996,37.137023106000072],[-113.68479269999995,37.137023700000043],[-113.68470551799999,37.13701736400003],[-113.68419280099994,37.136980100000073],[-113.68394179999996,37.136964000000035],[-113.68353789899999,37.136937642000078],[-113.68329359999996,37.136921700000073],[-113.68316865099996,37.13696963600006],[-113.68310540099998,37.13699390000005],[-113.68298137699998,37.137041841000041],[-113.68294189999995,37.13705710000005],[-113.68263859999996,37.137174900000048],[-113.68197279999998,37.137432600000068],[-113.68187840099995,37.137468400000046],[-113.68187813499998,37.137468310000031],[-113.68186038299996,37.137462309000057],[-113.68180770099997,37.137444500000072],[-113.68171039299995,37.137410066000029],[-113.68170059999994,37.137406600000077],[-113.68144430099994,37.137317200000041],[-113.68139720399995,37.13730087700003],[-113.68120309999995,37.137233600000059],[-113.68092269999994,37.137135600000079],[-113.68071109999994,37.137061700000061],[-113.68054630099999,37.137004000000047],[-113.68050229999994,37.136989300000039],[-113.68030910099998,37.136940200000026],[-113.68023949999997,37.136922600000048],[-113.68021344899995,37.136915866000038],[-113.68013389999999,37.136895300000049],[-113.68006287199995,37.136877325000057],[-113.68005210099994,37.136874600000056],[-113.68002884399999,37.13686866900008],[-113.67978899999997,37.136807500000032],[-113.67957989999996,37.136754100000076],[-113.67948880899996,37.136731184000041],[-113.67938909999998,37.136706100000026],[-113.67918909999997,37.136654800000031],[-113.67913551399994,37.136641283000074],[-113.67907770099998,37.136626700000079],[-113.67897239999996,37.136600200000032],[-113.67890530099999,37.136582400000066],[-113.67873450999997,37.13653925300008],[-113.67848770099994,37.136476900000048],[-113.67062242899999,37.136521961000028],[-113.67061559999996,37.13652200000007],[-113.67037748999996,37.136751035000032],[-113.66990546799997,37.137205064000057],[-113.66988889999999,37.137221000000068],[-113.66997582599998,37.138903803000062],[-113.67002309999998,37.139819000000045],[-113.67003879799995,37.140482010000028],[-113.67008954899995,37.142625526000074]]]]},"properties":{"OBJECTID":16,"OBJECTID_1":null,"VertexCount":null,"Shape_Length":1.0358939132448521,"Shape_Area":0.047553528701896941}}]}