{"type":"FeatureCollection","features":[{"type":"Feature","id":3,"geometry":{"type":"MultiPolygon","coordinates":[[[[-113.56344229999996,37.099619500000074],[-113.56362209999998,37.099620800000025],[-113.56388689999994,37.099622700000054],[-113.56395709999998,37.099623300000076],[-113.56404219999996,37.099623800000074],[-113.56426329999999,37.099625500000059],[-113.56430119999999,37.099625500000059],[-113.56432319999999,37.099625200000048],[-113.56432089999998,37.099545900000066],[-113.56431799999996,37.09937130000003],[-113.56431759999998,37.09928560000003],[-113.56431719999995,37.099207600000057],[-113.56431649999996,37.099086000000057],[-113.56431579999997,37.098933500000044],[-113.56431529999998,37.098865400000079],[-113.56431499999997,37.098770500000057],[-113.56431429999998,37.098646600000052],[-113.56431349999997,37.098560900000052],[-113.56431389999995,37.098523500000056],[-113.56431389999995,37.098508200000026],[-113.56431999999995,37.098477500000058],[-113.56432939999996,37.098433500000056],[-113.56433339999995,37.098413300000061],[-113.56435319999997,37.098362000000066],[-113.56436539999999,37.098330100000055],[-113.56437839999995,37.09829650000006],[-113.56444259999995,37.098222300000032],[-113.56447789999999,37.09818290000004],[-113.56449809999998,37.098158500000068],[-113.56457239999997,37.098099500000046],[-113.56464049999994,37.098044000000073],[-113.56467219999996,37.098019600000043],[-113.56472519999994,37.097986500000047],[-113.56474969999999,37.09797130000004],[-113.56477279999996,37.097957200000053],[-113.56470249999995,37.097958000000062],[-113.56440629999997,37.097961600000076],[-113.56428439999996,37.09796330000006],[-113.56407679999995,37.09796620000003],[-113.56395729999997,37.097967500000038],[-113.56390289999996,37.098025800000073],[-113.56382909999996,37.098105400000065],[-113.56377679999997,37.098161800000071],[-113.56370269999996,37.098242800000037],[-113.56358999999998,37.098363800000072],[-113.56352149999998,37.098438900000076],[-113.56342659999996,37.098540400000047],[-113.56339019999996,37.09858040000006],[-113.56335699999994,37.09861600000005],[-113.56332479999998,37.09865990000003],[-113.56330819999994,37.098683200000039],[-113.56330059999999,37.098693500000024],[-113.56327389999996,37.098729500000047],[-113.56319639999998,37.098836500000061],[-113.56317599999994,37.098864500000047],[-113.56309959999999,37.098969500000067],[-113.56302539999996,37.099071300000048],[-113.56292469999994,37.099208700000077],[-113.56283679999996,37.099329800000078],[-113.56272519999999,37.099482500000079],[-113.56264949999996,37.099587000000042],[-113.56263369999999,37.099608000000046],[-113.56263149999995,37.099613600000055],[-113.56268839999996,37.099613600000055],[-113.56270029999996,37.099614200000076],[-113.56300129999994,37.099616200000071],[-113.56318299999998,37.099617400000056],[-113.56320859999994,37.099617400000056],[-113.56344229999996,37.099619500000074]]],[[[-113.56851239999997,37.105776300000059],[-113.56851199999994,37.10578600000008],[-113.56851039999998,37.105853000000025],[-113.56850819999994,37.105951400000038],[-113.56853159999997,37.105951900000036],[-113.56859219999996,37.105952200000047],[-113.56872139999996,37.105952700000046],[-113.56895409999998,37.105953800000066],[-113.56908899999996,37.105954100000076],[-113.56908929999997,37.105917000000034],[-113.56909039999999,37.105808100000047],[-113.56908999999996,37.105773300000067],[-113.56905519999998,37.105773100000079],[-113.56894629999999,37.105772500000057],[-113.56865019999998,37.105771200000049],[-113.56853339999998,37.105770900000039],[-113.56851279999995,37.105770600000028],[-113.56851239999997,37.105776300000059]]],[[[-113.56626579999994,37.108792700000038],[-113.56637319999999,37.108791600000075],[-113.56637389999997,37.10877430000005],[-113.56637469999998,37.108719500000063],[-113.56637539999997,37.108616600000062],[-113.56637469999998,37.108407100000079],[-113.56637559999996,37.108187900000075],[-113.56637519999998,37.108128400000055],[-113.56635279999995,37.108127800000034],[-113.56618899999995,37.108127200000069],[-113.56591689999999,37.10812530000004],[-113.56578049999996,37.108124200000077],[-113.56578049999996,37.108115000000055],[-113.56578049999996,37.108094600000072],[-113.56578439999998,37.10794240000007],[-113.56578659999997,37.107850700000029],[-113.56579189999997,37.107643300000063],[-113.56579339999996,37.107587500000079],[-113.56579339999996,37.107556200000033],[-113.56577899999996,37.107547900000043],[-113.56577759999999,37.107513800000049],[-113.56577659999999,37.107469500000036],[-113.56577479999999,37.107411100000036],[-113.56577389999995,37.107377600000063],[-113.56577059999995,37.107279800000072],[-113.56577019999997,37.107272600000044],[-113.56575909999998,37.107272600000044],[-113.56570249999999,37.107271800000035],[-113.56525329999994,37.107267600000057],[-113.56496789999994,37.107264900000075],[-113.56485899999996,37.107264400000076],[-113.56485919999994,37.107277500000066],[-113.56485849999996,37.107311400000071],[-113.56485649999996,37.107673300000044],[-113.56485439999994,37.107956900000033],[-113.56485359999999,37.10812020000003],[-113.56496039999996,37.10812020000003],[-113.56531309999997,37.10812210000006],[-113.56542189999999,37.108123800000044],[-113.56542179999997,37.108383600000025],[-113.56541999999996,37.108732900000064],[-113.56541999999996,37.108788700000048],[-113.56544449999996,37.108789300000069],[-113.56551449999995,37.108789800000068],[-113.56574719999998,37.108790200000044],[-113.56607039999994,37.108792100000073],[-113.56610789999996,37.108792100000073],[-113.56626579999994,37.108792700000038]]],[[[-113.66318429999995,37.13652460000003],[-113.66317739999994,37.136609900000053],[-113.66317159999994,37.136679800000024],[-113.66317669999995,37.136722000000077],[-113.66318139999998,37.136756800000057],[-113.66318679999995,37.136802800000055],[-113.66319619999996,37.136871800000051],[-113.66321059999996,37.136986100000058],[-113.66321309999995,37.137005100000067],[-113.66321559999994,37.137012900000059],[-113.66322139999994,37.137030400000071],[-113.66323469999998,37.137069200000042],[-113.66325279999995,37.137125000000026],[-113.66326569999995,37.137162900000078],[-113.66328769999996,37.137227800000062],[-113.66330109999996,37.137268400000039],[-113.66331979999995,37.137324100000058],[-113.66333529999997,37.137357800000075],[-113.66336919999998,37.137427900000034],[-113.66339079999995,37.137472700000046],[-113.66343589999997,37.137568400000077],[-113.66344779999997,37.137587900000028],[-113.66352559999996,37.137722200000042],[-113.66357759999994,37.137811300000067],[-113.66360459999999,37.137850900000046],[-113.66363669999998,37.137898900000039],[-113.66370009999997,37.137992300000064],[-113.66375099999999,37.138067000000035],[-113.66378199999997,37.138098100000036],[-113.66383059999998,37.138147200000049],[-113.66393889999995,37.138255900000047],[-113.66400159999995,37.138319700000068],[-113.66404629999994,37.138364800000033],[-113.66406649999999,37.138384600000052],[-113.66409249999998,37.138401300000055],[-113.66411479999999,37.138414800000078],[-113.66414139999995,37.138431800000035],[-113.66417379999996,37.138451900000064],[-113.66422639999996,37.138484600000027],[-113.66431149999994,37.138538700000026],[-113.66436419999997,37.138572000000067],[-113.66441899999995,37.138605900000073],[-113.66447449999998,37.138639800000078],[-113.66449609999995,37.138649600000065],[-113.66455669999999,37.138676600000053],[-113.66464249999996,37.13871510000007],[-113.66477799999996,37.13877430000008],[-113.66488179999999,37.138819700000056],[-113.66494959999994,37.138850200000036],[-113.66496979999994,37.138857100000052],[-113.66498499999994,37.138861100000042],[-113.66502169999995,37.13887260000007],[-113.66506429999998,37.138886400000047],[-113.66507649999994,37.138888100000031],[-113.66513059999994,37.138899600000059],[-113.66520199999997,37.138914000000057],[-113.66529859999997,37.138929500000074],[-113.66561469999999,37.138979200000051],[-113.66571849999997,37.138989000000038],[-113.66608479999996,37.139023400000042],[-113.66649019999994,37.139063200000066],[-113.66663009999996,37.139077600000064],[-113.66667769999998,37.139086200000065],[-113.66688279999994,37.139126700000077],[-113.66719209999997,37.139187600000071],[-113.66728149999994,37.139224400000046],[-113.66746329999995,37.139300000000048],[-113.66771649999998,37.139404300000024],[-113.66777529999996,37.13944680000003],[-113.66794219999997,37.139566500000058],[-113.66815569999994,37.139720400000044],[-113.66823029999995,37.139808900000048],[-113.66836439999997,37.139965200000063],[-113.66851149999997,37.14013650000004],[-113.66855919999995,37.140209900000059],[-113.66878029999998,37.140541800000051],[-113.66888559999995,37.140707100000043],[-113.66895589999996,37.140817700000071],[-113.66901569999999,37.140911700000061],[-113.66911609999994,37.141069900000048],[-113.66922429999994,37.141243600000053],[-113.66932199999997,37.141399700000079],[-113.66936309999994,37.141464600000063],[-113.66937399999995,37.141482200000041],[-113.66970519999995,37.142019300000072],[-113.66986309999999,37.142270500000052],[-113.66992839999995,37.14237410000004],[-113.67006589999994,37.142589200000032],[-113.67012819999997,37.142684900000063],[-113.67011969999999,37.142492600000026],[-113.67006549999996,37.141118200000051],[-113.67002599999995,37.140177100000074],[-113.67000779999995,37.139733500000034],[-113.66999909999998,37.139533100000051],[-113.66999689999994,37.139466700000071],[-113.66998679999995,37.13922210000004],[-113.66998499999994,37.139158300000076],[-113.66996479999995,37.138598000000059],[-113.66994459999995,37.138175000000047],[-113.66992149999999,37.137547300000051],[-113.66990499999997,37.137195100000042],[-113.66992049999999,37.137179800000069],[-113.67013289999994,37.136980900000026],[-113.67019519999997,37.136922300000037],[-113.67025599999994,37.136865000000057],[-113.67043359999997,37.136698400000057],[-113.67057349999999,37.136567400000047],[-113.67063379999996,37.136511400000074],[-113.67130469999995,37.136507700000038],[-113.67374719999998,37.136497500000075],[-113.67450429999997,37.136494600000049],[-113.67519789999994,37.136491100000057],[-113.67590089999999,37.136487700000032],[-113.67646829999995,37.136485400000026],[-113.67722869999994,37.136481900000035],[-113.67768779999994,37.136480800000072],[-113.67817729999996,37.136478500000067],[-113.67848729999997,37.13647670000006],[-113.67872379999994,37.136536500000034],[-113.67895879999998,37.136596900000029],[-113.67926099999994,37.136672800000042],[-113.67969449999998,37.136783900000069],[-113.68005499999998,37.136875300000042],[-113.68011989999997,37.136892000000046],[-113.68023239999997,37.136920700000076],[-113.68036869999997,37.136954600000024],[-113.68050559999995,37.136989700000072],[-113.68059149999999,37.137019600000031],[-113.68120279999999,37.13723310000006],[-113.68180829999994,37.137444200000061],[-113.68187789999996,37.137468400000046],[-113.68197159999994,37.137432500000045],[-113.68207829999994,37.137391500000035],[-113.68283439999999,37.13709840000007],[-113.68298849999996,37.137039100000038],[-113.68320089999997,37.13695720000004],[-113.68329389999997,37.13692130000004],[-113.68352709999999,37.13693690000008],[-113.68421489999997,37.136984200000029],[-113.68452849999994,37.137005800000054],[-113.68479639999998,37.137023300000067],[-113.68493669999998,37.13690310000004],[-113.68500169999999,37.136847800000055],[-113.68516419999997,37.136709000000053],[-113.68539639999995,37.136510900000076],[-113.68543809999994,37.136401300000045],[-113.68551199999996,37.136204600000042],[-113.68558289999999,37.136015000000043],[-113.68563949999998,37.135865300000034],[-113.68565669999998,37.135829000000058],[-113.68608209999996,37.135745100000065],[-113.68686469999994,37.135591800000043],[-113.68715019999996,37.13553660000008],[-113.68723679999999,37.135519400000078],[-113.68738669999999,37.135488300000077],[-113.68758719999994,37.135451600000067],[-113.68763619999999,37.135483700000066],[-113.68795199999994,37.13569410000008],[-113.68835789999997,37.135962900000038],[-113.68836869999996,37.135991600000068],[-113.68857459999998,37.136530900000025],[-113.68865819999996,37.136750000000063],[-113.68863049999999,37.136855700000069],[-113.68860959999995,37.136936200000036],[-113.68856669999997,37.137098000000037],[-113.68852299999998,37.137264400000049],[-113.68848719999994,37.137400600000035],[-113.68866389999994,37.137510300000031],[-113.68951389999995,37.138035800000068],[-113.68969069999997,37.138145400000042],[-113.68989669999996,37.138273200000071],[-113.69011409999996,37.138407400000062],[-113.69030509999999,37.138526100000036],[-113.69049569999999,37.138643900000034],[-113.69057029999999,37.138689900000031],[-113.69058069999994,37.138696500000037],[-113.69077119999997,37.138814400000058],[-113.69093959999998,37.138918700000033],[-113.69114709999997,37.139047500000061],[-113.69133119999998,37.139161200000046],[-113.69136869999994,37.139184000000057],[-113.69178169999998,37.139440000000036],[-113.69219429999998,37.139695400000051],[-113.69236489999997,37.139801100000057],[-113.69240449999995,37.139825600000052],[-113.69252059999997,37.139897700000063],[-113.69254769999998,37.139896000000078],[-113.69273939999999,37.139883600000076],[-113.69292909999996,37.139871200000073],[-113.69310899999999,37.139859200000046],[-113.69320629999999,37.13985340000005],[-113.69372969999995,37.139820000000043],[-113.69410829999998,37.139794700000039],[-113.69417169999997,37.139756200000079],[-113.69444619999996,37.139590800000065],[-113.69475439999997,37.139403900000048],[-113.69502579999994,37.139239900000064],[-113.69533879999994,37.139050200000042],[-113.69569639999997,37.138834100000054],[-113.69602409999999,37.138637100000039],[-113.69642639999995,37.138392800000076],[-113.69677069999995,37.138651200000027],[-113.69709879999999,37.138897200000031],[-113.69714849999997,37.138935700000047],[-113.69715569999994,37.138940300000058],[-113.69715609999997,37.139090400000043],[-113.69715609999997,37.139291600000035],[-113.69715609999997,37.13968710000006],[-113.69715649999995,37.140220800000066],[-113.69715789999998,37.140751900000055],[-113.69737569999995,37.140735800000073],[-113.69770739999996,37.140705900000057],[-113.69840039999997,37.140649600000074],[-113.69847399999998,37.140623100000028],[-113.69858929999998,37.14057710000003],[-113.69884599999995,37.140482900000052],[-113.69924689999999,37.140331100000026],[-113.69930169999998,37.140310400000033],[-113.69943579999995,37.140497800000048],[-113.69964199999998,37.140792100000056],[-113.69971759299995,37.140899279000053],[-113.69990309999997,37.141162300000076],[-113.70036739999995,37.141401400000063],[-113.70110429999994,37.141779500000041],[-113.70120089999995,37.142010600000049],[-113.70127879999995,37.142191100000048],[-113.70151239999996,37.142326700000069],[-113.70191689999996,37.142563400000029],[-113.70292629999994,37.142471400000034],[-113.70324929999998,37.142563400000029],[-113.70375399999995,37.142563400000029],[-113.70592269999997,37.142565600000069],[-113.70956819999998,37.142584000000056],[-113.71501339999998,37.142547200000024],[-113.71500459999999,37.139870900000062],[-113.71491229999998,37.13508870000004],[-113.71495839999994,37.124750600000027],[-113.71491229999998,37.121439100000032],[-113.71501453399998,37.11524929400008],[-113.64071319999999,37.115561500000069],[-113.64069009999997,37.115562100000034],[-113.64056609999994,37.115561500000069],[-113.64054159999995,37.115560400000049],[-113.64034679999997,37.115561600000035],[-113.64000219999997,37.115561000000071],[-113.63992009999998,37.115564000000063],[-113.63990929999994,37.115475500000059],[-113.63990279999996,37.115410500000053],[-113.63958029999998,37.115108500000076],[-113.63933299999997,37.114855700000078],[-113.63930989999994,37.114799300000072],[-113.63924939999998,37.114651000000038],[-113.63921969999996,37.114578100000074],[-113.63914179999995,37.114468800000054],[-113.63910569999996,37.114404400000069],[-113.63901349999998,37.114312400000074],[-113.63889089999998,37.114160600000048],[-113.63881299999997,37.114054800000076],[-113.63869759999994,37.113935200000071],[-113.63851159999996,37.11374440000003],[-113.63838179999999,37.113669600000037],[-113.63816839999998,37.113547700000026],[-113.63805019999995,37.113482200000078],[-113.63790599999999,37.113438500000029],[-113.63776749999994,37.113397100000043],[-113.63767669999999,37.113364900000079],[-113.63755119999996,37.113313100000028],[-113.63736519999998,37.11323150000004],[-113.63712289999995,37.113136000000054],[-113.63674079999998,37.112996900000041],[-113.63653599999998,37.112922100000048],[-113.63635139999997,37.112849700000027],[-113.63588999999996,37.112674900000059],[-113.63557149999997,37.112574000000052],[-113.63531629999994,37.112411800000075],[-113.63495429999995,37.112195600000064],[-113.63480729999998,37.112049600000034],[-113.63451449999997,37.111743700000034],[-113.63442459999999,37.111652900000024],[-113.63430699999998,37.111631600000067],[-113.63409219999994,37.11159200000003],[-113.63407849999999,37.111590800000045],[-113.63399639999994,37.111550900000054],[-113.63388239999995,37.111494500000049],[-113.63367769999996,37.111393300000032],[-113.63355939999997,37.111235800000031],[-113.63342509999995,37.11105370000007],[-113.63347159999995,37.110775100000069],[-113.63349029999995,37.11062220000008],[-113.63351629999994,37.110458000000051],[-113.63346579999995,37.110246000000075],[-113.63343839999999,37.110142500000052],[-113.63338939999994,37.109936700000048],[-113.63316149999997,37.109758400000032],[-113.63294919999998,37.10959420000006],[-113.63284099999998,37.109470000000044],[-113.63269899999995,37.109302900000046],[-113.63251729999996,37.109223600000064],[-113.63204479999996,37.109013700000048],[-113.63180249999999,37.109126400000036],[-113.63146649999999,37.109281700000054],[-113.63136269999995,37.109286300000065],[-113.63102669999995,37.109304700000052],[-113.63057679999997,37.109326500000066],[-113.63031859999995,37.109259800000075],[-113.63002299999999,37.109187400000053],[-113.62944759999999,37.10904940000006],[-113.62928319999997,37.109006800000031],[-113.62919669999997,37.108974600000067],[-113.62886069999996,37.108849300000031],[-113.62808509999996,37.108564300000069],[-113.62766139999997,37.108411100000069],[-113.62740469999994,37.108456000000047],[-113.62703769999996,37.108524400000078],[-113.62651079999995,37.10862300000008],[-113.62644159999996,37.108572400000071],[-113.62609639999994,37.108314700000051],[-113.62568269999997,37.108005700000035],[-113.62561779999999,37.107956300000069],[-113.62543459999995,37.107817100000034],[-113.62518369999998,37.107646900000077],[-113.62484479999995,37.107418000000052],[-113.62468039999999,37.107312200000024],[-113.62462129999994,37.107270800000038],[-113.62449439999995,37.107104100000072],[-113.62437619999997,37.106952300000046],[-113.62420909999997,37.106734300000028],[-113.62408949999997,37.106583600000079],[-113.62403029999996,37.106535300000075],[-113.62361939999994,37.106205300000056],[-113.62328769999999,37.105939700000079],[-113.62300499999998,37.105717700000071],[-113.62287669999995,37.105609600000037],[-113.62279449999994,37.105545200000051],[-113.62271229999999,37.105481900000029],[-113.62262719999995,37.105410600000027],[-113.62243909999995,37.105255300000067],[-113.62237709999999,37.105236900000079],[-113.62210019999998,37.105158700000061],[-113.62188389999994,37.105095500000061],[-113.62141049999997,37.104873600000076],[-113.62094609999997,37.104803400000037],[-113.62060469999994,37.10474830000004],[-113.62020529999995,37.104863300000034],[-113.61990239999994,37.10495190000006],[-113.61965009999994,37.104872500000056],[-113.61928239999997,37.104758700000048],[-113.61890309999995,37.104635600000051],[-113.61834269999997,37.104435100000046],[-113.61785819999994,37.104262600000027],[-113.61753659999999,37.103956700000026],[-113.61729299999996,37.103727200000037],[-113.61721649999998,37.10350980000004],[-113.61715739999994,37.103339600000027],[-113.61710259999995,37.10317740000005],[-113.61707519999999,37.10305900000003],[-113.61705079999996,37.102939700000036],[-113.61703779999999,37.10284530000007],[-113.61702049999997,37.102674000000036],[-113.61667109999996,37.102383600000053],[-113.61648659999997,37.102227200000073],[-113.61641009999994,37.102167400000042],[-113.61627749999997,37.102017800000056],[-113.61600959999998,37.101713300000029],[-113.61598789999999,37.101689200000067],[-113.61593599999998,37.101629400000036],[-113.61590079999996,37.101592800000049],[-113.61574939999997,37.101679000000047],[-113.61562529999998,37.101751500000034],[-113.61550129999995,37.101825100000042],[-113.61541189999997,37.101896400000044],[-113.61529219999994,37.10199300000005],[-113.61524319999995,37.102042500000039],[-113.61515519999995,37.102139100000045],[-113.61505589999996,37.102247600000055],[-113.61501119999997,37.10231310000006],[-113.61493909999996,37.102414400000043],[-113.61482659999996,37.10257880000006],[-113.61476459999994,37.10266850000005],[-113.61451299999999,37.102980200000047],[-113.61430959999996,37.103236700000025],[-113.61395109999995,37.103671200000065],[-113.61380039999995,37.103852300000028],[-113.61363299999999,37.104053500000077],[-113.61351979999995,37.104192000000069],[-113.61336219999998,37.104399800000067],[-113.61328789999999,37.10449820000008],[-113.61314969999995,37.104692600000078],[-113.61300869999997,37.104890900000044],[-113.61288899999994,37.105062800000042],[-113.61287239999996,37.105089200000066],[-113.61282769999997,37.105163400000038],[-113.61276569999995,37.105265800000041],[-113.61259889999997,37.105591900000036],[-113.61247059999994,37.105839700000047],[-113.61239769999997,37.105980600000066],[-113.61214809999996,37.106464600000038],[-113.61204319999996,37.106670200000053],[-113.61201219999998,37.106744400000025],[-113.61192209999996,37.106962900000042],[-113.61187159999997,37.107087700000079],[-113.61185859999995,37.107132000000036],[-113.61183409999995,37.107238400000028],[-113.61181819999996,37.107329800000059],[-113.61181819999996,37.107391900000039],[-113.61181939999994,37.107535000000041],[-113.61181649999997,37.107861600000035],[-113.61181939999994,37.108501000000047],[-113.61181649999997,37.10893260000006],[-113.61181939999994,37.109183300000041],[-113.61180789999997,37.109438600000033],[-113.61176749999998,37.110172400000067],[-113.61175879999996,37.110508200000027],[-113.61172419999997,37.111269400000026],[-113.61168669999995,37.112134200000071],[-113.61163189999996,37.113063400000044],[-113.61162039999999,37.113309500000071],[-113.61157139999995,37.113546400000075],[-113.61140309999996,37.114113100000054],[-113.61107059999995,37.115250500000059],[-113.61102229999995,37.115406300000075],[-113.61099199999995,37.11547180000008],[-113.61094729999996,37.115567200000044],[-113.61087229999998,37.115696000000071],[-113.61078289999995,37.11584090000008],[-113.61069209999994,37.115972000000056],[-113.61061559999996,37.116079200000058],[-113.61046709999999,37.116088400000024],[-113.61030409999995,37.11609530000004],[-113.60925939999998,37.11610010000004],[-113.60806109999999,37.116116600000055],[-113.60806809999997,37.116625800000065],[-113.60791529999995,37.116637300000036],[-113.60770759999997,37.116637300000036],[-113.60690009999996,37.116635000000031],[-113.60612709999998,37.116644200000053],[-113.60568879999994,37.116637300000036],[-113.60540319999996,37.116628100000071],[-113.60531959999997,37.116625800000065],[-113.60414629999997,37.116570900000056],[-113.60286469999994,37.116516900000079],[-113.60286219999995,37.116631100000063],[-113.60285659999994,37.116936900000042],[-113.60285509999994,37.117073100000027],[-113.60285279999999,37.117348100000072],[-113.60285359999995,37.117373400000076],[-113.60285209999995,37.117384900000047],[-113.60283769999995,37.11748440000008],[-113.60280959999994,37.117701700000055],[-113.60280169999999,37.11775920000008],[-113.60279299999996,37.117834500000072],[-113.60277499999995,37.117961500000035],[-113.60276199999998,37.118065000000058],[-113.60274899999996,37.118168300000036],[-113.60272229999998,37.118384500000047],[-113.60270939999998,37.118478800000048],[-113.60269059999996,37.118527700000072],[-113.60266389999998,37.118599500000073],[-113.60263369999996,37.118683500000031],[-113.60256079999999,37.118861700000025],[-113.60252259999999,37.118952600000057],[-113.60242959999999,37.119189400000039],[-113.60239569999999,37.11927680000008],[-113.60235819999997,37.119375700000035],[-113.60234809999997,37.119401000000039],[-113.60229689999994,37.119537800000046],[-113.60222419999997,37.119723200000067],[-113.60216649999995,37.119725000000074],[-113.60208429999994,37.119728400000042],[-113.60207489999999,37.119734700000038],[-113.60206339999996,37.119740500000034],[-113.60206269999998,37.119781300000056],[-113.60206189999997,37.119838900000047],[-113.60205039999994,37.120078100000057],[-113.60203589999998,37.120439100000056],[-113.60200709999998,37.120979500000033],[-113.60199269999998,37.121247000000039],[-113.60185999999999,37.121256200000062],[-113.60175899999996,37.121272300000044],[-113.60133799999994,37.121270000000038],[-113.60084659999995,37.12128210000003],[-113.60087539999995,37.121999500000072],[-113.60089269999997,37.122905600000024],[-113.60089849999997,37.12314020000008],[-113.60089269999997,37.123807000000056],[-113.60089539999996,37.124462400000027],[-113.60103669999995,37.12443600000006],[-113.60120249999994,37.124417600000072],[-113.60122559999996,37.124414200000047],[-113.60128609999998,37.124417600000072],[-113.60137559999998,37.124421100000063],[-113.60146639999999,37.12443600000006],[-113.60161929999998,37.124461300000064],[-113.60184999999996,37.12453140000008],[-113.60206919999996,37.124599300000057],[-113.60229699999996,37.124653300000034],[-113.60253209999996,37.124708500000054],[-113.60266909999996,37.124730300000067],[-113.60285369999997,37.124760200000026],[-113.60309589999997,37.124794700000052],[-113.60326459999999,37.124812800000029],[-113.60355739999994,37.124838100000034],[-113.60371739999999,37.124838100000034],[-113.60393369999997,37.124836900000048],[-113.60395829999999,37.124838100000034],[-113.60405199999997,37.124827700000026],[-113.60426689999997,37.124812800000029],[-113.60447309999995,37.124780600000065],[-113.60474799999997,37.124734500000045],[-113.60524119999997,37.12464250000005],[-113.60573479999999,37.124546800000076],[-113.60622939999996,37.124454900000046],[-113.60672019999998,37.124360600000045],[-113.60721289999998,37.124264800000049],[-113.60876339999999,37.123973100000057],[-113.60969779999999,37.123795600000051],[-113.61062489999995,37.123617300000035],[-113.61095369999998,37.123555200000055],[-113.61362689999999,37.123037900000043],[-113.61462159999996,37.122849500000029],[-113.61494889999994,37.122784000000024],[-113.61593909999999,37.122673600000041],[-113.61626849999999,37.122636400000033],[-113.61639249999996,37.122652500000072],[-113.61665779999998,37.122650200000066],[-113.61703559999995,37.122673100000043],[-113.61791529999999,37.122723700000051],[-113.61880359999998,37.12277430000006],[-113.61966019999994,37.12282950000008],[-113.62013029999997,37.122852500000079],[-113.62080799999995,37.122857100000033],[-113.62266899999997,37.122859400000038],[-113.62326599999994,37.122866300000055],[-113.62364089999994,37.12286400000005],[-113.62403609999996,37.122875500000077],[-113.62426389999996,37.122910000000047],[-113.62456099999997,37.122953700000039],[-113.62473399999999,37.122983600000055],[-113.62489259999995,37.123011200000064],[-113.62505419999997,37.123045700000034],[-113.62523299999998,37.123082500000066],[-113.62540889999997,37.123126200000058],[-113.62557039999996,37.123172200000056],[-113.62582709999998,37.123248000000046],[-113.62615299999999,37.12333540000003],[-113.62678779999999,37.123519400000077],[-113.62747709999996,37.123714900000039],[-113.62816059999994,37.12390570000008],[-113.63094279999996,37.124687200000039],[-113.63128309999996,37.124783800000046],[-113.63260109999999,37.12515170000006],[-113.63477999999998,37.125782400000048],[-113.63570359999994,37.126052800000025],[-113.63598619999999,37.126126400000032],[-113.63707929999998,37.126446000000044],[-113.63760579999996,37.126595100000031],[-113.63760649999995,37.126706600000034],[-113.63760509999997,37.126929100000041],[-113.63761659999994,37.127339600000028],[-113.63762669999994,37.127748900000029],[-113.63763389999997,37.128024200000027],[-113.63764189999995,37.128433400000063],[-113.63764479999998,37.128903600000058],[-113.63764619999995,37.129134700000066],[-113.63764619999995,37.129147900000078],[-113.63764619999995,37.129185900000039],[-113.63764839999999,37.129392200000041],[-113.63764909999998,37.12966670000003],[-113.63764909999998,37.12973560000006],[-113.63765199999995,37.130042600000024],[-113.63765269999999,37.130350700000065],[-113.63765479999995,37.130760000000066],[-113.63765629999995,37.131043400000067],[-113.63765849999999,37.131444700000031],[-113.63766059999995,37.131717700000024],[-113.63766059999995,37.131855700000074],[-113.63766299999997,37.132124300000044],[-113.63766299999997,37.132297900000026],[-113.63766369999996,37.132373200000075],[-113.63766509999999,37.132552500000031],[-113.63766729999998,37.132918700000062],[-113.63766729999998,37.132979000000034],[-113.63766929999997,37.133756500000061],[-113.63766779999997,37.133861200000069],[-113.63766929999997,37.134057700000028],[-113.63766829999997,37.134119100000078],[-113.63766619999996,37.134144900000024],[-113.63766039999996,37.134193200000027],[-113.63767989999997,37.134183500000063],[-113.63770079999995,37.134172000000035],[-113.63773319999996,37.13416280000007],[-113.63778729999996,37.134143800000061],[-113.63785859999996,37.134120100000075],[-113.63794359999997,37.13409310000003],[-113.63798909999997,37.134082700000079],[-113.63811669999996,37.134057400000074],[-113.63817719999997,37.134045400000048],[-113.63821039999999,37.134038500000031],[-113.63828609999996,37.134024100000033],[-113.63844259999996,37.133993100000055],[-113.63847289999995,37.133987300000058],[-113.63863149999997,37.133956300000079],[-113.63880129999995,37.13392470000008],[-113.63896209999996,37.133893600000079],[-113.63899019999997,37.133887300000026],[-113.63914369999998,37.133856800000046],[-113.63926989999999,37.133833300000049],[-113.63959099999994,37.133771700000068],[-113.63963999999999,37.133768300000042],[-113.63983249999995,37.133752800000025],[-113.64000189999996,37.133740700000033],[-113.64026009999998,37.133722300000045],[-113.64059519999995,37.133697000000041],[-113.64082469999994,37.133684100000039],[-113.64081459999994,37.13356170000003],[-113.64093569999994,37.133573800000079],[-113.64112609999995,37.133568000000025],[-113.64152619999999,37.133560500000044],[-113.64172009999999,37.133557600000074],[-113.64224499999995,37.133551900000043],[-113.64226879999995,37.133551300000079],[-113.64241009999995,37.133550200000059],[-113.64243099999999,37.133550700000058],[-113.64275699999996,37.133545600000048],[-113.64289179999997,37.133543800000041],[-113.64307849999994,37.133540400000072],[-113.64329839999999,37.133563400000071],[-113.64338499999997,37.133602500000052],[-113.64374069999997,37.133759100000077],[-113.64404049999996,37.133892200000048],[-113.64432239999996,37.134016300000042],[-113.64446489999995,37.134079700000029],[-113.64457159999995,37.134128000000032],[-113.64474259999997,37.134202900000048],[-113.64496539999999,37.134300100000075],[-113.64511829999998,37.134368500000051],[-113.64524299999999,37.134473100000037],[-113.64534539999994,37.134556400000065],[-113.64540739999995,37.134609300000079],[-113.64544919999997,37.134671400000059],[-113.64547879999998,37.134657000000061],[-113.64576209999996,37.134524800000065],[-113.64577649999995,37.134519100000034],[-113.64587739999996,37.134470200000067],[-113.64588899999995,37.134464500000036],[-113.64598699999999,37.134415600000068],[-113.64650129999995,37.13416280000007],[-113.64665989999997,37.134084100000052],[-113.64668949999998,37.134065700000065],[-113.64674499999995,37.134027200000048],[-113.64677809999995,37.133996700000068],[-113.64681779999995,37.133964500000047],[-113.64692239999999,37.133812200000079],[-113.64650599999999,37.133609600000057],[-113.64654349999995,37.133527400000048],[-113.64656159999998,37.133507900000041],[-113.64660909999998,37.133456100000046],[-113.64665739999998,37.133403800000053],[-113.64668339999997,37.133384300000046],[-113.64673199999999,37.133351300000072],[-113.64681779999995,37.133313400000077],[-113.64685819999994,37.133297900000059],[-113.64690499999995,37.133280600000035],[-113.64694609999998,37.133269100000064],[-113.64704349999994,37.133243700000037],[-113.64741049999998,37.133142500000076],[-113.64793559999998,37.132999400000074],[-113.64823339999998,37.132913700000074],[-113.64862989999995,37.132806300000027],[-113.64878849999997,37.132763800000077],[-113.64889019999998,37.132736200000068],[-113.64894999999996,37.13271780000008],[-113.64904369999999,37.132689700000071],[-113.64910789999999,37.132668400000057],[-113.64918649999998,37.132638500000041],[-113.64925359999995,37.132612100000074],[-113.64927879999999,37.132604000000072],[-113.64934659999994,37.132568400000025],[-113.64938239999998,37.132549500000039],[-113.64944439999999,37.13251050000008],[-113.64948629999998,37.132486300000039],[-113.64955259999999,37.132438000000036],[-113.64963099999994,37.132381500000065],[-113.64970739999995,37.132314800000074],[-113.64976439999998,37.132266500000071],[-113.64982059999994,37.132308500000079],[-113.64984079999999,37.13232400000004],[-113.64987829999995,37.132364800000062],[-113.64993809999999,37.132425200000057],[-113.65012229999996,37.132612600000073],[-113.64990019999999,37.132706900000073],[-113.64998769999994,37.132812700000045],[-113.64992938199998,37.132858337000073],[-113.64988869999996,37.132890800000041],[-113.64988242099997,37.133021125000027],[-113.64987897499998,37.13309266400006],[-113.64987429999996,37.133189700000059],[-113.64994548299995,37.133204185000068],[-113.65029274699998,37.133274928000048],[-113.65047369999996,37.133369300000027],[-113.65070019999996,37.13348730000007],[-113.65072759999998,37.133510300000069],[-113.65087179999995,37.13362120000005],[-113.65108659999999,37.133790800000043],[-113.65121569999997,37.13389490000003],[-113.65127479999995,37.133957000000066],[-113.65131669999994,37.134001800000078],[-113.65135489999994,37.134043200000065],[-113.65137939999994,37.134069100000033],[-113.65145219999999,37.134150700000077],[-113.65152209999997,37.134224300000028],[-113.65159859999994,37.134301900000025],[-113.65167209999998,37.134369100000072],[-113.65174419999994,37.134431200000051],[-113.65180329999998,37.134482400000024],[-113.65184879999998,37.13450540000008],[-113.65191009999995,37.134536400000059],[-113.65197209999997,37.134564000000069],[-113.65207949999996,37.134604200000069],[-113.65222509999995,37.134657100000027],[-113.65230229999997,37.134696800000029],[-113.65242409999996,37.13475770000008],[-113.65249989999995,37.134795100000076],[-113.65256759999994,37.134826700000076],[-113.65264619999999,37.134860600000025],[-113.65277459999999,37.134916400000066],[-113.65288419999996,37.134962900000062],[-113.65303849999998,37.135029600000053],[-113.65319419999997,37.135084200000051],[-113.65336719999999,37.135141700000077],[-113.65342999999996,37.135163500000033],[-113.65349629999997,37.135176200000046],[-113.65352519999999,37.135179600000072],[-113.65361239999999,37.135188800000037],[-113.65371059999995,37.135200600000076],[-113.65382019999998,37.135200600000076],[-113.65390809999997,37.13520520000003],[-113.65398459999994,37.135204000000044],[-113.65405809999999,37.13520520000003],[-113.65421239999995,37.135212000000024],[-113.65429319999998,37.135208600000055],[-113.65446619999994,37.135187900000062],[-113.65456569999998,37.135175300000071],[-113.65461909999999,37.135118900000066],[-113.65484829999997,37.135004000000038],[-113.65527259999999,37.134804200000076],[-113.65544569999997,37.134703000000059],[-113.65568789999998,37.13456160000004],[-113.65572979999996,37.134547800000064],[-113.65583499999997,37.134511400000065],[-113.65586559999997,37.134511700000076],[-113.65591549999999,37.134558100000049],[-113.65599769999994,37.134645500000033],[-113.65615769999994,37.134551200000033],[-113.65634199999994,37.134439900000075],[-113.65643859999994,37.134339900000043],[-113.65657849999997,37.134200800000031],[-113.65675089999996,37.134027100000026],[-113.65695569999997,37.13389490000003],[-113.65716769999995,37.133759300000065],[-113.65733779999999,37.133658100000048],[-113.65747829999998,37.133600500000057],[-113.65756479999999,37.133544100000051],[-113.65774079999994,37.133428000000038],[-113.65790079999999,37.133330300000068],[-113.65797289999995,37.133349900000042],[-113.65820369999994,37.133413100000041],[-113.65840989999998,37.133472900000072],[-113.65844879999997,37.133568300000036],[-113.65849349999996,37.133681000000024],[-113.65858289999994,37.133720000000039],[-113.65869969999994,37.133772900000054],[-113.65876899999995,37.13378670000003],[-113.65895639999997,37.133822400000042],[-113.65914529999998,37.133861400000058],[-113.65920589999996,37.133867200000054],[-113.65929389999997,37.133874100000071],[-113.65938759999995,37.133918900000026],[-113.65961829999998,37.134031600000071],[-113.65976669999998,37.134104800000046],[-113.65976089999998,37.134166900000025],[-113.65979989999994,37.134163400000034],[-113.65987769999998,37.134160000000065],[-113.66008399999998,37.134148500000038],[-113.66035649999998,37.134134700000061],[-113.66052379999996,37.134154200000069],[-113.66062359999995,37.134165900000028],[-113.66072159999999,37.134153200000071],[-113.66074619999995,37.133973900000058],[-113.66089469999997,37.133946300000048],[-113.66120189999998,37.133893400000034],[-113.66128839999999,37.133878400000071],[-113.66176489999998,37.133798200000058],[-113.66205329999997,37.133748700000069],[-113.66226749999998,37.13371310000008],[-113.66241179999997,37.133687500000065],[-113.66242119999998,37.133668500000056],[-113.66242879999999,37.133653600000059],[-113.66247759999999,37.13355480000007],[-113.66252089999995,37.133467800000062],[-113.66256919999995,37.133389600000044],[-113.66258619999996,37.133362100000056],[-113.66260889999995,37.133325900000045],[-113.66265869999995,37.133353700000043],[-113.66269799999998,37.133382200000028],[-113.66285949999997,37.133498900000063],[-113.66287099999994,37.133511500000054],[-113.66290889999999,37.133551800000077],[-113.66297019999996,37.133617300000026],[-113.66302569999999,37.133675900000071],[-113.66305959999994,37.133720200000027],[-113.66311579999996,37.133794900000055],[-113.66314789999996,37.133838000000026],[-113.66317239999995,37.133882000000028],[-113.66320449999995,37.133943200000033],[-113.66322869999999,37.133988100000067],[-113.66324919999994,37.13404040000006],[-113.66328309999994,37.134130600000049],[-113.66329639999998,37.134195600000055],[-113.66331449999996,37.134282400000075],[-113.66332639999996,37.134394200000031],[-113.66333459999998,37.134471800000028],[-113.66334399999994,37.134569600000077],[-113.66334289999998,37.134579000000031],[-113.66333899999995,37.134629600000039],[-113.66333249999997,37.134710100000063],[-113.66326549999997,37.135527600000046],[-113.66325409999996,37.135667500000068],[-113.66324289999994,37.135806500000058],[-113.66322999999994,37.135964600000079],[-113.66321449999998,37.136155900000063],[-113.66320079999997,37.136324100000024],[-113.66319389999995,37.136407400000053],[-113.66318429999995,37.13652460000003]]]]},"properties":{"OBJECTID":3,"Shape_Length":0.32666274470783374,"Shape_Area":0.0022229533483688006,"VertexCount":17}}]}