{"type":"FeatureCollection","features":[{"type":"Feature","id":3,"geometry":{"type":"Polygon","coordinates":[[[-113.32672227209184,37.487672587286767],[-113.32672114201121,37.487686499697766],[-113.32951963486975,37.487624900300716],[-113.32959939089393,37.487623144675425],[-113.48828999371752,37.487499217956454],[-113.48829002426027,37.487499217243624],[-113.49039907540957,37.487497569961135],[-113.49039934400585,37.487497570673938],[-113.53066697699677,37.487466124036885],[-113.53066956594142,37.487466121898507],[-113.56176028307762,37.487441841752599],[-113.56176036841758,37.487441841752599],[-113.6347717668895,37.487384824044007],[-114.05184855343555,37.485997519195635],[-114.05184868189464,37.485997517769981],[-114.05184871423398,37.485997517769981],[-114.0526659844115,37.485994799806107],[-114.05266116135672,37.484882691651876],[-114.05253049780541,37.454741025697473],[-114.05226072025084,37.392469693268751],[-114.0518258053976,37.291971725204228],[-114.05164761378121,37.250757369753515],[-114.05164761378121,37.250757344011575],[-114.0514442001666,37.240894199803577],[-114.05146720063112,37.236118299986565],[-114.05154388441704,37.226754906348617],[-114.05124736132154,37.158099635339418],[-114.05105635433931,37.113841847265931],[-114.05105634894942,37.113840539925533],[-114.0509029885641,37.078287144221761],[-114.05090298317423,37.078285750981976],[-114.05056727915928,37.000401174860087],[-114.05055817293724,37.000401166251031],[-114.05019390069964,37.000416800324906],[-114.05004779960015,37.000421099838128],[-114.04729480012256,37.000430000181261],[-114.03590760017252,37.000479399721335],[-114.02530790023145,37.000538599923736],[-114.02222310081714,37.000504500159366],[-114.01786730026018,37.000401700013519],[-114.01757230070739,37.000448800233698],[-114.00192430063491,37.000444500004569],[-114.00093720035972,37.000495899707268],[-113.99814770143378,37.000427400242373],[-113.99143100344432,37.000342258650306],[-113.64226983568278,36.999994402275441],[-113.64226923830311,36.999994402275441],[-113.62254850041298,36.999983099936898],[-113.62252880305371,37.000020810024289],[-113.62248027965532,37.000128595356102],[-113.62233705496138,37.00056325410624],[-113.62197561780681,37.001232785183078],[-113.62160660965104,37.002170323676637],[-113.62114112962026,37.003474256738535],[-113.62091913076073,37.004069024725979],[-113.62064733199679,37.004525053336408],[-113.61931273103031,37.006047850886439],[-113.61745746383022,37.008876393041433],[-113.61643861439791,37.010474500334318],[-113.61638351084007,37.010541604153438],[-113.61369066075727,37.014723557909399],[-113.61368770080841,37.014728299897151],[-113.61350160042424,37.015024300197801],[-113.6133990999554,37.015185600140185],[-113.61327880026748,37.015371699749309],[-113.61322640063865,37.015451700255632],[-113.61317949959766,37.015523999960237],[-113.61305880015946,37.015709400111632],[-113.61282510074335,37.016070299948169],[-113.61269829994774,37.016265699704512],[-113.61264413243441,37.01634873835205],[-113.61114578386301,37.018675500737118],[-113.61002426957013,37.0204365498454],[-113.61002408631381,37.020436841759505],[-113.60984610041163,37.020723000215725],[-113.60956200011819,37.021180100137293],[-113.60922130057196,37.021726299931295],[-113.60900920024854,37.022065600137516],[-113.60856270072142,37.022755099774542],[-113.60808689994634,37.023486399751327],[-113.60801790034937,37.02359080031593],[-113.60753510079991,37.024332199703728],[-113.60713980075239,37.024939199685981],[-113.606753900676,37.025531800189043],[-113.60652840018351,37.025877299935061],[-113.6062600006446,37.026288599969938],[-113.60605571296921,37.026603033262354],[-113.6060556599686,37.026603115737537],[-113.60514558573742,37.028033822705076],[-113.60428015328426,37.029399929223096],[-113.60418150029976,37.029554060160855],[-113.6036887312473,37.030323939949305],[-113.60368850936344,37.03032428776234],[-113.60363060036694,37.030415700141596],[-113.60359765195896,37.030466239089257],[-113.60359753068639,37.030466426979686],[-113.60262665757845,37.031983250997314],[-113.60155918772972,37.033674691706516],[-113.60057228059227,37.035147437820712],[-113.60029719758765,37.035641302929228],[-113.59974061940392,37.03637948617996],[-113.59974060233593,37.03637950912664],[-113.59972510010908,37.036402799981431],[-113.59967310023052,37.036480999978103],[-113.59961830030325,37.036563700296902],[-113.59948250018512,37.036766000146407],[-113.59930750028295,37.037030599843249],[-113.59912660024597,37.037301599941173],[-113.59905090011529,37.037416700329459],[-113.59902140033968,37.037462200049781],[-113.59897840068196,37.037519000086384],[-113.59870670073272,37.037828599730638],[-113.59856660037933,37.037987099866882],[-113.59807930027029,37.038531599836475],[-113.59799150073106,37.038625299802938],[-113.59774410021024,37.038887100074291],[-113.59763810080335,37.038983999834059],[-113.59749329956605,37.039117799960643],[-113.59681070032438,37.039739399977556],[-113.59616509999429,37.040329700166147],[-113.59544540033137,37.040985799949688],[-113.59472240025811,37.041646199848692],[-113.59404950012653,37.042260699952536],[-113.59401445325405,37.042292531666284],[-113.59401427628596,37.042292693714401],[-113.59316620557229,37.043081636113598],[-113.59264801868886,37.043579609737776],[-113.59232727342003,37.043901966843208],[-113.59231434037488,37.043914128083365],[-113.59228728940674,37.043941710809861],[-113.59222196122433,37.044012634701886],[-113.59210917594379,37.044132483710946],[-113.59189907257525,37.044364786661824],[-113.59139757459315,37.044949669068757],[-113.5912441001218,37.045154499812057],[-113.59116700041592,37.045256700235228],[-113.59098650012923,37.04549670029359],[-113.59083310021808,37.045699899831106],[-113.59064930041936,37.045948199830228],[-113.59062790075266,37.045982999780193],[-113.59051170007739,37.046173300073484],[-113.59037310080886,37.046404499786732],[-113.59023090019433,37.046639999995982],[-113.59007080064775,37.046905199811768],[-113.5898781003412,37.047226199890289],[-113.58983920059445,37.047288800160629],[-113.58974870071948,37.047454699840536],[-113.58969770066584,37.047570300343111],[-113.58950330074678,37.048019899755445],[-113.58925650030056,37.04857320024805],[-113.58917200027336,37.048767000011622],[-113.58905400027261,37.049036699945731],[-113.58904330043924,37.049072000353959],[-113.58897350044336,37.049300000044397],[-113.58891589956902,37.04948299982869],[-113.58882470080475,37.049785999853121],[-113.58872410027271,37.050110300073086],[-113.58866420060957,37.050327900133794],[-113.58859980038686,37.050581499736268],[-113.58853809960156,37.050818099686914],[-113.58847910005034,37.05105999998716],[-113.58843090004544,37.051294400301266],[-113.58837640015547,37.051556900349134],[-113.58830030027448,37.051906900195505],[-113.58817690139885,37.052488000030664],[-113.58809910010874,37.05285409992635],[-113.58799990005022,37.053314300009475],[-113.58797850038351,37.053408700086017],[-113.58795630031791,37.053508800286465],[-113.58793915058082,37.053590512779806],[-113.58782965493083,37.054260568825356],[-113.58772653372611,37.054583586727404],[-113.58762598978795,37.05490454572822],[-113.58756752114104,37.055084682295465],[-113.5875194001879,37.055272700084942],[-113.58749190006212,37.05538110028759],[-113.58745279999104,37.055488100224665],[-113.58738979215703,37.055658621765161],[-113.58735013962206,37.055787177772835],[-113.58728053186563,37.055974401649394],[-113.58713330068552,37.056247122059311],[-113.58713210143462,37.056249799663661],[-113.58711900040451,37.056276000034906],[-113.58711069098813,37.05628900164411],[-113.58707593876305,37.056353373771238],[-113.58694229280498,37.056575901771346],[-113.58659903755178,37.057069145733728],[-113.58630603136061,37.057404282083347],[-113.58604661587285,37.057698098769926],[-113.58580895219137,37.057945623281555],[-113.58548266880884,37.058286371050855],[-113.58531780459799,37.058443103671756],[-113.5853177111732,37.058443193997952],[-113.58528597638917,37.058476638344395],[-113.58518957997268,37.058604471270776],[-113.58505770189906,37.058779355139677],[-113.58495500020759,37.058921000211356],[-113.5848231005744,37.059101999672471],[-113.58478050066702,37.059161400085117],[-113.58472620020304,37.059236000187518],[-113.58465679995743,37.059332099755814],[-113.58462390005847,37.059389299927425],[-113.58455080144886,37.059517499784455],[-113.58448289959316,37.059636899927312],[-113.58441650061894,37.059752699799859],[-113.58437400042453,37.059828999716515],[-113.58436980259721,37.059836349697889],[-113.58404989096495,37.060877285674934],[-113.58401388559005,37.061051590824967],[-113.58399990061771,37.061124500171772],[-113.58397340031684,37.061260400346214],[-113.58396099997266,37.061326199799893],[-113.58395700067301,37.061347100200564],[-113.58395660002439,37.061368199878949],[-113.58395460037457,37.061475500333621],[-113.58395330141067,37.06156319994124],[-113.58394420057851,37.062014000317006],[-113.58394090016819,37.062177799725475],[-113.58393920055565,37.062271699891234],[-113.58394020038057,37.06237130023311],[-113.58394050041787,37.062439799764832],[-113.58394020038057,37.062529699661177],[-113.58394050041787,37.062653599653949],[-113.58394130081678,37.062743300017118],[-113.58394130081678,37.062840200146361],[-113.58394159995578,37.062881099765796],[-113.58394189999308,37.062934799837308],[-113.58394189999308,37.063016599668899],[-113.58394159995578,37.063071999967477],[-113.58394183261943,37.06311309372304],[-113.58398491043059,37.063622061770623],[-113.58407251234044,37.064682208795325],[-113.58407520009978,37.064712400350373],[-113.58408310078271,37.064807599830786],[-113.58408650000773,37.064848899805369],[-113.5840905002057,37.064895200250042],[-113.58409420036634,37.064940400358068],[-113.58410120003903,37.065024600065705],[-113.58410630067323,37.065081899883069],[-113.58411090004749,37.065140000335461],[-113.58413470001263,37.065417800079857],[-113.58414950065523,37.065587300074355],[-113.58416860063483,37.065815300319592],[-113.58420690030695,37.066261100113074],[-113.58423400068244,37.066576800029225],[-113.58425879957419,37.066870999801161],[-113.58428810082211,37.067211399979072],[-113.58430620007844,37.067418100235557],[-113.58433570075239,37.067765599879884],[-113.58437429956352,37.06821719988195],[-113.58440260008823,37.068530000168607],[-113.58441200005936,37.068638099735807],[-113.58441330081989,37.068645899717154],[-113.58441670004493,37.068682499839625],[-113.58443170011354,37.068850199881126],[-113.58445860016471,37.069143000294289],[-113.58447730039398,37.06934439977789],[-113.58448880062625,37.069475900025168],[-113.58449850063469,37.069577800338998],[-113.5845126005914,37.069739400139646],[-113.5845274003357,37.069899900076287],[-113.5845414005794,37.070049000243621],[-113.58459369959694,37.070627899733537],[-113.58463230020469,37.071042900212262],[-113.5846591014412,37.071338200078287],[-113.58467390028719,37.071502699687265],[-113.58468800024389,37.071656300042697],[-113.58471120013442,37.071922699708672],[-113.58472060010556,37.072018999662731],[-113.58472930028908,37.072119099678858],[-113.58473540074816,37.072185999951117],[-113.58474470010799,37.072283300145294],[-113.58475750020246,37.072447100313937],[-113.58477890076747,37.07273110032969],[-113.58478856933489,37.072858039115211],[-113.5847903569823,37.072881503694845],[-113.58480779957017,37.073110499778409],[-113.58482190042518,37.073288100315573],[-113.58482249960149,37.073313800255924],[-113.5848379003187,37.073511200048607],[-113.58487820143729,37.074036099979047],[-113.58490630073941,37.074406900097422],[-113.58492510068166,37.074654600157366],[-113.58494390062391,37.074895299928833],[-113.58495130004691,37.075005499724682],[-113.58496150041698,37.075120299967324],[-113.58496750026477,37.075212800131894],[-113.58497890078402,37.075366899689847],[-113.5849850003448,37.075445000054117],[-113.58500779958672,37.075736600316034],[-113.58502820032682,37.075998899691406],[-113.58503370071129,37.076084600092919],[-113.58504920024322,37.076350999969776],[-113.58505050010542,37.076571400186971],[-113.58505120079134,37.076802500112713],[-113.58505170025464,37.076980499804812],[-113.58504429993334,37.077228799933451],[-113.58502960080035,37.077458200005132],[-113.58500900063423,37.077785599892465],[-113.58498690028162,37.078115099697584],[-113.58494790082189,37.078468999779474],[-113.58494644824606,37.078480536263662],[-113.58492552827974,37.078747582053815],[-113.58492274979055,37.078783044226],[-113.58488883928689,37.07894252095209],[-113.5848795004012,37.07901260013152],[-113.58486670030673,37.079120600188254],[-113.58483920018092,37.079253799926938],[-113.58478390079036,37.079436300324701],[-113.58478371124585,37.079436921683026],[-113.58476967866277,37.079502913921118],[-113.58461257859095,37.080042811706853],[-113.58441922610751,37.080666260907634],[-113.58436378029154,37.080823291284318],[-113.58435260075784,37.080860299760694],[-113.58433965783122,37.08089160788554],[-113.58425809798995,37.081122595743942],[-113.58406071656243,37.081627133684805],[-113.58371579313776,37.082438276653946],[-113.58360816957683,37.082636206659316],[-113.58340317582562,37.083013211692339],[-113.58337700071486,37.083069099750134],[-113.58331130062994,37.083209299863483],[-113.58324420007146,37.083345100268964],[-113.58321740063161,37.083400800322686],[-113.58315970004428,37.08348419983254],[-113.58309900627042,37.083572609977892],[-113.58309673532938,37.083576785822537],[-113.58309251414587,37.083582066721341],[-113.58306049998578,37.083628699714808],[-113.58298670069023,37.083739900139854],[-113.58292537180745,37.083831345651681],[-113.58291820055656,37.083837899992538],[-113.58290340081224,37.083860099897706],[-113.58286840065215,37.083911299828515],[-113.58281600012499,37.083987599808168],[-113.5826475004322,37.08423420007189],[-113.58258650033284,37.084324200261278],[-113.58248690142233,37.08446740001105],[-113.58234300029699,37.084657099991624],[-113.5822113000898,37.084829900042024],[-113.58208610009203,37.084995499780426],[-113.58193000074341,37.085202000355089],[-113.58176939993692,37.08541330028644],[-113.58159480068336,37.085613899808195],[-113.58144530035884,37.08577039967269],[-113.58134000073954,37.085880499817804],[-113.58126440032186,37.08595950016899],[-113.58122000019061,37.086006100168838],[-113.58112129959541,37.086109500355242],[-113.58110169386434,37.086129961808652],[-113.58092174693988,37.086362829857556],[-113.58031122402502,37.086965338762838],[-113.5798218613841,37.087436674979052],[-113.57970491331054,37.087535246915081],[-113.57966380011493,37.087575600066664],[-113.5796126006353,37.087626800354172],[-113.5795780002255,37.087650400099974],[-113.57953729127178,37.087676530147256],[-113.57930063639837,37.087876000056013],[-113.57887775358006,37.088142731128237],[-113.57785497042512,37.088809556135232],[-113.57672509012201,37.089518669327816],[-113.57672503981635,37.089518702290505],[-113.57654690030223,37.089632300349848],[-113.57642789957823,37.089708600303268],[-113.57639970056316,37.0897260998807],[-113.57630080144027,37.089789199650298],[-113.57619080003877,37.08985909969028],[-113.57600560066486,37.089977299811117],[-113.57573490143884,37.090149899989882],[-113.57550110141142,37.090299100069274],[-113.57517559956314,37.090489699800024],[-113.57491090018492,37.090644600244005],[-113.57472900032302,37.090750699868067],[-113.57447620002903,37.090898399704635],[-113.57423260028017,37.091040800243782],[-113.5740363004243,37.091155599851639],[-113.57384310065446,37.091268900232862],[-113.57358410018836,37.091420500028292],[-113.57353419877433,37.091449604660689],[-113.57299929873503,37.091775007261376],[-113.57259245084452,37.092012780715244],[-113.57196413140559,37.09240246367213],[-113.57124621579682,37.092865292879644],[-113.57021776157748,37.093470245813421],[-113.57007950007549,37.093555399805084],[-113.56991790034239,37.09365499990237],[-113.56966580073431,37.093804299845452],[-113.56937410069358,37.093974999645532],[-113.56914668678951,37.094108280762875],[-113.56914664995858,37.094108302975542],[-113.56794192382262,37.094845410166627],[-113.56703706880323,37.095399037646303],[-113.5668199774401,37.09556812167537],[-113.56593282372339,37.096259086734619],[-113.56593253895744,37.096259310287991],[-113.56512324042977,37.096889632870848],[-113.56494744372192,37.097026552314667],[-113.56493002808352,37.097044008644673],[-113.56400967083727,37.097966523711712],[-113.56400926030717,37.097966934983297],[-113.56377045666362,37.098206296831044],[-113.56267576876009,37.099613601321252],[-113.56267530163613,37.099614201019605],[-113.56235262678608,37.100029021334173],[-113.56227876640511,37.100123972276783],[-113.56227419128535,37.100131678742429],[-113.56227352563374,37.100132800034515],[-113.56155117324579,37.101349650844043],[-113.56154111840281,37.101368594283869],[-113.56154073841546,37.101369307886841],[-113.56089005272256,37.10259505084742],[-113.56087500055166,37.102635899648803],[-113.56077549955752,37.102906199728544],[-113.56069150079024,37.103132699983817],[-113.56070738659774,37.103132384744839],[-113.56069080010433,37.103133099764122],[-113.56068470144186,37.103148300012528],[-113.56067890012176,37.103164400121436],[-113.56064010457959,37.103268446061541],[-113.56032075080113,37.104197847720151],[-113.5600886485896,37.104806497254181],[-113.56008825243255,37.104807539669075],[-113.55978773183404,37.105595601241333],[-113.55978719374316,37.105597009740542],[-113.55953337925123,37.106262587172139],[-113.55943365457659,37.10650317009663],[-113.55943319463917,37.106504282697379],[-113.55914000070013,37.107211603321083],[-113.55904871479926,37.107444216020085],[-113.55908059870363,37.107444359302399],[-113.55904829259107,37.107445292786473],[-113.55851202082432,37.108811798694234],[-113.55839830039756,37.109147500132586],[-113.5582589600189,37.109554173735042],[-113.55825617344487,37.109571013230941],[-113.55824804908147,37.10962008028843],[-113.55818535116622,37.109805608095961],[-113.55786926815371,37.109787578729659],[-113.55780419958442,37.109787999966507],[-113.55779120006393,37.109818200065874],[-113.55778430010423,37.109835199974206],[-113.5577532004291,37.109912099975276],[-113.55774310067036,37.10993619998284],[-113.55773660944411,37.109952391062954],[-113.55756084597395,37.110506762072589],[-113.5574448339449,37.110784311051155],[-113.55732624375098,37.111026907677008],[-113.55706007472894,37.111528704836687],[-113.55657232725889,37.112285113353877],[-113.55603657741332,37.112953268928891],[-113.55473547103054,37.114186772306169],[-113.554199721185,37.114630056241531],[-113.55389835706841,37.114791491228758],[-113.55366920043269,37.114952099931322],[-113.55341750057492,37.115128199836299],[-113.55330380080942,37.115207999929289],[-113.55327999994597,37.115223500048927],[-113.55314320000292,37.115299300015103],[-113.5529583006663,37.115401600049545],[-113.5527135995829,37.115537400069378],[-113.5524750995699,37.115669899696783],[-113.55222510022298,37.115808199951566],[-113.55211280003267,37.115870300205941],[-113.55210160073602,37.11587719991271],[-113.55206770011382,37.115895899748097],[-113.55202700014327,37.115913399723894],[-113.55194080140186,37.115950100233164],[-113.55188930008831,37.115972499898909],[-113.55154390055651,37.116120000135673],[-113.55119540004034,37.116268800220325],[-113.55102340140954,37.116343299722487],[-113.55108390024897,37.11643720013668],[-113.55108819958592,37.116444099791792],[-113.55112960024243,37.116508799786828],[-113.55113320069007,37.116514799730432],[-113.55119380014082,37.116608899786542],[-113.55130520021922,37.116783099730952],[-113.55135430033602,37.116860199693548],[-113.55139460055628,37.116923099932855],[-113.55162900065831,37.117291600017225],[-113.55166820044238,37.11736229988086],[-113.55172410080587,37.117461499774748],[-113.55195530021054,37.117874099911553],[-113.55223410044381,37.118371699974567],[-113.55231189993729,37.118510400007416],[-113.55237110071117,37.118615199908099],[-113.55239410027738,37.118657999880519],[-113.55243489996096,37.118729500013053],[-113.55246380056028,37.118780899869272],[-113.55250810008019,37.118859999865514],[-113.55253990044125,37.118916900123203],[-113.55254130001646,37.118925199924355],[-113.55254380002791,37.118946199770946],[-113.55255039995031,37.11900040022126],[-113.55256840039195,37.119144699857912],[-113.55258970034566,37.119316000119483],[-113.55259150056948,37.11933209965661],[-113.55260060140164,37.119400600011573],[-113.55260890003822,37.11946960028029],[-113.55261710075845,37.11953739997233],[-113.55262540029337,37.119601300086032],[-113.55264910144383,37.119791899875118],[-113.55269205977902,37.120136953244739],[-113.55280698574489,37.121050207740971],[-113.55276568210645,37.121118564717449],[-113.55274930042893,37.121146999677208],[-113.55261090058636,37.121379300249039],[-113.55257340041483,37.1214391002596],[-113.55238929608724,37.121741478278487],[-113.55238910205115,37.121741799886486],[-113.55238907061012,37.121741852174623],[-113.55237657504449,37.121763558204265],[-113.55238801059808,37.121773687061854],[-113.55241079995851,37.121788299804244],[-113.55242760025095,37.121803499889801],[-113.5524658002101,37.121838000011323],[-113.55252560016024,37.12189139974496],[-113.55271540070505,37.122060300006467],[-113.55296560037628,37.122284599893796],[-113.55328169955848,37.122563799675376],[-113.55341720143592,37.122683899881117],[-113.55353686062504,37.122791284023023],[-113.55404477257824,37.123241165923822],[-113.55408133221368,37.123244788060532],[-113.55420260028546,37.123250621297551],[-113.55420304405321,37.123328658705773],[-113.55420709994674,37.123359899861676],[-113.554220093179,37.123375822338723],[-113.55428976022422,37.12343143924528],[-113.55440099860586,37.123537026664948],[-113.55452283081964,37.123680627181599],[-113.55461033840641,37.123773323778721],[-113.55465040057312,37.123811899934992],[-113.55467230060144,37.123832899858542],[-113.55472350008108,37.123881199875434],[-113.55476510016356,37.1239218001149],[-113.55478500144035,37.123947899745744],[-113.55482170031466,37.12399710002159],[-113.55488980069804,37.124087999866191],[-113.55490310025583,37.124123299718072],[-113.55492166843274,37.124172694700761],[-113.55499603456522,37.124314153851074],[-113.55505430198949,37.124428188217401],[-113.55508078791735,37.124573193757186],[-113.55512697389933,37.124706044289667],[-113.55513199278684,37.124751988010857],[-113.55513728925374,37.124863206152078],[-113.55515671262681,37.125015250832732],[-113.55517790029113,37.12517292631609],[-113.55515671262681,37.125241909147242],[-113.55511515566346,37.12534593478248],[-113.55509840028681,37.125418899758067],[-113.55508720009182,37.125442499907336],[-113.55506520035051,37.125489599910239],[-113.55503640036251,37.125551099892633],[-113.55498464392743,37.125652502235177],[-113.55496425217048,37.125696631865395],[-113.55492364113309,37.125806439779026],[-113.55487949971668,37.125972560903506],[-113.55487420235144,37.126033095724246],[-113.55487067107406,37.126120379719623],[-113.55487949971668,37.126218925675403],[-113.55490951602357,37.12632450992286],[-113.55496425217048,37.12643572575346],[-113.55503841079212,37.126520193064479],[-113.555142586619,37.126641263213962],[-113.55525559108847,37.126760925064204],[-113.55534034444059,37.126859470185977],[-113.55548866168387,37.127021364697192],[-113.55566169876717,37.12719170601536],[-113.55578529706881,37.127342339356211],[-113.55590183191732,37.127470445787743],[-113.5559600993416,37.127580251844108],[-113.55603602405111,37.12766894071148],[-113.5560731038111,37.127756222820338],[-113.55610488620584,37.12784068865767],[-113.55611724612584,37.127946270642695],[-113.55612607387015,37.128072970119483],[-113.55614902762228,37.128241900992826],[-113.55618257610489,37.128464326855507],[-113.55623738232038,37.128616602800292],[-113.55632710066105,37.128707999876617],[-113.55643040063052,37.128814899909045],[-113.55643939995304,37.128823500148982],[-113.55648410012157,37.128869800191296],[-113.55648737358247,37.128873104778222],[-113.55649510268718,37.128879612966173],[-113.55673347064783,37.129021795283187],[-113.55673703785779,37.129023454735439],[-113.55676879959131,37.129036299911448],[-113.55696780068125,37.129117100208418],[-113.55699829758684,37.129129428267611],[-113.55707071617178,37.129151307649266],[-113.55716782944388,37.129175238954232],[-113.55729849030027,37.129189316694472],[-113.55747152738356,37.129201985655762],[-113.55760572041565,37.129216062674864],[-113.55779641388584,37.129232957242877],[-113.55796768488129,37.129272372873515],[-113.55811953430027,37.129318828057649],[-113.55834630590893,37.129388731729144],[-113.55866852531312,37.129524796720503],[-113.55892717004636,37.129710386765467],[-113.55930651691276,37.130115934355388],[-113.55974190338151,37.130734559803933],[-113.56009538595423,37.131215709752574],[-113.56039282802627,37.131634994968152],[-113.56072906743711,37.132136758669141],[-113.56094460561312,37.132466685301708],[-113.56120325124468,37.132858469787607],[-113.56141447840562,37.133188393273436],[-113.56156104393413,37.133422086355495],[-113.56185417499111,37.133886035645034],[-113.56222921084246,37.134449645275055],[-113.56244370068453,37.134769393885222],[-113.56263086377565,37.135025584250883],[-113.56287982556844,37.135419718771679],[-113.56308817632386,37.135723764694838],[-113.56339187426354,37.136179831646814],[-113.5635931615659,37.136495135763305],[-113.56382270178223,37.136821699765115],[-113.56395336263863,37.137030024846432],[-113.56421821562878,37.137415704346729],[-113.56444245758159,37.137770415949156],[-113.56458018189106,37.137988590114617],[-113.56471790530222,37.138226471280035],[-113.56486269126812,37.138474203330723],[-113.56500218076714,37.138706450720164],[-113.56515403018612,37.138948551832563],[-113.56526879894683,37.139148425239689],[-113.56535531838679,37.139334222268509],[-113.56545419684844,37.139501720133509],[-113.56555837177699,37.139700184214384],[-113.56565901632646,37.139881757736205],[-113.56576319125502,37.140077405820676],[-113.56581172543319,37.140232762694346],[-113.5658983005687,37.140230499814656],[-113.56665320071603,37.140215400103678],[-113.56673980010605,37.140210799868619],[-113.56748960141582,37.140196999877908],[-113.57091760038779,37.14012119978041],[-113.57480690042783,37.140031699840506],[-113.5752762072817,37.140021079315218],[-113.5752762414177,37.140021079315218],[-113.5799110685834,37.139905023967259],[-113.58004832666724,37.139901586666703],[-113.58005463643379,37.139901429123753],[-113.58187721304238,37.192075199741318],[-113.58132560883038,37.192507734723534],[-113.58132025487127,37.192511933899524],[-113.58136404774137,37.192581090029279],[-113.58138892658316,37.1926203788979],[-113.58143097761993,37.192694074721778],[-113.58149097519944,37.192837219050702],[-113.58153790678315,37.193000221763874],[-113.58154960913635,37.193060815999175],[-113.58156418879342,37.193136308264968],[-113.58158296088791,37.193314264908615],[-113.58160173388073,37.193499699117829],[-113.58162238435247,37.19365821505076],[-113.58162238435247,37.193846638879812],[-113.58163177084887,37.193946833328262],[-113.58163364742951,37.194124787345984],[-113.58162474063346,37.19429210514415],[-113.58162445586751,37.194319738327906],[-113.5816264240763,37.194356586850645],[-113.58163085277064,37.194390691790467],[-113.58163642591866,37.194450310279564],[-113.58164723893977,37.194522090122341],[-113.58165564896744,37.194592913158012],[-113.58167246992114,37.194701061061927],[-113.5816856859356,37.194801552775175],[-113.58169890195008,37.194906828744557],[-113.58173267411317,37.195149610732578],[-113.58175613990502,37.195343547239332],[-113.58177960569688,37.195544490180538],[-113.5817884055934,37.195773471685328],[-113.58180165484552,37.195956411090542],[-113.58180600358982,37.196016471998355],[-113.58182947117828,37.196252461800803],[-113.5818353371771,37.196460412748159],[-113.58183691911032,37.196496918900095],[-113.58184953415184,37.196788085903457],[-113.58186455218677,37.197103608102552],[-113.58188707923914,37.197298004704194],[-113.58190022069344,37.197369781839484],[-113.58191148466879,37.197429596185998],[-113.58194339821758,37.197528289646847],[-113.58198469826277,37.197625486747881],[-113.58209357856677,37.197804929753005],[-113.58219119759038,37.19792904423678],[-113.58222478559885,37.197967759310103],[-113.58226049902129,37.198008925135639],[-113.58230007969101,37.19804867128061],[-113.58237141670438,37.198109981310374],[-113.58242773478446,37.198166803346041],[-113.58250094837844,37.198223626054386],[-113.58260419804225,37.198278953933354],[-113.58276188920554,37.198355215922703],[-113.58291837932128,37.198426811734194],[-113.58293675076717,37.198438002934012],[-113.58297965340684,37.19846413623948],[-113.58301921970352,37.198497404277774],[-113.58302290459281,37.198500503321483],[-113.58306856056879,37.198560794758571],[-113.58306863692562,37.198560934290562],[-113.58309379244851,37.198606732251854],[-113.58311301459896,37.198674679247894],[-113.58312983465434,37.19874262689828],[-113.58313223764772,37.198814402660005],[-113.58311301459896,37.198912018130223],[-113.58308778541421,37.198983793730889],[-113.58302651043036,37.199076622710059],[-113.58290636435437,37.19921730277396],[-113.58280063623869,37.1993321436671],[-113.58261200799534,37.199522586898567],[-113.58253400817752,37.199607881308424],[-113.58250627987964,37.199632641806069],[-113.58245401679473,37.199699511709774],[-113.58238831221821,37.199787736043767],[-113.58233011665918,37.199896893282592],[-113.58230195716996,37.199953714688682],[-113.58226065712478,37.200056891250703],[-113.58220621742191,37.200191468136538],[-113.58209921190191,37.200442679255538],[-113.58203162984645,37.200592207872603],[-113.58196592526996,37.200756690011005],[-113.58190022069344,37.20094808702224],[-113.58186455218677,37.201073690353937],[-113.58180072508921,37.201233685827674],[-113.58173314303373,37.201381718868035],[-113.58169935200601,37.201463958764037],[-113.5816486645661,37.201583580921486],[-113.58159279474533,37.201702221197493],[-113.58150113155206,37.201906653246169],[-113.58145248957605,37.202037156980936],[-113.58141405066503,37.202140287764259],[-113.58130863695972,37.202381222648285],[-113.58121239056184,37.202600254994543],[-113.58112939611107,37.202786046330026],[-113.58110789403642,37.202834180008502],[-113.58104629565906,37.202972023239894],[-113.58099643017765,37.203095848034145],[-113.58092016590497,37.203273407707954],[-113.58084390163231,37.203436950272973],[-113.58080283694572,37.203542083263137],[-113.58078523715267,37.20363787167075],[-113.58078817015206,37.20373599606291],[-113.58080870294452,37.203841129352021],[-113.58084390163231,37.203925236164082],[-113.58089963311254,37.204018687988018],[-113.58099936407537,37.204121484789184],[-113.58109616024218,37.204235963335528],[-113.58132495306019,37.20445323734203],[-113.58156547877418,37.204682191108198],[-113.58180600358982,37.204934507735814],[-113.5819731998271,37.205114399863014],[-113.58208432681765,37.205216526192814],[-113.58216386005964,37.205289618729985],[-113.58234278829457,37.205483527039824],[-113.58252758342661,37.205665753904803],[-113.58267808267775,37.205836094066925],[-113.58269477696898,37.205854989167285],[-113.58277476835177,37.205938089918412],[-113.58289717009744,37.206065249695506],[-113.58311423001953,37.206270838298174],[-113.58325795866837,37.20641801934601],[-113.58335768963121,37.206504459306814],[-113.58348675058808,37.20662127025544],[-113.58358941544863,37.206733408281174],[-113.58360634779342,37.206765934308876],[-113.58360968413641,37.206772341350167],[-113.58363928003173,37.206829191922893],[-113.58366818332603,37.206852212174923],[-113.58368914641149,37.206868907666511],[-113.5838131857859,37.207085596710392],[-113.58382192729194,37.207125546276941],[-113.58382220037977,37.207126793336691],[-113.5838367710537,37.207193378999833],[-113.58800925959716,37.226259571702592],[-113.58836548203152,37.22788710732879],[-113.58836499604296,37.228307216034011],[-113.58836487207542,37.228414259893512],[-113.58831367888402,37.272628849349573],[-113.58761397302438,37.272630936699713],[-113.51282901272072,37.272854151302241],[-113.49941860193493,37.284578047257661],[-113.49941808989523,37.284578493965462],[-113.47817681695506,37.303144691758703],[-113.4569355440149,37.321706307034198],[-113.43569427107474,37.340263338975419],[-113.41445299813456,37.35881578676797],[-113.3932117251944,37.377363649599602],[-113.37197045225426,37.395906926660146],[-113.35072917931409,37.414445617141588],[-113.32948790637393,37.432979720238009],[-113.32948784528848,37.43297977373706],[-113.32557591129654,37.436392636917077],[-113.32727077981109,37.480357599847977],[-113.32728540887548,37.480736997675621],[-113.32724068085916,37.481287885788888],[-113.32724067816422,37.481287922144773],[-113.32704627465189,37.483682239344233],[-113.32704626207548,37.483682393317054],[-113.32676409765149,37.487157477696122],[-113.32672227209184,37.487672587286767]]]},"properties":{"OBJECTID":3,"Shape_Length":286132.64019764267,"Shape_Area":4167866299.8825617}}]}