{"type":"FeatureCollection","features":[{"type":"Feature","id":2,"geometry":{"type":"MultiPolygon","coordinates":[[[[-113.58500899999996,37.077785600000027],[-113.58498689999999,37.078115100000048],[-113.58494789999997,37.078469000000041],[-113.58491699999996,37.078714600000069],[-113.58489219999996,37.078917300000057],[-113.58487949999994,37.079012600000055],[-113.58486669999996,37.079120600000067],[-113.58483919999998,37.07925380000006],[-113.58478389999999,37.079436300000054],[-113.58476049999996,37.079513300000031],[-113.58473969999994,37.079581000000076],[-113.58472859999995,37.079618500000038],[-113.58469719999999,37.07972170000005],[-113.58465299999995,37.079868500000032],[-113.58462449999996,37.079961600000047],[-113.58459129999994,37.080071500000031],[-113.58456149999995,37.080169400000045],[-113.58452089999997,37.080305000000067],[-113.58450649999997,37.080351500000063],[-113.58447599999994,37.080453200000079],[-113.58445319999998,37.080525900000055],[-113.58443639999996,37.080582400000026],[-113.58442909999997,37.080608600000062],[-113.58439889999994,37.08070680000003],[-113.58437709999998,37.080779200000052],[-113.58435259999999,37.08086030000004],[-113.58430869999995,37.080966500000045],[-113.58426339999994,37.081076100000075],[-113.58422119999994,37.081178900000054],[-113.58419169999996,37.081250800000078],[-113.58416719999997,37.081309600000054],[-113.58412599999997,37.081411800000069],[-113.58410489999994,37.081462400000078],[-113.58407609999995,37.081531600000062],[-113.58404959999996,37.081595600000071],[-113.58403289999995,37.081637000000057],[-113.58402279999996,37.081661100000076],[-113.58401799999996,37.081674500000076],[-113.58399219999995,37.081736000000035],[-113.58395629999995,37.081823000000043],[-113.58394159999995,37.081859100000031],[-113.58392849999996,37.081890600000065],[-113.58387049999999,37.08202220000004],[-113.58377359999997,37.082227100000068],[-113.58369179999994,37.082399400000043],[-113.58363719999994,37.082515400000034],[-113.58360199999998,37.082590300000049],[-113.58355839999996,37.082683400000064],[-113.58351379999999,37.082777600000043],[-113.58342659999994,37.082963200000052],[-113.58337699999998,37.083069100000046],[-113.58331129999999,37.083209300000078],[-113.58324419999997,37.083345100000031],[-113.58321739999997,37.083400800000049],[-113.58315969999995,37.083484200000044],[-113.58306049999999,37.083628700000077],[-113.58298669999999,37.083739900000069],[-113.58292499999999,37.083831900000064],[-113.58306449999998,37.084068400000035],[-113.58323079999997,37.08436370000004],[-113.58354729999996,37.084915700000067],[-113.58372969999999,37.085232400000052],[-113.58401399999997,37.085716000000048],[-113.58423399999998,37.086049700000046],[-113.58457729999998,37.08658470000006],[-113.58471939999998,37.086797900000079],[-113.58473989999999,37.086786700000062],[-113.58487759999997,37.086744000000067],[-113.58498459999998,37.08671060000006],[-113.58507079999998,37.086684300000059],[-113.58520819999995,37.086649600000044],[-113.58539619999999,37.086601900000062],[-113.58557929999995,37.086556200000075],[-113.58566839999997,37.086532900000066],[-113.58577569999994,37.086505900000077],[-113.58579619999995,37.086499700000047],[-113.58598089999998,37.086445000000026],[-113.58615259999999,37.086394600000062],[-113.58631339999994,37.086347700000033],[-113.58638009999999,37.086327600000061],[-113.58644779999997,37.086303000000044],[-113.58652729999994,37.086274900000035],[-113.58662989999999,37.086230300000068],[-113.58670189999998,37.086199800000031],[-113.58675729999999,37.086171700000079],[-113.58682229999994,37.086139900000035],[-113.58686219999998,37.086120400000027],[-113.58694009999999,37.08606960000003],[-113.58705719999995,37.085993300000041],[-113.58708899999999,37.085972200000072],[-113.58717949999999,37.085895200000039],[-113.58726099999996,37.085825600000078],[-113.58728979999995,37.085795400000052],[-113.58737699999995,37.085706900000048],[-113.58743989999999,37.085624600000074],[-113.58750759999998,37.08553610000007],[-113.58758669999997,37.085404500000038],[-113.58760209999997,37.085366000000079],[-113.58764939999998,37.085242700000038],[-113.58768659999998,37.085130400000025],[-113.58769369999999,37.085084800000061],[-113.58770239999996,37.085026200000073],[-113.58771379999996,37.084947600000078],[-113.58771439999998,37.08494120000006],[-113.58771879999995,37.084786800000074],[-113.58772349999998,37.084617300000048],[-113.58772819999996,37.084429800000066],[-113.58773349999996,37.084217700000067],[-113.58773819999999,37.084024000000056],[-113.58774289999997,37.083838900000046],[-113.58774829999999,37.083637500000066],[-113.58775329999997,37.08342870000007],[-113.58776979999999,37.083235100000024],[-113.58778819999998,37.083111000000031],[-113.58780299999995,37.083013900000026],[-113.58783519999997,37.082867900000053],[-113.58785669999997,37.082770000000039],[-113.58788949999996,37.082682800000043],[-113.58794019999999,37.082549100000051],[-113.58794519999998,37.082534300000077],[-113.58799579999999,37.082375900000045],[-113.58802099999997,37.082293500000048],[-113.58805629999995,37.082174100000032],[-113.58808949999997,37.082056700000066],[-113.58811229999998,37.081975900000032],[-113.58812169999999,37.081916000000035],[-113.58813679999997,37.08181970000004],[-113.58815989999999,37.081672300000037],[-113.58817069999998,37.081596800000057],[-113.58818209999998,37.081515800000034],[-113.58818379999997,37.081492800000035],[-113.58819179999995,37.081382400000052],[-113.58819789999995,37.081296000000066],[-113.58819729999999,37.081200000000024],[-113.58819599999998,37.081029000000058],[-113.58819529999994,37.080968600000062],[-113.58818289999999,37.080883300000039],[-113.58816109999998,37.08073980000006],[-113.58814559999996,37.080637100000047],[-113.58812229999995,37.080479900000057],[-113.58810959999994,37.080395700000054],[-113.58810119999998,37.080332600000077],[-113.58809589999998,37.080259700000056],[-113.58809179999997,37.080203500000039],[-113.58809219999995,37.080159300000048],[-113.58809289999999,37.080132900000024],[-113.58809449999995,37.080071300000043],[-113.58809489999999,37.080046700000025],[-113.58809589999998,37.080036300000074],[-113.58810059999996,37.080001000000038],[-113.58810999999997,37.07993440000007],[-113.58812639999996,37.079814700000043],[-113.58813749999996,37.079735800000037],[-113.58814189999998,37.079710700000078],[-113.58815019999997,37.079672500000072],[-113.58817269999997,37.079559800000027],[-113.58818849999994,37.07948470000008],[-113.58820289999994,37.079414300000053],[-113.58820929999996,37.079384400000038],[-113.58822799999996,37.079336200000057],[-113.58824709999999,37.07928830000003],[-113.58826389999996,37.079246600000033],[-113.58830929999999,37.079131300000029],[-113.58835649999997,37.079013300000042],[-113.58837999999997,37.078961200000037],[-113.58845529999996,37.07879900000006],[-113.58848279999995,37.078738900000076],[-113.58852509999997,37.07863320000007],[-113.58856129999998,37.078542600000048],[-113.58859009999998,37.078471400000069],[-113.58859449999994,37.078454300000033],[-113.58860149999998,37.078423800000053],[-113.58864959999994,37.078384100000051],[-113.58873259999996,37.07831630000004],[-113.58881239999994,37.078251600000044],[-113.58883319999995,37.078234500000065],[-113.58897669999999,37.07811780000003],[-113.58904479999995,37.07806190000008],[-113.58915109999998,37.077975000000038],[-113.58920369999998,37.077932200000078],[-113.58927409999995,37.077874700000052],[-113.58929049999995,37.077868500000079],[-113.58942759999996,37.077817400000072],[-113.58954689999996,37.077772700000025],[-113.58962969999999,37.077742200000046],[-113.58973519999995,37.077703500000041],[-113.58974759999995,37.077703000000042],[-113.58984179999999,37.077703500000041],[-113.59014809999996,37.07770540000007],[-113.59042799999997,37.077706800000044],[-113.59053679999994,37.077707100000055],[-113.59054109199997,37.077707149000048],[-113.59060609999995,37.077761700000053],[-113.59067519999996,37.077766000000054],[-113.59103089999996,37.07778710000008],[-113.59115229999998,37.077794100000062],[-113.59131799999994,37.077821200000074],[-113.59138499999995,37.077832200000046],[-113.59153639999994,37.077869000000078],[-113.59161219999999,37.077888500000029],[-113.59171059999994,37.07791700000007],[-113.59175779999998,37.077930300000048],[-113.59172729999995,37.077896100000032],[-113.59168109999996,37.077845800000034],[-113.59163249999995,37.077768800000058],[-113.59158829999996,37.077644500000076],[-113.59155339999995,37.077544400000079],[-113.59153929999997,37.077480800000046],[-113.59152389999997,37.077402100000029],[-113.59149709999997,37.077275900000075],[-113.59149169999995,37.077251300000057],[-113.59148099999999,37.077153900000042],[-113.59147229999996,37.077053900000067],[-113.59157959999999,37.077035100000046],[-113.59190949999999,37.07697950000005],[-113.59230239999999,37.076912600000071],[-113.59250689999999,37.076876800000036],[-113.59261269999996,37.076857600000039],[-113.59270959999998,37.07684050000006],[-113.59270449999997,37.076788800000031],[-113.59269979999999,37.076747100000034],[-113.59268709999998,37.076677300000028],[-113.59268309999999,37.076652400000057],[-113.59266699999995,37.076564700000063],[-113.59266329999997,37.076542200000063],[-113.59265589999995,37.076500800000076],[-113.59264819999999,37.076453900000047],[-113.59264149999996,37.076396200000033],[-113.59255299999995,37.075606100000073],[-113.59252219999996,37.075328400000046],[-113.59250869999994,37.075204700000029],[-113.59251739999996,37.075151700000049],[-113.59255969999998,37.074911400000076],[-113.59259219999996,37.074731600000064],[-113.59259789999999,37.074723100000028],[-113.59264619999999,37.074653800000078],[-113.59272199999998,37.074544700000047],[-113.59276159999996,37.074487400000066],[-113.59285939999995,37.074347100000068],[-113.59294459999995,37.07429280000008],[-113.59300649999994,37.074253100000078],[-113.59310349999998,37.07419120000003],[-113.59313769999994,37.07417490000006],[-113.59325909999995,37.074114900000041],[-113.59328019999998,37.074104500000033],[-113.59333249999997,37.074078600000064],[-113.59358799999995,37.07398390000003],[-113.59364229999994,37.073963800000058],[-113.59364929999998,37.073964600000068],[-113.59388929999994,37.073994900000059],[-113.59396409999999,37.074004000000059],[-113.59410269999995,37.07402170000006],[-113.59445449999998,37.074066500000072],[-113.59469409999997,37.074096800000063],[-113.59493609999998,37.074110200000064],[-113.59509319999995,37.074119200000041],[-113.59530649999999,37.074131500000078],[-113.59550949999999,37.074143000000049],[-113.59572209999999,37.074153200000069],[-113.59588369999994,37.07416070000005],[-113.59602489999997,37.074167100000068],[-113.59607199999999,37.074341700000048],[-113.59607869999996,37.074366100000077],[-113.59609919999997,37.074441200000024],[-113.59610959999998,37.074455400000033],[-113.59619339999995,37.074568000000056],[-113.59626879999996,37.074669700000072],[-113.59636009999997,37.074792500000058],[-113.59645429999995,37.074915900000065],[-113.59655159999994,37.07503550000007],[-113.59663109999997,37.075132600000074],[-113.59669669999994,37.075212700000066],[-113.59681009999997,37.075351300000079],[-113.59691199999997,37.075476800000047],[-113.59697449999999,37.075553300000024],[-113.59698159999999,37.075565600000061],[-113.59705829999996,37.07570000000004],[-113.59711389999995,37.075799800000027],[-113.59714509999998,37.075908100000049],[-113.59717929999999,37.07602630000008],[-113.59719639999997,37.076085400000068],[-113.59720039999996,37.076133300000038],[-113.59720509999994,37.076181700000063],[-113.59721179999997,37.076257100000078],[-113.59738789999994,37.076264600000059],[-113.59773919999998,37.076287100000059],[-113.59803289999996,37.076340600000037],[-113.59830519999997,37.076400500000034],[-113.59874099999996,37.076534300000048],[-113.59915679999995,37.07668300000006],[-113.59974099999994,37.076902100000041],[-113.60015719999996,37.077067000000056],[-113.60041199999995,37.077186300000051],[-113.60061179999997,37.077279300000043],[-113.60079219999994,37.07736390000008],[-113.60099999999994,37.077487500000075],[-113.60125619999997,37.077639900000065],[-113.60133529999996,37.077689100000043],[-113.60168689999995,37.077914600000042],[-113.60193499999997,37.078068200000075],[-113.60227299999997,37.07827270000007],[-113.60255589999997,37.078465300000062],[-113.60267729999998,37.078547700000058],[-113.60286639999998,37.078697500000033],[-113.60298309999996,37.078814100000045],[-113.60317889999999,37.079006200000038],[-113.60325059999997,37.079099300000053],[-113.60339139999996,37.079290200000059],[-113.60352389999997,37.079469800000027],[-113.60354339999998,37.079498200000046],[-113.60359229999995,37.079588600000079],[-113.60366679999998,37.079729800000052],[-113.60367879999995,37.079753900000071],[-113.60372779999994,37.079880100000025],[-113.60377199999999,37.079994100000079],[-113.60380959999998,37.080119300000035],[-113.60383639999998,37.080218800000068],[-113.60389139999995,37.08041030000004],[-113.60394909999997,37.080614600000047],[-113.60405429999997,37.080971800000043],[-113.60407879999997,37.081053600000075],[-113.60417429999995,37.081041300000038],[-113.60491299999995,37.08094820000008],[-113.60494749999998,37.080944100000067],[-113.60554749999994,37.080869100000029],[-113.60558099999997,37.080864800000029],[-113.60647659999995,37.080769600000053],[-113.60654029999995,37.080762700000037],[-113.60708919999996,37.080704100000048],[-113.60772449999996,37.080636000000027],[-113.60812139999996,37.080593700000065],[-113.60830009999995,37.080574200000058],[-113.60836659999995,37.080735400000037],[-114.05159859999998,37.078281900000036],[-114.05127999999996,37.044143900000051],[-114.05093669999997,37.028248500000075],[-114.05058679999996,37.001854800000046],[-114.05057269999998,37.000727900000072],[-114.05056759999997,37.000398500000074],[-114.05056669999999,37.000400800000079],[-114.05019389999995,37.000416800000039],[-114.05004779999996,37.00042110000004],[-114.04729479999997,37.000430000000051],[-114.03590759999997,37.000479400000074],[-114.02530789999997,37.000538600000027],[-114.02222309999996,37.000504500000034],[-114.01786729999998,37.000401700000054],[-114.01757229999998,37.000448800000072],[-114.00192429999998,37.000444500000071],[-114.00093719999995,37.000495900000033],[-113.99814769999995,37.000427400000035],[-113.97922209999996,37.000187500000038],[-113.62254849999999,36.999983100000065],[-113.62250289999997,37.000070400000027],[-113.62245129999997,37.000170600000047],[-113.62241439999997,37.000243900000044],[-113.62231799999995,37.000432600000067],[-113.62211389999999,37.000833100000079],[-113.62192949999996,37.00119310000008],[-113.62172069999997,37.001601300000061],[-113.62167039999997,37.001698200000078],[-113.62153659999996,37.001975000000073],[-113.62086989999995,37.003271700000028],[-113.62033639999999,37.004271900000049],[-113.61977919999998,37.005324400000063],[-113.61977219999994,37.005390000000034],[-113.61977149999996,37.005404400000032],[-113.61976729999998,37.00543950000008],[-113.61963089999995,37.005614500000036],[-113.61941109999998,37.005895900000041],[-113.61934139999994,37.005984500000068],[-113.61933269999997,37.005997100000059],[-113.61924829999998,37.00612650000005],[-113.61902819999995,37.006462900000031],[-113.61876099999995,37.006872800000053],[-113.61870429999999,37.00695950000005],[-113.61848069999996,37.007302100000061],[-113.61837379999997,37.007465100000047],[-113.61818759999994,37.007749900000078],[-113.61806019999995,37.007945800000073],[-113.61796079999999,37.00809780000003],[-113.61774089999994,37.008434400000056],[-113.61759419999998,37.008659400000056],[-113.61744179999994,37.008892900000035],[-113.61740559999998,37.008948000000032],[-113.61728699999998,37.009129400000063],[-113.61708789999994,37.009435200000041],[-113.61704459999999,37.009501900000032],[-113.61688989999999,37.009737600000051],[-113.61676199999999,37.009933900000078],[-113.61656409999995,37.01023710000004],[-113.61640459999995,37.010481000000027],[-113.61618969999995,37.010810200000037],[-113.61615249999994,37.010868000000073],[-113.61599869999998,37.011094900000046],[-113.61593199999999,37.011193700000035],[-113.61582709999999,37.011348800000064],[-113.61575769999996,37.011450800000034],[-113.61559279999994,37.011694800000043],[-113.61553239999995,37.011784200000079],[-113.61537119999997,37.012040700000057],[-113.61496229999995,37.01269300000007],[-113.61468379999997,37.013138100000049],[-113.61464289999998,37.013202900000067],[-113.61439519999999,37.013598000000059],[-113.61431469999997,37.013726500000075],[-113.61423219999995,37.013858700000071],[-113.61413089999996,37.01402070000006],[-113.61399909999994,37.01423090000003],[-113.61383739999997,37.014488000000028],[-113.61378209999998,37.014577100000054],[-113.61368769999996,37.014728300000058],[-113.61350159999995,37.01502430000005],[-113.61339909999998,37.015185600000052],[-113.61327879999999,37.01537170000006],[-113.61322639999997,37.015451700000028],[-113.61317949999994,37.015524000000028],[-113.61305879999998,37.015709400000048],[-113.61282509999995,37.016070300000024],[-113.61269829999998,37.016265700000076],[-113.61251479999999,37.01654700000006],[-113.61240149999998,37.016723700000057],[-113.61210249999999,37.017184500000042],[-113.61194129999996,37.017432400000075],[-113.61188689999994,37.017516200000046],[-113.61180239999999,37.017647200000056],[-113.61175469999995,37.017720500000053],[-113.61170609999999,37.017793900000072],[-113.61156129999995,37.018017200000031],[-113.61140869999997,37.018253000000072],[-113.61125669999996,37.018487500000049],[-113.61109869999996,37.018730900000037],[-113.61090209999998,37.019034800000043],[-113.61082129999994,37.019156300000077],[-113.61069239999995,37.019363400000032],[-113.61060919999994,37.019497300000069],[-113.61057369999997,37.019554600000049],[-113.61051129999998,37.019654400000036],[-113.61045569999999,37.019744100000025],[-113.61013599999995,37.020256900000049],[-113.60984609999997,37.020723000000032],[-113.60956199999998,37.021180100000038],[-113.60922129999994,37.021726300000068],[-113.60900919999995,37.022065600000076],[-113.60856269999999,37.02275510000004],[-113.60808689999999,37.023486400000024],[-113.60801789999999,37.023590800000079],[-113.60753509999995,37.02433220000006],[-113.60713979999997,37.024939200000063],[-113.60675389999994,37.025531800000067],[-113.60652839999995,37.025877300000047],[-113.60625999999996,37.026288600000044],[-113.60599439999999,37.026697400000046],[-113.60572439999999,37.027116400000068],[-113.60535939999994,37.027690000000064],[-113.60534459999997,37.027713000000062],[-113.60518969999998,37.02795720000006],[-113.60517019999998,37.02798990000008],[-113.60456919999996,37.028934400000026],[-113.60416039999996,37.02957820000006],[-113.60403429999997,37.029778400000055],[-113.60363059999997,37.030415700000049],[-113.60347769999998,37.030650200000025],[-113.60319829999997,37.031084600000042],[-113.60298369999998,37.031411100000071],[-113.60260279999994,37.031990300000075],[-113.60222669999996,37.032566300000042],[-113.60200019999996,37.032914300000073],[-113.60194519999999,37.032998600000042],[-113.60170799999997,37.033362100000033],[-113.60165449999994,37.03344450000003],[-113.60146209999999,37.033739400000059],[-113.60131589999997,37.033962400000064],[-113.60128679999997,37.034007900000063],[-113.60120389999997,37.03413450000005],[-113.60107899999997,37.034332900000038],[-113.60094219999996,37.034547600000053],[-113.60089329999994,37.034623400000044],[-113.60078169999997,37.034800400000051],[-113.60064429999994,37.03501650000004],[-113.60049279999998,37.035248900000056],[-113.60040989999999,37.035374200000035],[-113.60029989999998,37.03553880000004],[-113.60027239999994,37.035580300000049],[-113.60019869999996,37.035691200000031],[-113.60005189999998,37.035912400000029],[-113.59988949999996,37.03615590000004],[-113.59984699999995,37.036219600000038],[-113.59972509999994,37.036402800000076],[-113.59967309999996,37.036481000000038],[-113.59961829999997,37.036563700000045],[-113.59948249999997,37.036766000000057],[-113.59930749999995,37.037030600000037],[-113.59912659999998,37.037301600000035],[-113.59905089999995,37.037416700000051],[-113.59902139999997,37.03746220000005],[-113.59897839999996,37.037519000000032],[-113.59870669999998,37.037828600000068],[-113.59856659999997,37.037987100000066],[-113.59807929999994,37.038531600000056],[-113.59799149999998,37.038625300000035],[-113.59774409999994,37.038887100000068],[-113.59763809999998,37.038984000000028],[-113.59749329999994,37.039117800000042],[-113.59681069999999,37.03973940000003],[-113.59616509999995,37.040329700000029],[-113.59544539999996,37.040985800000044],[-113.59472239999997,37.041646200000059],[-113.59404949999998,37.042260700000043],[-113.59386979999999,37.042423900000074],[-113.59371209999995,37.042569100000037],[-113.59328119999998,37.042969800000037],[-113.59286339999994,37.043357700000058],[-113.59251799999998,37.043692200000066],[-113.59235239999998,37.043851800000027],[-113.59225379999998,37.043947600000024],[-113.59216939999999,37.044030500000076],[-113.59200239999996,37.044192200000055],[-113.59187299999996,37.044316400000071],[-113.59181929999994,37.044389700000067],[-113.59176429999997,37.044463000000064],[-113.59169799999995,37.044549200000063],[-113.59163759999996,37.044630000000041],[-113.59156719999999,37.044723100000056],[-113.59142579999997,37.044912000000068],[-113.59124409999998,37.045154500000024],[-113.59116699999998,37.045256700000039],[-113.59098649999999,37.045496700000058],[-113.59083309999994,37.045699900000045],[-113.59064929999994,37.045948200000055],[-113.59062789999996,37.045983000000035],[-113.59051169999998,37.046173300000078],[-113.59037309999997,37.046404500000051],[-113.59023089999994,37.046640000000025],[-113.59007079999998,37.046905200000026],[-113.58987809999996,37.047226200000068],[-113.58983919999997,37.047288800000047],[-113.58974869999997,37.04745470000006],[-113.58969769999999,37.047570300000075],[-113.58950329999999,37.048019900000043],[-113.58925649999998,37.048573200000078],[-113.58917199999996,37.048767000000055],[-113.58905399999998,37.049036700000045],[-113.58904329999996,37.049072000000024],[-113.58897349999995,37.049300000000073],[-113.58891589999996,37.049483000000066],[-113.58882469999998,37.04978600000004],[-113.58872409999998,37.050110300000028],[-113.58866419999998,37.05032790000007],[-113.58859979999994,37.050581500000078],[-113.58853809999999,37.050818100000072],[-113.58847909999997,37.051060000000064],[-113.58843089999999,37.051294400000074],[-113.58837639999996,37.051556900000037],[-113.58830029999996,37.051906900000063],[-113.58817689999995,37.052488000000039],[-113.58809909999997,37.052854100000047],[-113.58799989999994,37.053314300000068],[-113.58797849999996,37.053408700000034],[-113.58795629999997,37.053508800000031],[-113.58793289999994,37.053620300000034],[-113.58791639999998,37.053694700000051],[-113.58789509999997,37.053793800000051],[-113.58787629999995,37.053875700000049],[-113.58779519999996,37.054190900000037],[-113.58769999999998,37.054564700000071],[-113.58760129999996,37.054952700000058],[-113.58751939999996,37.055272700000046],[-113.58749189999997,37.055381100000034],[-113.58745279999999,37.055488100000048],[-113.58737719999999,37.055692700000066],[-113.58734429999998,37.055782300000033],[-113.58729969999996,37.055880900000034],[-113.58726219999994,37.055963600000041],[-113.58719779999996,37.05610530000007],[-113.58715859999995,37.056190700000059],[-113.58713209999996,37.056249800000046],[-113.58711899999997,37.056276000000025],[-113.58699329999996,37.056472700000029],[-113.58690009999998,37.056619100000034],[-113.58686319999998,37.056676300000049],[-113.58677189999997,37.05678290000003],[-113.58674909999996,37.056809100000066],[-113.58667869999999,37.056891600000029],[-113.58650679999994,37.057091100000036],[-113.58640859999997,37.057212500000048],[-113.58629059999998,37.057361000000071],[-113.58618309999997,37.057495500000073],[-113.58609059999998,37.05761160000003],[-113.58584939999997,37.057882300000074],[-113.58551799999998,37.058231500000034],[-113.58531779999998,37.058443100000034],[-113.58525839999999,37.058505700000069],[-113.58524939999995,37.058515400000033],[-113.58515379999994,37.058646700000054],[-113.58510689999997,37.058711500000072],[-113.58495499999998,37.058921000000055],[-113.58482309999999,37.059102000000053],[-113.58478049999997,37.05916140000005],[-113.58472619999998,37.059236000000055],[-113.58465679999995,37.059332100000063],[-113.58462389999994,37.059389300000078],[-113.58455079999999,37.059517500000027],[-113.58448289999995,37.059636900000044],[-113.58441649999997,37.059752700000047],[-113.58437399999997,37.059829000000036],[-113.58435749999995,37.059857900000054],[-113.58433839999998,37.059891600000071],[-113.58432969999996,37.059917000000041],[-113.58429589999997,37.060017500000072],[-113.58424629999996,37.060162700000035],[-113.58420799999999,37.060275200000035],[-113.58415079999997,37.060443400000054],[-113.58411729999995,37.060542400000031],[-113.58410619999995,37.060575300000039],[-113.58409649999999,37.060625300000027],[-113.58406739999998,37.060776200000078],[-113.58403229999999,37.060955600000057],[-113.58399989999998,37.061124500000062],[-113.58397339999999,37.061260400000037],[-113.58396099999999,37.061326200000053],[-113.58395699999994,37.061347100000035],[-113.58395659999996,37.061368200000061],[-113.58395459999997,37.061475500000029],[-113.58395329999996,37.06156320000008],[-113.58394419999996,37.062014000000033],[-113.58394089999996,37.062177800000029],[-113.58393919999997,37.062271700000053],[-113.58394019999997,37.062371300000052],[-113.58394049999998,37.06243980000005],[-113.58394019999997,37.062529700000027],[-113.58394049999998,37.062653600000033],[-113.58394129999999,37.062743300000079],[-113.58394129999999,37.062840200000039],[-113.58394159999995,37.062881100000027],[-113.58394189999996,37.06293480000005],[-113.58394189999996,37.063016600000026],[-113.58394159999995,37.063072000000034],[-113.58394189999996,37.06312500000007],[-113.58394229999999,37.063149300000077],[-113.58394229999999,37.063212700000065],[-113.58394229999999,37.063268900000025],[-113.58395099999996,37.063362200000029],[-113.58396909999999,37.063556000000062],[-113.58398819999996,37.063768000000039],[-113.58400359999996,37.063932700000066],[-113.58401229999998,37.064025300000026],[-113.58402569999998,37.064171800000054],[-113.58403769999995,37.064304700000037],[-113.58405139999996,37.064451800000029],[-113.58406589999998,37.064607800000033],[-113.58407519999997,37.064712400000076],[-113.58408309999999,37.064807600000051],[-113.58408649999996,37.064848900000072],[-113.58409049999995,37.06489520000008],[-113.58409419999998,37.064940400000069],[-113.58410119999996,37.065024600000072],[-113.58410629999997,37.065081900000052],[-113.58411089999998,37.065140000000042],[-113.58413469999999,37.065417800000034],[-113.58414949999997,37.065587300000061],[-113.58416859999994,37.065815300000054],[-113.58420689999997,37.066261100000077],[-113.58423399999998,37.066576800000064],[-113.58425879999999,37.066871000000049],[-113.58428809999998,37.067211400000076],[-113.58430619999996,37.067418100000054],[-113.58433569999994,37.06776560000003],[-113.58437429999998,37.068217200000049],[-113.58440259999998,37.068530000000067],[-113.58441199999999,37.068638100000044],[-113.58441329999999,37.068645900000035],[-113.58441669999996,37.068682500000079],[-113.58443169999998,37.068850200000043],[-113.58445859999995,37.069143000000054],[-113.58447729999995,37.069344400000034],[-113.58448879999997,37.069475900000043],[-113.58449849999994,37.069577800000047],[-113.58451259999998,37.06973940000006],[-113.58452739999996,37.069899900000053],[-113.58454139999998,37.07004900000004],[-113.58459369999997,37.070627900000034],[-113.58463229999995,37.071042900000066],[-113.58465909999995,37.071338200000071],[-113.58467389999998,37.071502700000053],[-113.58468799999997,37.071656300000029],[-113.58471119999996,37.071922700000073],[-113.58472059999997,37.072019000000068],[-113.58472929999999,37.072119100000066],[-113.58473539999994,37.072186000000045],[-113.58474469999999,37.072283300000038],[-113.58475749999997,37.072447100000034],[-113.58477889999995,37.072731100000055],[-113.58478856899995,37.072858039000039],[-113.58479035699997,37.072881504000065],[-113.58480779999996,37.073110500000041],[-113.58482189999995,37.07328810000007],[-113.58482249999997,37.073313800000051],[-113.58483789999997,37.073511200000041],[-113.58487819999999,37.074036100000058],[-113.58490629999994,37.074406900000042],[-113.58492509999996,37.074654600000031],[-113.58494389999998,37.074895300000037],[-113.58495129999994,37.075005500000032],[-113.58496149999996,37.075120300000037],[-113.58496749999995,37.075212800000031],[-113.58497889999995,37.075366900000063],[-113.58498499999996,37.075445000000059],[-113.58500779999997,37.075736600000027],[-113.58502819999995,37.075998900000059],[-113.58503369999994,37.076084600000058],[-113.58504919999996,37.076351000000045],[-113.58505049999997,37.076571400000034],[-113.58505119999995,37.076802500000042],[-113.58505169999995,37.076980500000047],[-113.58504429999999,37.077228800000057],[-113.58502959999998,37.077458200000081],[-113.58500899999996,37.077785600000027]]],[[[-113.56217539999994,37.105581000000029],[-113.56217449999997,37.10553740000006],[-113.56216789999996,37.105301300000065],[-113.56216289999998,37.105132300000037],[-113.56215629999997,37.104832300000055],[-113.56215379999998,37.104792800000041],[-113.56211989999997,37.104792800000041],[-113.56209829999995,37.104793000000029],[-113.56198229999995,37.10479360000005],[-113.56172419999996,37.10479550000008],[-113.56157739999998,37.104797100000042],[-113.56131619999996,37.104798300000027],[-113.56105349999996,37.104800500000067],[-113.56082309999999,37.104801800000075],[-113.56050389999996,37.104804200000046],[-113.56016989999995,37.104806500000052],[-113.56015869999999,37.104806200000041],[-113.56006929999995,37.104807900000026],[-113.56006499999995,37.104817700000069],[-113.55999769999994,37.104999600000042],[-113.55991829999999,37.105211300000065],[-113.55983899999995,37.105420800000047],[-113.55977489999998,37.105595600000072],[-113.55980879999998,37.105595600000072],[-113.55992839999999,37.105595600000072],[-113.56000489999997,37.105595000000051],[-113.56028929999997,37.105593300000066],[-113.56062879999996,37.10559040000004],[-113.56093269999997,37.105588200000057],[-113.56122389999996,37.105586500000072],[-113.56169609999995,37.105583200000069],[-113.56197509999998,37.105581200000074],[-113.56208313999997,37.105580583000062],[-113.56217539999994,37.105581000000029]]],[[[-113.56217539999994,37.105581000000029],[-113.56217269999996,37.105644600000062],[-113.56216699999999,37.10578060000006],[-113.56216119999999,37.105903700000056],[-113.56215649999996,37.106000600000073],[-113.56215099999997,37.106121900000062],[-113.56214639999996,37.106214400000056],[-113.56214179999995,37.106330300000025],[-113.56213959999997,37.106382000000053],[-113.56215549999996,37.106382300000064],[-113.56218579999995,37.106382600000074],[-113.56225819999997,37.106383200000039],[-113.56228449999998,37.106383300000061],[-113.56238589999998,37.106383900000026],[-113.56249239999994,37.106384800000058],[-113.56262669999995,37.106385700000033],[-113.56276329999997,37.106386900000075],[-113.56278419999995,37.106387200000029],[-113.56286969999996,37.106388000000038],[-113.56296809999998,37.106388400000071],[-113.56304279999995,37.106389000000036],[-113.56304389999997,37.106361900000024],[-113.56304569999998,37.10629490000008],[-113.56304839999996,37.106208700000025],[-113.56305239999995,37.106053600000052],[-113.56305709999998,37.105884200000048],[-113.56306239999998,37.105710800000054],[-113.56306419999999,37.105625700000076],[-113.56304669999997,37.105624900000066],[-113.56301339999999,37.105624900000066],[-113.56293409999995,37.105621400000075],[-113.56262119999997,37.105606500000079],[-113.56237749999997,37.105592700000045],[-113.56217539999994,37.105581000000029]]],[[[-113.56989229999999,37.108150800000033],[-113.56970769999998,37.108151400000054],[-113.56959029999996,37.108151700000064],[-113.56937509999995,37.108152500000074],[-113.56919119999998,37.108153100000038],[-113.56902139999994,37.108153400000049],[-113.56884969999999,37.10815400000007],[-113.56876359999995,37.108154500000069],[-113.56867809999994,37.108154500000069],[-113.56860059999997,37.108154800000079],[-113.56850289999994,37.108155700000054],[-113.56850249999997,37.108160400000031],[-113.56850219999995,37.108181700000046],[-113.56850129999998,37.108378600000037],[-113.56849979999998,37.108617500000037],[-113.56849839999995,37.10885920000004],[-113.56849739999996,37.109086900000079],[-113.56849609999995,37.109243000000049],[-113.56849539999996,37.109408500000029],[-113.56849439999996,37.109609800000044],[-113.56849369999998,37.109749900000054],[-113.56849339999997,37.109809400000074],[-113.56853699999999,37.109808800000053],[-113.56866549999995,37.109806400000025],[-113.56883869999996,37.109803200000044],[-113.56902169999995,37.109799900000041],[-113.56919079999994,37.109796800000026],[-113.56944999999996,37.109791900000062],[-113.56961589999997,37.109789100000057],[-113.56979359999997,37.109785800000054],[-113.56994869999994,37.109782900000027],[-113.57005099999998,37.109781200000043],[-113.57021579999997,37.109777700000052],[-113.57039499999996,37.109774600000037],[-113.57059009999995,37.109770400000059],[-113.57059009999995,37.109733000000062],[-113.57058979999999,37.10968100000008],[-113.57058909999995,37.10962440000003],[-113.57058829999994,37.109544200000073],[-113.57058729999994,37.109448300000054],[-113.57058619999998,37.109376400000031],[-113.57058509999996,37.109271800000045],[-113.57058469999998,37.109201300000052],[-113.57058329999995,37.10913110000007],[-113.57056559999995,37.109130300000061],[-113.57043699999997,37.10912710000008],[-113.57027629999999,37.109123900000043],[-113.57014719999995,37.109121300000027],[-113.56996759999998,37.109117200000071],[-113.56997089999999,37.109066900000073],[-113.56997629999995,37.108996800000057],[-113.56998569999996,37.108875200000057],[-113.56998779999998,37.108839600000067],[-113.56998599999997,37.108787800000073],[-113.56997989999996,37.108654200000046],[-113.56996749999996,37.108392900000069],[-113.56996189999995,37.108270100000027],[-113.56995759999995,37.108175800000026],[-113.56995609999996,37.108150800000033],[-113.56989229999999,37.108150800000033]]]]},"properties":{"OBJECTID":2,"Shape_Length":1.1035330246501984,"Shape_Area":0.035905071005382858,"VertexCount":59}}]}