{"type":"FeatureCollection","features":[{"type":"Feature","id":1,"geometry":{"type":"MultiPolygon","coordinates":[[[[-113.56748386199996,37.097159609000073],[-113.56748339999996,37.097283200000049],[-113.56763329999995,37.097283000000061],[-113.56773797799997,37.097283429000072],[-113.56784010099994,37.097283900000036],[-113.56787298399996,37.097283983000068],[-113.56790150099994,37.097284100000024],[-113.56811810099998,37.097284700000046],[-113.56839869999999,37.097285800000066],[-113.56841826899995,37.097285752000062],[-113.56852020099996,37.097286100000076],[-113.56856130099999,37.097286097000051],[-113.56856160099994,37.097286100000076],[-113.56856167999996,37.097280125000054],[-113.56856169999998,37.097279800000024],[-113.56856169999998,37.097278567000046],[-113.56856250099997,37.097218100000077],[-113.56856539999995,37.097031400000049],[-113.56856564499998,37.09700906900008],[-113.56856769999996,37.096875600000033],[-113.56857119999995,37.096583300000077],[-113.56857340099998,37.09640870000004],[-113.56857369999994,37.096385100000077],[-113.56857373099996,37.096380921000048],[-113.56857459999998,37.096307800000034],[-113.56857459999998,37.096288600000037],[-113.56857171499996,37.096288590000029],[-113.56856220099996,37.09628820000006],[-113.56851680099999,37.09628820000006],[-113.56840790099994,37.096287600000039],[-113.56822700099997,37.096287300000029],[-113.56817403999997,37.09628714400003],[-113.56813879999999,37.096287000000075],[-113.56808704299999,37.096286888000066],[-113.56781999999998,37.096286100000043],[-113.56771716899999,37.09628589600004],[-113.56754599999999,37.096285200000068],[-113.56749189999999,37.096285700000067],[-113.56749188399999,37.096285900000055],[-113.56749170099994,37.096285900000055],[-113.56749110099997,37.096291800000074],[-113.56749110099997,37.096295589000079],[-113.56749080099996,37.096299300000055],[-113.56749049299998,37.096324137000067],[-113.56749039999994,37.09632780000004],[-113.56749031899994,37.096338132000028],[-113.56748979999998,37.096380000000067],[-113.56748871499997,37.096505256000057],[-113.56748819999996,37.096555900000055],[-113.56748651699996,37.096729284000048],[-113.56748569999996,37.096736800000031],[-113.56748569999996,37.096738300000027],[-113.56748632199998,37.096749478000049],[-113.56748629999998,37.096751700000027],[-113.56748570199994,37.096866800000043],[-113.56748399999998,37.097100400000045],[-113.56748386199996,37.097159609000073]]],[[[-113.56153290099996,37.104323800000031],[-113.56155380099995,37.104323200000067],[-113.56195709999997,37.104323600000043],[-113.56215830099995,37.10432250100007],[-113.56215809999998,37.10432000000003],[-113.56215849999995,37.104314800000054],[-113.56215929999996,37.104280000000074],[-113.56216219999999,37.104081000000065],[-113.56216369999999,37.10395770000008],[-113.56212469999997,37.103957100000059],[-113.56199569999995,37.103956500000038],[-113.56165049999998,37.10395660000006],[-113.56156830099997,37.10395660000006],[-113.56153510099995,37.103958400000067],[-113.56153290099996,37.104022200000031],[-113.56153290099996,37.104323800000031]]],[[[-113.56579340099995,37.107587500000079],[-113.56579190099995,37.107643300000063],[-113.56578659999997,37.107850700000029],[-113.56578439999998,37.10794240000007],[-113.56578049999996,37.108094600000072],[-113.56578049999996,37.108108132000041],[-113.56578049999996,37.108115000000055],[-113.56578049999996,37.108124011000029],[-113.56578049999996,37.108124200000077],[-113.56579056499999,37.108124281000073],[-113.56591689999999,37.10812530000004],[-113.56594214599994,37.108125477000044],[-113.56618900099994,37.108127200000069],[-113.56627008399994,37.108127497000055],[-113.56635279999995,37.108127800000034],[-113.56636154099999,37.10812803400006],[-113.56637500099998,37.108128100000044],[-113.56637608799997,37.108119983000051],[-113.56637650099998,37.108116900000027],[-113.56637609999996,37.108101100000056],[-113.56637500099998,37.10807120000004],[-113.56637319999999,37.108008100000063],[-113.56636789999999,37.107849400000077],[-113.56636500599996,37.107765100000051],[-113.56636189999995,37.107656500000076],[-113.56636012999996,37.107611661000078],[-113.56635819999997,37.107548400000042],[-113.56635759999995,37.107547600000032],[-113.56635039999998,37.107547600000032],[-113.56633779999999,37.107547300000078],[-113.56631610099998,37.107547600000032],[-113.56617769999997,37.107550200000048],[-113.56599019999999,37.107553000000053],[-113.56584519999996,37.107555600000069],[-113.56579439999996,37.107556699000042],[-113.56579340099995,37.107556200000033],[-113.56579340099995,37.107587500000079]]],[[[-113.32672227199998,37.487672587000077],[-113.32672114199994,37.487686500000052],[-113.32951963499994,37.487624900000071],[-113.32959939099999,37.487623145000043],[-113.48828999399996,37.487499218000039],[-113.48829002399998,37.48749921700005],[-113.49039907499997,37.487497570000073],[-113.49039934399997,37.487497571000063],[-113.53066697699995,37.487466124000036],[-113.53066956599997,37.487466122000058],[-113.56176028299996,37.487441842000067],[-113.56176036799997,37.487441842000067],[-113.63477176699996,37.48738482400006],[-114.05184855299996,37.48599751900008],[-114.05184868199996,37.485997518000033],[-114.05184871399996,37.485997518000033],[-114.05266598399999,37.485994800000071],[-114.05266116099995,37.484882692000042],[-114.05253049799995,37.454741026000079],[-114.05226071999999,37.392469693000066],[-114.05182580499996,37.291971725000053],[-114.05164761399999,37.250757370000031],[-114.05164761399999,37.250757344000078],[-114.05144419999999,37.240894200000071],[-113.66980106799997,37.243440967000026],[-113.66966250099995,37.243441500000074],[-113.66966769999999,37.24267320000007],[-113.66971070099999,37.23939340000004],[-113.66979649999996,37.232115800000031],[-113.66988229999998,37.210381300000051],[-113.67012559999995,37.184668000000045],[-113.67011489999999,37.182236200000034],[-113.67012019999999,37.181860100000051],[-113.67012019999999,37.181291700000031],[-113.67011489999999,37.18018040000004],[-113.67010949999997,37.179338400000063],[-113.67009880099994,37.177932200000043],[-113.67009880099994,37.177261200000032],[-113.67011119999995,37.176650400000028],[-113.67011119999995,37.176594300000033],[-113.67011410099997,37.176247500000045],[-113.67011750099999,37.175765600000034],[-113.67011799999995,37.175671900000054],[-113.67011949999994,37.175444700000071],[-113.67011989999997,37.175347000000045],[-113.67012010099995,37.175001000000066],[-113.67011979999995,37.174859900000058],[-113.67012040099996,37.174669700000038],[-113.67012029999995,37.174598900000035],[-113.67012000099999,37.174344900000051],[-113.67012000099999,37.174313743000027],[-113.67020770099998,37.165858700000058],[-113.67014320099997,37.157368200000064],[-113.67012989999995,37.157368200000064],[-113.67012347399998,37.157368509000037],[-113.65581696899994,37.157592785000077],[-113.65450710099998,37.157604000000049],[-113.65283209999996,37.157635400000061],[-113.65249517399997,37.157644858000026],[-113.65194390099998,37.157653500000038],[-113.65194509999998,37.15771581000007],[-113.65194509999998,37.157728700000064],[-113.65195039999998,37.158008700000039],[-113.65195728399999,37.158348867000029],[-113.65197524699994,37.159282198000028],[-113.65197767999996,37.159435605000056],[-113.65086949999994,37.159445812000058],[-113.65005079999997,37.159450900000024],[-113.64874102499999,37.159465419000071],[-113.64724514099998,37.159479198000042],[-113.64724401199999,37.159426032000056],[-113.64722521799996,37.158300712000027],[-113.64721830099995,37.157750300000032],[-113.64721416699996,37.157639071000062],[-113.64721360099998,37.157605200000035],[-113.64721290699998,37.157605200000035],[-113.64721289999994,37.157605000000046],[-113.64716999999996,37.157603900000026],[-113.64687281399995,37.157605300000057],[-113.64579120399998,37.157605618000048],[-113.64478669999994,37.157600500000058],[-113.64314090099998,37.157605500000045],[-113.64310729999994,37.157604400000025],[-113.64244059999999,37.157606600000065],[-113.64244040099999,37.157606600000065],[-113.64243970099994,37.157635700000071],[-113.64243760099998,37.157887500000072],[-113.64243600099996,37.158096400000034],[-113.64243489999996,37.158221400000059],[-113.64243169999997,37.158596200000034],[-113.64242799999994,37.159046100000069],[-113.64242329999996,37.159593600000051],[-113.64241949399997,37.160109700000078],[-113.64240947799999,37.161296702000072],[-113.64240889999996,37.161329500000079],[-113.64239545599997,37.161329293000051],[-113.64147077699994,37.16130864400003],[-113.64127429999996,37.16130400000003],[-113.64110830099997,37.16130000000004],[-113.64109112499995,37.161300165000057],[-113.64108820099995,37.161300100000062],[-113.64108807499997,37.161300195000024],[-113.64108749999997,37.161300200000028],[-113.64107709999996,37.161307700000066],[-113.64105669999998,37.161323200000027],[-113.64101341199995,37.161356426000054],[-113.64097639999994,37.161384300000066],[-113.64097311799998,37.161382747000061],[-113.64095610099997,37.161373200000071],[-113.64092629999999,37.161356700000056],[-113.64089540099997,37.161339300000066],[-113.64083720099995,37.161307600000043],[-113.64076139999997,37.161266200000057],[-113.64066709999997,37.161223600000028],[-113.64051920099996,37.161160300000063],[-113.64046250099994,37.161136000000056],[-113.64038879999998,37.161104100000045],[-113.64034152999994,37.161083801000075],[-113.64033730099999,37.161081800000034],[-113.64023849999995,37.16104480000007],[-113.64017900099998,37.161022900000034],[-113.64016739999994,37.161018632000037],[-113.63998469999996,37.160946900000056],[-113.63987709999998,37.160902300000032],[-113.63983620099998,37.160885800000074],[-113.63976379999997,37.160852900000066],[-113.63970230099994,37.160825600000067],[-113.63965654199995,37.160804607000046],[-113.63956819999999,37.160758500000043],[-113.63948491999997,37.160710705000042],[-113.63943769999997,37.160680400000047],[-113.63937369999996,37.160639200000048],[-113.63935589999994,37.160625000000039],[-113.63932670099996,37.160601000000042],[-113.63930660099999,37.160584400000062],[-113.63929290099998,37.160572400000035],[-113.63927109999997,37.160555300000055],[-113.63920770099998,37.16050290000004],[-113.63912363699995,37.160433160000025],[-113.63905793499998,37.160370906000026],[-113.63898770099996,37.160302900000033],[-113.63879308199995,37.160112350000077],[-113.63875807799997,37.160077769000054],[-113.63861689999999,37.159935000000075],[-113.63853879999999,37.159855300000061],[-113.63846440099996,37.159779600000036],[-113.63844099999994,37.159756100000038],[-113.63841039999994,37.159724900000072],[-113.63836989999999,37.159683500000028],[-113.63833309999995,37.159647100000029],[-113.63816409999998,37.159448300000065],[-113.63810100099994,37.159373800000026],[-113.63805200299998,37.15931613500004],[-113.63796459999998,37.159210500000029],[-113.63627003099998,37.157218624000052],[-113.63624710099998,37.157191100000034],[-113.63620580099996,37.157141700000068],[-113.63611579999997,37.157033600000034],[-113.63609963499999,37.157014444000026],[-113.63599604099994,37.156889935000038],[-113.63598159999998,37.156872400000054],[-113.63597471899999,37.156864308000024],[-113.63597130099998,37.15686020000004],[-113.63574630099998,37.156586600000026],[-113.63563649399998,37.156460589000062],[-113.63559679999997,37.156414300000051],[-113.63558369999998,37.156399300000032],[-113.63555179999997,37.156362200000046],[-113.63552039999996,37.156325400000071],[-113.63546650099994,37.156262900000058],[-113.63536440099995,37.156143300000053],[-113.63532250099996,37.156094400000029],[-113.63515440099997,37.155897000000039],[-113.63495649999999,37.15566670000004],[-113.63485969999999,37.155553000000054],[-113.63473172299996,37.155403281000076],[-113.63437350099997,37.154983300000026],[-113.63357750099999,37.154046000000051],[-113.63351590099995,37.15397100000007],[-113.63346473799999,37.153908905000037],[-113.63342439999997,37.153859500000067],[-113.63336499299999,37.153788463000069],[-113.63328119999994,37.153686200000038],[-113.63323860099996,37.153636500000061],[-113.63316000099996,37.153574400000025],[-113.63304899999997,37.153488200000027],[-113.63296720099999,37.153425300000038],[-113.63278399999996,37.153282800000056],[-113.63268094799997,37.153202760000056],[-113.63267640099997,37.153199200000074],[-113.63267516199994,37.153198265000071],[-113.63258829999995,37.153130800000042],[-113.63194050099997,37.152627900000027],[-113.63157560099995,37.152342900000065],[-113.63145589999999,37.152252100000055],[-113.63136430599997,37.152186306000033],[-113.63133629999999,37.152165800000034],[-113.63121160099996,37.152074900000059],[-113.63102369999996,37.151937400000065],[-113.63100189999994,37.151921700000059],[-113.63085749999999,37.151815300000067],[-113.63058210099996,37.15161420000004],[-113.62999799999994,37.151170600000057],[-113.62957340599996,37.150851444000068],[-113.62954979999995,37.150833400000067],[-113.62936509999997,37.150693700000033],[-113.62919579999999,37.150565300000039],[-113.62913133999996,37.150516789000051],[-113.62897419999996,37.150395900000035],[-113.62891510099996,37.150353300000063],[-113.62891091499995,37.150350274000061],[-113.62888600099996,37.150331600000072],[-113.62880560099995,37.150270100000057],[-113.62875390099998,37.150230400000055],[-113.62874618599994,37.150223082000025],[-113.62873909999996,37.150215400000036],[-113.62867978699995,37.15016177900003],[-113.62864729999995,37.150132000000042],[-113.62849429999994,37.14999030000007],[-113.62841319999995,37.149913800000036],[-113.62828641099998,37.149796197000057],[-113.62825599999996,37.149767100000076],[-113.62794019999995,37.149474100000077],[-113.62789301499998,37.149430531000064],[-113.62777729999999,37.149322700000027],[-113.62770387399996,37.14925278700008],[-113.62733965299998,37.148891134000053],[-113.62719460899996,37.148745566000059],[-113.62671019999999,37.148258000000055],[-113.62643620099999,37.147981000000073],[-113.62630929999995,37.147856800000056],[-113.62619249999995,37.147739600000079],[-113.62616547899995,37.147714817000065],[-113.62612350099994,37.147671400000036],[-113.62608989999995,37.147631300000057],[-113.62606180099999,37.147594900000058],[-113.62605204299996,37.147582667000052],[-113.62601509999996,37.147531500000071],[-113.62594930599994,37.147453861000031],[-113.62592109999997,37.147418500000072],[-113.62581920099996,37.147290200000043],[-113.62575179999999,37.147204900000077],[-113.62568739999995,37.147124700000063],[-113.62555660099997,37.14696020000008],[-113.62539709999999,37.146760100000051],[-113.62530442799999,37.146643576000031],[-113.62506620099998,37.146340700000053],[-113.62497216899999,37.146224192000034],[-113.62494709999999,37.146192500000041],[-113.62483520099994,37.146052200000042],[-113.62472399999996,37.145913800000073],[-113.62469011499996,37.145871086000056],[-113.62468699999994,37.145867100000032],[-113.62468470599998,37.145864268000025],[-113.62456049999997,37.14570770000006],[-113.62444752799996,37.145565939000051],[-113.62440429999998,37.145510800000068],[-113.62433356499997,37.145422887000052],[-113.62430039999998,37.145381500000042],[-113.62421540199995,37.14527399900004],[-113.62421537699998,37.145273964000069],[-113.62416776799995,37.14520340200005],[-113.62413060099999,37.145146800000077],[-113.62389819999999,37.14479190000003],[-113.62383432499996,37.14469508600007],[-113.62383330099999,37.144693500000074],[-113.62367180099994,37.144440600000053],[-113.62360291399995,37.144338713000025],[-113.62353629999996,37.144237000000032],[-113.62343369999996,37.144080400000064],[-113.62333739999997,37.14395230000008],[-113.62317799999994,37.143739800000048],[-113.62316223399995,37.143718732000025],[-113.62314970099999,37.143701500000077],[-113.62284839999995,37.143284300000062],[-113.62265219999995,37.142980800000032],[-113.62252249999995,37.142770400000074],[-113.62238428699999,37.142463201000055],[-113.62237799999997,37.142448900000034],[-113.62237057599998,37.142432725000049],[-113.62233789999999,37.142360100000076],[-113.62226991299997,37.142213437000066],[-113.62225360099995,37.142177900000036],[-113.62214560099994,37.141944300000034],[-113.62198910099994,37.141605100000049],[-113.62192199999998,37.14146020000004],[-113.62188729999997,37.141386200000056],[-113.62186980099995,37.141358400000058],[-113.62183223099998,37.14129783900006],[-113.62183029999994,37.141294500000072],[-113.62170629999997,37.141094400000043],[-113.62168167899995,37.141055919000053],[-113.62160359999996,37.140930700000069],[-113.62143839999999,37.140671800000064],[-113.62141520199998,37.140634715000033],[-113.62135870099996,37.140543800000046],[-113.62123749999995,37.140350000000069],[-113.62102973099996,37.140017016000058],[-113.62099329999995,37.139958400000069],[-113.62098232499994,37.139941000000078],[-113.62079620099996,37.139642500000036],[-113.62078139099998,37.139621211000076],[-113.62076870099997,37.139600700000074],[-113.62072309999996,37.139528600000062],[-113.62056479499995,37.139280302000031],[-113.62056332499998,37.13927800600004],[-113.62046659999999,37.139126300000044],[-113.62037460099998,37.138982200000044],[-113.62025389999997,37.138795100000038],[-113.62012749999997,37.138598800000068],[-113.62012103199999,37.138589412000044],[-113.62008459999998,37.138532600000076],[-113.62004892399995,37.138484737000056],[-113.62003759999999,37.138468300000056],[-113.61994730899994,37.138345634000075],[-113.61994110099994,37.138337100000058],[-113.61993807199997,37.138333084000067],[-113.61991740099995,37.138305000000059],[-113.61977669999999,37.138115200000072],[-113.61966768499997,37.137968085000068],[-113.61964399999999,37.13793540000006],[-113.61961778899996,37.137900750000028],[-113.61959930099999,37.137875800000074],[-113.61946719999997,37.137696700000049],[-113.61943646799995,37.13765528700003],[-113.61938229999998,37.137580700000058],[-113.61936802999998,37.137563063000073],[-113.61935930099997,37.137551300000041],[-113.61932558399997,37.137505649000047],[-113.61931239999996,37.137487600000043],[-113.61924959999999,37.13740080000008],[-113.61924536799995,37.137398832000031],[-113.61919159999997,37.137352400000054],[-113.61918298999996,37.137345123000046],[-113.61914939999997,37.137315200000046],[-113.61907568399994,37.137253842000064],[-113.61902179999998,37.137207200000034],[-113.61898159999998,37.137173000000075],[-113.61893858599996,37.137138380000067],[-113.61892809999995,37.137129500000071],[-113.61891698599999,37.137120994000043],[-113.61891189999994,37.13711690000008],[-113.61878039999999,37.137016200000062],[-113.61867079999996,37.13693150000006],[-113.61852869999996,37.136820800000066],[-113.61840040899995,37.136722525000039],[-113.61814525099999,37.136526669000034],[-113.61804209999997,37.136447200000077],[-113.61791809999994,37.136352100000067],[-113.61775279999995,37.136224900000059],[-113.61771275399997,37.13619419500003],[-113.61762509999994,37.136124900000027],[-113.61714079499995,37.135753008000052],[-113.61707459999997,37.135701900000072],[-113.61695040099994,37.135606700000039],[-113.61679490099999,37.135486900000046],[-113.61668759999998,37.135404100000073],[-113.61663729999998,37.135365600000057],[-113.61662830699998,37.135360339000044],[-113.61650970099998,37.135289400000033],[-113.61626303399999,37.13514480200007],[-113.61624859999995,37.135136200000034],[-113.61622424999996,37.135121950000041],[-113.61610439899999,37.13505080200008],[-113.61610407099994,37.135050608000029],[-113.61609169999997,37.135043200000041],[-113.61592310499998,37.134942602000024],[-113.61583689999998,37.134889900000076],[-113.61569205999996,37.134802729000057],[-113.61564249999998,37.134772700000042],[-113.61553403999994,37.134707624000043],[-113.61546919999995,37.134668600000055],[-113.61532290099996,37.134580100000051],[-113.61494499999998,37.134376000000032],[-113.61486506099999,37.134336936000068],[-113.61486180099996,37.134335200000066],[-113.61471691999998,37.134264543000029],[-113.61462270099997,37.134218500000031],[-113.61443379999997,37.134126000000037],[-113.61421969999998,37.134021300000029],[-113.61415549999998,37.134001200000057],[-113.61408769999997,37.133977700000059],[-113.61404938899994,37.133965056000079],[-113.61406229999994,37.133950700000071],[-113.61412399999995,37.133878000000038],[-113.61418839999999,37.133766800000046],[-113.61426210099995,37.133639500000072],[-113.61426210099995,37.13363860000004],[-113.61426210099995,37.133600000000058],[-113.61426210099995,37.133526200000063],[-113.61426129999995,37.13313560000006],[-113.61426129999995,37.13260310000004],[-113.61426029999996,37.132114100000024],[-113.61434139999994,37.13211350000006],[-113.61446150099999,37.132113000000061],[-113.61458149999999,37.132111900000041],[-113.61462701699998,37.132111253000062],[-113.61465407099996,37.132111052000027],[-113.61477759599995,37.13211969200006],[-113.61479179999998,37.132121100000063],[-113.61480533299999,37.132121000000041],[-113.61481619999995,37.132121000000041],[-113.61495369999994,37.132120500000042],[-113.61613579999994,37.132115700000043],[-113.61726389999995,37.132107800000028],[-113.61829389999997,37.13209930000005],[-113.61904220099996,37.132095000000049],[-113.61915041999998,37.132088846000045],[-113.61917080099994,37.132088700000054],[-113.61924429999999,37.132085200000063],[-113.61926160799999,37.132082523000065],[-113.61926199999999,37.132082500000024],[-113.61926200199997,37.132082462000028],[-113.61926239999997,37.132082400000058],[-113.61926233699995,37.132074513000077],[-113.61926269999998,37.132065900000043],[-113.61926309999996,37.131981600000074],[-113.61926369999998,37.131716100000062],[-113.61926499999998,37.131578200000035],[-113.61926260099995,37.131221200000027],[-113.61926190099996,37.131050900000048],[-113.61926190099996,37.130876000000058],[-113.61925720099998,37.130658400000073],[-113.61925660099996,37.130562700000041],[-113.61925320099999,37.130356300000074],[-113.61925030099997,37.130111300000067],[-113.61925100099995,37.13002460000007],[-113.61924729999998,37.12981590000004],[-113.61924263899999,37.129610683000067],[-113.61924258999994,37.129604552000046],[-113.61924199999999,37.129368301000056],[-113.62010529999998,37.129369500000053],[-113.62010521299999,37.12936882200006],[-113.62010640099999,37.129368800000066],[-113.62010170099995,37.129335200000071],[-113.62010034799999,37.129328119000036],[-113.62009550099998,37.129268800000034],[-113.62009140099997,37.126736200000039],[-113.62009140099997,37.126734700000043],[-113.62009085599999,37.126723344000027],[-113.62008989999998,37.126700800000037],[-113.62008809999998,37.126665500000058],[-113.62004304999999,37.126650361000031],[-113.62002699999999,37.126644400000032],[-113.61998750099997,37.126643300000069],[-113.61978960099998,37.12663740000005],[-113.61978102699999,37.126637287000051],[-113.61963780099995,37.126633300000037],[-113.61955529999994,37.126633300000037],[-113.61947811899995,37.126633300000037],[-113.61947049999998,37.126633200000072],[-113.61944709399995,37.126633300000037],[-113.61943160099997,37.126633300000037],[-113.61931230099998,37.126633300000037],[-113.61925459999998,37.126633800000036],[-113.61923711199995,37.126633800000036],[-113.61923850099998,37.126587200000074],[-113.61923468599997,37.126557254000033],[-113.61922989999999,37.126507700000047],[-113.61922827299998,37.126479326000037],[-113.61922639999995,37.12640220000003],[-113.61922639999995,37.126263200000039],[-113.61922311599994,37.126173918000063],[-113.61922259999994,37.126136100000053],[-113.61922046599994,37.126075090000029],[-113.61921970099996,37.126015900000027],[-113.61921829999994,37.125991298000031],[-113.61921750099998,37.125943500000062],[-113.61919729999994,37.125735400000053],[-113.61917974199997,37.12555560800007],[-113.61916889999998,37.125439200000073],[-113.61914740099996,37.125390000000039],[-113.61912933399998,37.125352408000026],[-113.61909974899999,37.125288569000077],[-113.61924000099998,37.125087400000041],[-113.61934333299996,37.124940968000033],[-113.61941569999999,37.124840600000027],[-113.61943134599994,37.12477610500008],[-113.61943839999998,37.124749500000064],[-113.61946660099994,37.124639300000069],[-113.61973619999998,37.124352800000054],[-113.61981558899998,37.124263660000054],[-113.61984730299997,37.124250884000048],[-113.61988519999994,37.12423670000004],[-113.62017759999998,37.124120100000027],[-113.62044420699999,37.124012407000066],[-113.62045100099999,37.124009800000067],[-113.62048989999994,37.123996000000034],[-113.62060389999999,37.123959200000058],[-113.62060723799999,37.123957175000044],[-113.62060940099997,37.123956500000077],[-113.62078509999998,37.123849600000028],[-113.62080563399996,37.123836808000078],[-113.62090520099997,37.123776400000054],[-113.62100690399996,37.123671345000048],[-113.62101820099997,37.123659900000064],[-113.62103712399994,37.123640130000069],[-113.62113889999995,37.123535000000061],[-113.62115942099996,37.123493959000029],[-113.62118849999996,37.12343750000008],[-113.62120859999999,37.123311000000058],[-113.62122578699996,37.123202186000071],[-113.62124700099997,37.123076200000071],[-113.62125367599998,37.123025612000049],[-113.62125689999999,37.12300520000008],[-113.62127778399997,37.12286000000006],[-113.62127626899996,37.122857679000049],[-113.62080799999995,37.122857100000033],[-113.62037325199998,37.122854149000034],[-113.62013029999997,37.122852500000079],[-113.62004496799995,37.122848325000064],[-113.61966019999994,37.12282950000008],[-113.61892800199996,37.122782316000041],[-113.61880359999998,37.12277430000006],[-113.61828984099998,37.122745035000037],[-113.61791529999999,37.122723700000051],[-113.61703560099994,37.122673100000043],[-113.61665780099997,37.122650200000066],[-113.61639249999996,37.122652500000072],[-113.61637887299997,37.122650731000078],[-113.61633645399996,37.122645223000063],[-113.61627033699995,37.122636638000074],[-113.61626849999999,37.122636400000033],[-113.61599765199998,37.122666987000059],[-113.61593910099998,37.122673600000041],[-113.61494981399994,37.122783899000069],[-113.61494889999994,37.122784000000024],[-113.61494332899997,37.122785116000045],[-113.61462159999996,37.122849500000029],[-113.61407420299997,37.122953179000035],[-113.61362689999999,37.123037900000043],[-113.61101862399994,37.123542637000071],[-113.61095370099997,37.123555200000055],[-113.61062489999995,37.123617300000035],[-113.60969779999999,37.123795600000051],[-113.60876340099998,37.123973100000057],[-113.60771146499997,37.124171004000061],[-113.60769240099995,37.124174590000052],[-113.60749437199996,37.124211846000037],[-113.60721289999998,37.124264800000049],[-113.60711180299995,37.124284457000044],[-113.60702476799997,37.124301380000077],[-113.60697329599998,37.124311388000024],[-113.60672019999998,37.124360600000045],[-113.60622939999996,37.124454900000046],[-113.60612759299994,37.124473816000034],[-113.60573480099998,37.124546800000076],[-113.60524120099996,37.12464250000005],[-113.60474799999997,37.124734500000045],[-113.60447310099994,37.124780600000065],[-113.60440043299997,37.124791947000062],[-113.60426689999997,37.124812800000029],[-113.60413071899995,37.12482224300004],[-113.60405199999997,37.124827700000026],[-113.60400948599994,37.124832419000029],[-113.60395829999999,37.124838100000034],[-113.60394786899997,37.124837591000073],[-113.60393369999997,37.124836900000048],[-113.60371739999999,37.124838100000034],[-113.60356827499999,37.124838100000034],[-113.60355739999994,37.124838100000034],[-113.60326460099998,37.124812800000029],[-113.60317218099999,37.124802885000065],[-113.60309590099996,37.124794700000052],[-113.60292888199996,37.124770909000063],[-113.60285369999997,37.124760200000026],[-113.60266909999996,37.124730300000067],[-113.60253209999996,37.124708500000054],[-113.60230270299996,37.124654638000038],[-113.60229699999996,37.124653300000034],[-113.60206919999996,37.124599300000057],[-113.60184999999996,37.12453140000008],[-113.60178136799999,37.124510546000067],[-113.60161929999998,37.124461300000064],[-113.60146640099998,37.12443600000006],[-113.60137630799994,37.12442121600003],[-113.60137559999998,37.124421100000063],[-113.60128610099997,37.124417600000072],[-113.60122559999996,37.124414200000047],[-113.60120953299997,37.124416565000047],[-113.60120249999994,37.124417600000072],[-113.60103670099994,37.12443600000006],[-113.60089539999996,37.124462400000027],[-113.60089539599994,37.124461284000063],[-113.60089270099996,37.123807000000056],[-113.60089337599999,37.123729314000059],[-113.60089783399997,37.123216814000045],[-113.60089849999997,37.12314020000008],[-113.60089270099996,37.122905600000024],[-113.60088933099996,37.122729132000075],[-113.60087539999995,37.121999500000072],[-113.60086397299995,37.121714859000065],[-113.60084659999995,37.12128210000003],[-113.60133799999994,37.121270000000038],[-113.60154683799999,37.121271141000079],[-113.60175899999996,37.121272300000044],[-113.60179788999994,37.12126610100006],[-113.60183894399995,37.12125955700003],[-113.60185999999999,37.121256200000062],[-113.60199269999998,37.121247000000039],[-113.60200709999998,37.120979500000033],[-113.60202165799996,37.120706340000027],[-113.60203589999998,37.120439100000056],[-113.60205039999994,37.120078100000057],[-113.60206189999997,37.119838900000047],[-113.60206270099997,37.119781300000056],[-113.60206319399998,37.119752523000045],[-113.60206339999996,37.119740500000034],[-113.60206960499994,37.119737371000042],[-113.60207490099998,37.119734700000038],[-113.60208430099999,37.119728398000063],[-113.60208628199996,37.119728319000046],[-113.60216649999995,37.119725000000074],[-113.60222420099996,37.119723200000067],[-113.60224950599996,37.119658665000031],[-113.60229689999994,37.119537800000046],[-113.60234810099996,37.119401000000039],[-113.60235820099996,37.119375700000035],[-113.60239570099998,37.11927680000008],[-113.60242959999999,37.119189400000039],[-113.60252259999999,37.118952600000057],[-113.60256002899996,37.118863536000049],[-113.60256079999999,37.118861700000025],[-113.60260565499999,37.118752055000073],[-113.60263369999996,37.118683500000031],[-113.60266389999998,37.118599500000073],[-113.60269060099995,37.118527700000072],[-113.60270940099997,37.118478800000048],[-113.60272229999998,37.118384500000047],[-113.60274899999996,37.118168300000036],[-113.60276199999998,37.118065000000058],[-113.60277062199998,37.117996362000042],[-113.60277499999995,37.117961500000035],[-113.60277767899998,37.11794259900006],[-113.60279299999996,37.117834500000072],[-113.60280170099998,37.11775920000008],[-113.60280959999994,37.117701700000055],[-113.60283770099994,37.11748440000008],[-113.60285210099994,37.117384900000047],[-113.60285360099999,37.117373400000076],[-113.60285279999999,37.117348100000072],[-113.60285459899995,37.117133300000035],[-113.60285509999994,37.117073100000027],[-113.60285659999994,37.116936900000042],[-113.60285744099997,37.116890974000057],[-113.60286219999995,37.116631100000063],[-113.60286469999994,37.116516900000079],[-113.60308527399997,37.116526194000073],[-113.60286430099995,37.116516800000056],[-113.60314139999997,37.115995800000064],[-113.60312869899997,37.115964983000026],[-113.60307819999997,37.115812000000062],[-113.60301390099994,37.115629200000058],[-113.60294410099999,37.115488000000028],[-113.60287666099998,37.115353494000033],[-113.60287249999999,37.115343400000029],[-113.60278309999995,37.115241600000047],[-113.60253579999994,37.114965700000027],[-113.60239198099998,37.114859332000037],[-113.60235160099995,37.114828600000067],[-113.60231129999994,37.114806100000067],[-113.60222155599996,37.11475813800007],[-113.60203809999996,37.114658400000053],[-113.60118077899995,37.113547732000029],[-113.60108680099995,37.113425500000062],[-113.60104676899999,37.11331191000005],[-113.60083885799997,37.112699758000076],[-113.60082666199997,37.112660997000035],[-113.60094169999996,37.112503700000048],[-113.60094420799999,37.112498265000056],[-113.60094440099999,37.112498000000073],[-113.60094523199996,37.112496047000036],[-113.60101935499995,37.112335434000045],[-113.60103420099995,37.11230450000005],[-113.60105429999999,37.112230700000055],[-113.60108520099999,37.112118400000043],[-113.60113750099998,37.111920500000053],[-113.60118255999998,37.11168426100005],[-113.60119139999995,37.111647400000038],[-113.60110439999994,37.111180600000068],[-113.60095828099998,37.110730735000061],[-113.60091969999996,37.110610000000065],[-113.60091469099996,37.110602598000071],[-113.60039440099996,37.109733100000028],[-113.60026518599994,37.109664075000069],[-113.60020979999996,37.10963380000004],[-113.60019434499998,37.10959125800008],[-113.60015112699995,37.109462876000066],[-113.60015750099996,37.109403900000075],[-113.60016673299998,37.109313904000032],[-113.60017460599994,37.109239534000039],[-113.60019570099996,37.109054800000024],[-113.60025059999998,37.10853080000004],[-113.60025490699996,37.108481058000052],[-113.60026279999994,37.108406500000058],[-113.60020766299999,37.108308479000073],[-113.60017289999996,37.108244500000069],[-113.60017289999996,37.108209187000057],[-113.60017339399997,37.108203461000073],[-113.60017829999998,37.108178200000054],[-113.60020222099996,37.108144074000052],[-113.60204119999997,37.105740300000036],[-113.60213274199998,37.10565490700003],[-113.60233039999997,37.105472600000041],[-113.60252691699998,37.105287213000054],[-113.60258899999997,37.105229300000076],[-113.60262630099999,37.105202615000053],[-113.60282559999996,37.105062500000031],[-113.60325699699996,37.104751393000072],[-113.60329919999998,37.104721200000029],[-113.60332633499996,37.104705953000064],[-113.60334779999994,37.104695700000036],[-113.60360390099999,37.104551300000026],[-113.60396869999994,37.104350200000056],[-113.60434079999999,37.104142900000056],[-113.60464509899998,37.103964909000069],[-113.60470579999998,37.103930800000057],[-113.60485400099998,37.103747000000055],[-113.60492570099996,37.103562300000078],[-113.60492916399994,37.103543381000065],[-113.60493820099998,37.103507300000047],[-113.60497170099995,37.103322300000059],[-113.60499450099996,37.103208900000027],[-113.60502539999999,37.103020600000036],[-113.60505079999996,37.102952200000061],[-113.60505491699996,37.102941230000056],[-113.60513980099995,37.102725000000078],[-113.60520149999996,37.102450500000032],[-113.60511459999998,37.102184300000033],[-113.60497429699996,37.10139040100006],[-113.60495040099994,37.101255200000026],[-113.60495013699995,37.101255011000035],[-113.60495010099999,37.101254800000049],[-113.60493639999999,37.10124490000004],[-113.60471910099994,37.101087900000039],[-113.60443409999999,37.100881000000072],[-113.60310789999994,37.099926100000062],[-113.60281159999994,37.099713200000053],[-113.60214530099995,37.099233300000037],[-113.60054430099996,37.098079600000062],[-113.59968849999996,37.097462600000028],[-113.59912990099997,37.097059700000045],[-113.59825380099994,37.096428100000026],[-113.59752520099994,37.095904100000041],[-113.59735419999998,37.095780600000069],[-113.59734058099997,37.095771416000048],[-113.59732434099999,37.095759713000064],[-113.59722679999999,37.095688000000052],[-113.59674939999996,37.095343900000046],[-113.59640879999995,37.095097800000076],[-113.59575360099996,37.094626100000028],[-113.59575219999999,37.094575900000052],[-113.59574420099995,37.094108100000028],[-113.59574019999997,37.09371550000003],[-113.59572679999997,37.092800100000034],[-113.59572149999997,37.092401100000075],[-113.59571209999996,37.091633000000058],[-113.59570269999995,37.091096400000026],[-113.59569869999996,37.090728400000046],[-113.59569229999994,37.090204200000073],[-113.59568290099998,37.089577200000065],[-113.59566679999995,37.088468100000057],[-113.59566679999995,37.088356800000042],[-113.59565870099999,37.08806160000006],[-113.59564379999995,37.086971900000037],[-113.59561629999996,37.085303600000032],[-113.59560741199999,37.084897109000053],[-113.59560340099995,37.084625800000026],[-113.59408453199995,37.081186811000066],[-113.59401629999996,37.081029800000067],[-113.59401629999996,37.080969800000048],[-113.59401629999996,37.080849477000072],[-113.59405210099999,37.078819000000067],[-113.59404755499997,37.078817210000068],[-113.59402389999997,37.078804500000047],[-113.59398770099995,37.078785700000026],[-113.59391929999998,37.078751000000068],[-113.59385359999999,37.07872640000005],[-113.59365780099995,37.078651500000035],[-113.59350340099996,37.078597500000058],[-113.59309419999994,37.078456200000062],[-113.59279518599999,37.07835364400006],[-113.59271685799996,37.078326685000036],[-113.59224949999998,37.078164600000036],[-113.59209530099997,37.078110600000059],[-113.59195589999996,37.078059900000028],[-113.59192030099996,37.078039600000068],[-113.59191609699997,37.078037214000062],[-113.59177355099996,37.077942664000034],[-113.59176147199997,37.077933941000026],[-113.59175780099997,37.077930300000048],[-113.59171060099999,37.07791700000007],[-113.59161219999999,37.077888500000029],[-113.59158446099997,37.077881364000064],[-113.59153639999994,37.077869000000078],[-113.59138499999995,37.077832200000046],[-113.59131799999994,37.077821200000074],[-113.59122602199994,37.077806157000055],[-113.59115229999998,37.077794100000062],[-113.59107028899996,37.077789371000051],[-113.59103089999996,37.07778710000008],[-113.59067520099995,37.077766000000054],[-113.59060609999995,37.077761700000053],[-113.59054198599995,37.077707899000075],[-113.59054109199997,37.077707149000048],[-113.59053680099998,37.077707100000055],[-113.59044529299996,37.077706848000048],[-113.59042799999997,37.077706800000044],[-113.59014810099995,37.07770540000007],[-113.59001883399998,37.077704598000025],[-113.58984179999999,37.077703500000041],[-113.58974759999995,37.077703000000042],[-113.58973519599999,37.077703502000077],[-113.58968864299999,37.077720578000026],[-113.58962969999999,37.077742200000046],[-113.58954689999996,37.077772700000025],[-113.58952129999994,37.077782292000052],[-113.58949686499994,37.077791448000028],[-113.58942760099995,37.077817400000072],[-113.58929050099999,37.077868500000079],[-113.58927409999995,37.077874700000052],[-113.58925752199997,37.077888241000039],[-113.58920369999998,37.077932200000078],[-113.58915109999998,37.077975000000038],[-113.58905004899998,37.07805761000003],[-113.58898340099995,37.078112300000043],[-113.58897669999999,37.07811780000003],[-113.58883320099994,37.078234500000065],[-113.58881239999994,37.078251600000044],[-113.58873259999996,37.07831630000004],[-113.58868736499994,37.078353251000067],[-113.58864959999994,37.078384100000051],[-113.58860149999998,37.078423800000053],[-113.58860149299994,37.078423830000077],[-113.58859961599995,37.078432009000039],[-113.58859449999994,37.078454300000033],[-113.58859306799997,37.078459868000039],[-113.58859009999998,37.078471400000069],[-113.58857661399998,37.078504742000064],[-113.58856129999998,37.078542600000048],[-113.58852509999997,37.07863320000007],[-113.58851178299994,37.07866647600008],[-113.58848279999995,37.078738900000076],[-113.58847288899995,37.078760560000035],[-113.58845529999996,37.07879900000006],[-113.58838000099996,37.078961200000037],[-113.58835650099996,37.079013300000042],[-113.58830929999999,37.079131300000029],[-113.58826390099995,37.079246600000033],[-113.58824709999999,37.07928830000003],[-113.58822799999996,37.079336200000057],[-113.58820929999996,37.079384400000038],[-113.58820289999994,37.079414300000053],[-113.58818849999994,37.07948470000008],[-113.58818040499995,37.079523179000034],[-113.58817970299998,37.079526500000043],[-113.58817269999997,37.079559800000027],[-113.58815020099996,37.079672500000072],[-113.58814189999998,37.079710700000078],[-113.58813749999996,37.079735800000037],[-113.58813609499998,37.079745786000046],[-113.58812640099995,37.079814700000043],[-113.58810999999997,37.07993440000007],[-113.58810382399997,37.079978156000038],[-113.58810059999996,37.080001000000038],[-113.58809589999998,37.080036300000074],[-113.58809489999999,37.080046700000025],[-113.58809470399996,37.080058809000036],[-113.58809450099994,37.080071300000043],[-113.58809334599999,37.080115714000044],[-113.58809289999999,37.080132900000024],[-113.58809219999995,37.080159300000048],[-113.58809179999997,37.080203500000039],[-113.58809589999998,37.080259700000056],[-113.58810119999998,37.080332600000077],[-113.58810592299994,37.080368073000045],[-113.58810960099999,37.080395700000054],[-113.58812229999995,37.080479900000057],[-113.58814560099995,37.080637100000047],[-113.58815113299994,37.08067376200006],[-113.58816109999998,37.08073980000006],[-113.58818211899995,37.080878159000065],[-113.58818289999999,37.080883300000039],[-113.58819530099998,37.080968600000062],[-113.58819579699997,37.081011371000045],[-113.58819579799996,37.081011500000045],[-113.58819599999998,37.081029000000058],[-113.58819627199995,37.081064690000062],[-113.58819699999998,37.081160535000038],[-113.58819729999999,37.081200000000024],[-113.58819789999995,37.081296000000066],[-113.58819179999995,37.081382400000052],[-113.58818379999997,37.081492800000035],[-113.58818209999998,37.081515800000034],[-113.58817524299997,37.081564520000029],[-113.58817069999998,37.081596800000057],[-113.58815990099998,37.081672300000037],[-113.58813680099996,37.08181970000004],[-113.58812170099998,37.081916000000035],[-113.58811939499998,37.08193069500004],[-113.58811229999998,37.081975900000032],[-113.58808950099996,37.082056700000066],[-113.58805630099994,37.082174100000032],[-113.58804871399997,37.082199762000073],[-113.58802309499998,37.082286415000056],[-113.58802100099996,37.082293500000048],[-113.58799579999999,37.082375900000045],[-113.58794520099997,37.082534300000077],[-113.58794020099998,37.082549100000051],[-113.58790162399998,37.082650829000045],[-113.58788950099995,37.082682800000043],[-113.58785670099996,37.082770000000039],[-113.58783719799999,37.082858803000079],[-113.58783519999997,37.082867900000053],[-113.58780911099996,37.082986190000042],[-113.58780299999995,37.083013900000026],[-113.58778819999998,37.083111000000031],[-113.58778334199997,37.083143767000024],[-113.58776979999999,37.083235100000024],[-113.58775329999997,37.08342870000007],[-113.58775012199999,37.083561456000041],[-113.58774830099998,37.083637500000066],[-113.58774289999997,37.083838900000046],[-113.58773851399997,37.084011646000079],[-113.58773819999999,37.084024000000056],[-113.58773349999996,37.084217700000067],[-113.58773182699997,37.084284682000032],[-113.58773121399997,37.084309185000052],[-113.58772819999996,37.084429800000066],[-113.58772349999998,37.084617300000048],[-113.58771879999995,37.084786800000074],[-113.58771439999998,37.08494120000006],[-113.58771379999996,37.084947600000078],[-113.58770239999996,37.085026200000073],[-113.58769817599995,37.085054653000043],[-113.58769369999999,37.085084800000061],[-113.58768862499994,37.085117397000033],[-113.58768659999998,37.085130400000025],[-113.58764940099996,37.085242700000038],[-113.58763247699994,37.085286816000064],[-113.58762363399995,37.085309867000035],[-113.58760209999997,37.085366000000079],[-113.58758669999997,37.085404500000038],[-113.58750760099997,37.08553610000007],[-113.58743989999999,37.085624600000074],[-113.58737699999995,37.085706900000048],[-113.58728980099994,37.085795400000052],[-113.58726100099994,37.085825600000078],[-113.58717949999999,37.085895200000039],[-113.58714745299994,37.085922467000046],[-113.58708899999999,37.085972200000072],[-113.58705720099999,37.085993300000041],[-113.58694009999999,37.08606960000003],[-113.58691573999994,37.086085485000069],[-113.58686220099997,37.086120400000027],[-113.58685281399994,37.086124987000062],[-113.58682229999994,37.086139900000035],[-113.58675729999999,37.086171700000079],[-113.58670189999998,37.086199800000031],[-113.58665753499997,37.086218593000069],[-113.58662989999999,37.086230300000068],[-113.58652730099999,37.086274900000035],[-113.58644780099996,37.086303000000044],[-113.58638009999999,37.086327600000061],[-113.58631339999994,37.086347700000033],[-113.58618163199998,37.086386133000076],[-113.58615259999999,37.086394600000062],[-113.58598090099997,37.086445000000026],[-113.58579620099999,37.086499700000047],[-113.58577569999994,37.086505900000077],[-113.58566839999997,37.086532900000066],[-113.58557930099994,37.086556200000075],[-113.58539620099998,37.086601900000062],[-113.58520819999995,37.086649600000044],[-113.58507079999998,37.086684300000059],[-113.58498460099997,37.08671060000006],[-113.58492420999994,37.086729451000053],[-113.58487759999997,37.086744000000067],[-113.58482054699999,37.086761692000039],[-113.58473989999999,37.086786700000062],[-113.58473920099999,37.086788700000056],[-113.58479328999999,37.08690398400006],[-113.58481310099995,37.08694760000003],[-113.58482650099995,37.086976500000048],[-113.58484259999994,37.087011700000062],[-113.58489690099998,37.087128900000039],[-113.58495860099998,37.08726420000005],[-113.58499341499999,37.087339641000028],[-113.58503319999994,37.087427800000057],[-113.58506899999998,37.087504700000068],[-113.58508427799995,37.087537681000072],[-113.58510003899994,37.087572363000049],[-113.58511131699998,37.087601853000024],[-113.58511749999997,37.08762100000007],[-113.58515239999997,37.087720000000047],[-113.58518119999997,37.087801800000079],[-113.58520069999997,37.087858500000038],[-113.58522139999997,37.087919500000055],[-113.58526979999999,37.088058400000079],[-113.58527205799999,37.088066565000076],[-113.58528720399994,37.088146261000077],[-113.58529669999996,37.088197500000035],[-113.58533890099994,37.088421100000062],[-113.58536640099999,37.088564500000075],[-113.58542739999996,37.088900600000045],[-113.58548639999998,37.089233100000058],[-113.58554749999996,37.089581300000077],[-113.58558629999999,37.08980020000007],[-113.58559300099995,37.089835500000049],[-113.58567599499997,37.090304274000061],[-113.58568839999998,37.090377200000034],[-113.58571992399999,37.090553193000062],[-113.58585579999999,37.091324900000075],[-113.58586663899996,37.091384886000071],[-113.58587779999999,37.091448200000059],[-113.58590649999996,37.091610100000025],[-113.58594909999999,37.091853400000048],[-113.58599744699995,37.092124400000046],[-113.58601560099999,37.092228900000066],[-113.58606066999994,37.092482615000051],[-113.58606769999994,37.092522700000075],[-113.58607715599999,37.092575766000039],[-113.58609410099996,37.092671900000028],[-113.58612629999999,37.092854800000055],[-113.58618139999999,37.09316780000006],[-113.58619298899998,37.093229354000073],[-113.58620471799998,37.093294732000061],[-113.58624991199997,37.093552372000033],[-113.58626919999995,37.093663800000058],[-113.58628099999999,37.09372959600006],[-113.58630939999995,37.093891500000041],[-113.58636379999996,37.09419900000006],[-113.58638389999999,37.094311300000072],[-113.58638990099996,37.094342300000051],[-113.58639048299995,37.094344599000067],[-113.58639069999998,37.094345800000042],[-113.58642530099996,37.094484400000056],[-113.58645989999997,37.094622400000048],[-113.58649350099995,37.09476010000003],[-113.58651019699994,37.094826860000069],[-113.58653879999997,37.094944100000077],[-113.58658909999997,37.09514420000005],[-113.58659621299995,37.095165082000051],[-113.58659699999998,37.09516810000008],[-113.58661413699997,37.095217709000053],[-113.58662190099994,37.095240500000045],[-113.58677749999998,37.095689600000071],[-113.58687929999996,37.095981700000038],[-113.58692899999994,37.096119100000067],[-113.58695135399995,37.096179265000046],[-113.58703190099999,37.096402400000045],[-113.58705124199997,37.09645262500004],[-113.58713949999998,37.09669660000003],[-113.58737780099995,37.097352600000079],[-113.58745690099994,37.09757060000004],[-113.58751401999996,37.097724090000042],[-113.58753381799994,37.097778428000026],[-113.58760970099996,37.097988000000043],[-113.58769469999999,37.098222300000032],[-113.58777479999998,37.098440800000049],[-113.58784661899995,37.098636912000075],[-113.58788019999997,37.098730300000057],[-113.58788354299998,37.098737741000036],[-113.58788469999996,37.098740900000053],[-113.58793639999999,37.098855800000024],[-113.58799269999997,37.098979400000076],[-113.58805239999998,37.099110400000029],[-113.58811699999995,37.099249900000075],[-113.58811852299999,37.099252121000063],[-113.58811930099995,37.099253800000042],[-113.58814376299995,37.099288917000024],[-113.58815259999994,37.099301800000035],[-113.58821829999999,37.099400200000048],[-113.58824264099997,37.099436257000036],[-113.58824619999996,37.099441600000034],[-113.58824825099998,37.099444567000035],[-113.58830679999994,37.099531300000024],[-113.58840199999997,37.099671900000033],[-113.58847510099997,37.099778900000047],[-113.58853351599998,37.099848115000043],[-113.58862839999995,37.099962100000027],[-113.58864380099999,37.099980344000073],[-113.58872249999996,37.100075200000049],[-113.58894180099998,37.100337800000034],[-113.58900889999995,37.100398200000029],[-113.58907117199999,37.100454311000078],[-113.58909770099996,37.100478500000065],[-113.58915946699994,37.100533889000076],[-113.58929291399994,37.100654238000061],[-113.58950099999998,37.100843100000077],[-113.58971556399996,37.101035403000026],[-113.58993662299997,37.101234764000026],[-113.58996949999994,37.10126450000007],[-113.59008559999995,37.101370300000042],[-113.59022159999995,37.101492000000064],[-113.59052720099999,37.101767800000061],[-113.59090719999995,37.102111100000059],[-113.59107979999999,37.102266800000052],[-113.59111524799999,37.102298782000048],[-113.59113970099997,37.102320900000052],[-113.59159499999998,37.10273600000005],[-113.59170769999997,37.102838700000063],[-113.59176269999995,37.102902300000039],[-113.59195186199997,37.103122386000052],[-113.59211180099999,37.10331750000006],[-113.59220549999998,37.103444600000046],[-113.59235859399996,37.10365160200007],[-113.59241119999996,37.103722900000037],[-113.59264800099999,37.104135100000065],[-113.59270596699997,37.104237535000038],[-113.59276040099996,37.104376400000035],[-113.59285409999995,37.104618400000049],[-113.59292789999995,37.104806100000076],[-113.59294089999997,37.104838800000039],[-113.59295239999994,37.104889300000025],[-113.59296321999994,37.104934077000053],[-113.59302259999998,37.105187900000033],[-113.59304322099996,37.105273512000053],[-113.59304999999995,37.105302600000073],[-113.59306229999999,37.105353200000025],[-113.59307599999994,37.105493600000045],[-113.59308636899999,37.105592164000029],[-113.59310239999996,37.10575190000003],[-113.59311169999995,37.105843900000025],[-113.59311169999995,37.105861000000061],[-113.59310970099995,37.105959400000074],[-113.59310440099995,37.106183200000032],[-113.59310039999997,37.106414700000073],[-113.59309970099997,37.106446300000073],[-113.59309699999994,37.106533400000046],[-113.59307985999999,37.106533998000032],[-113.59295989999998,37.106533300000024],[-113.59291840099996,37.106533600000034],[-113.59282403699996,37.106533242000069],[-113.59251970099996,37.106531300000029],[-113.59235513199997,37.106531300000029],[-113.59183979999995,37.106529200000068],[-113.59107219999999,37.106526100000053],[-113.59093049999996,37.106525300000044],[-113.59064089999998,37.106524400000069],[-113.59034599999995,37.106522900000073],[-113.59000839999999,37.106521500000042],[-113.58989741499994,37.106521169000075],[-113.58947360099995,37.106519200000037],[-113.58918416599994,37.10651851700004],[-113.58882880099998,37.106517100000076],[-113.58806290099994,37.106513800000073],[-113.58762899999999,37.106512100000032],[-113.58752689999994,37.106512100000032],[-113.58714110099999,37.106510300000025],[-113.58664070099996,37.10650830000003],[-113.58597809999998,37.106505000000027],[-113.58582699999994,37.106504700000073],[-113.58550219999995,37.106503900000064],[-113.58546109999997,37.106503600000053],[-113.58497099999994,37.10650140000007],[-113.58468769999996,37.10650030000005],[-113.58466804099999,37.106500236000045],[-113.58426109999999,37.106497800000056],[-113.58369298599996,37.106496373000027],[-113.58365530099996,37.106496200000038],[-113.58354890099997,37.106495600000073],[-113.58349419999996,37.106495400000028],[-113.58343759999997,37.106495400000028],[-113.58335499999998,37.106495100000075],[-113.58326879999998,37.106494800000064],[-113.58322879999997,37.106494800000064],[-113.58321550599999,37.106494800000064],[-113.58314130099996,37.106494400000031],[-113.58274055399994,37.106494044000044],[-113.58272000099998,37.106494000000055],[-113.58271603399999,37.106494023000039],[-113.58261553999995,37.106493933000024],[-113.58258260099996,37.106493700000044],[-113.58253442499995,37.106493861000047],[-113.58246579999997,37.106493800000067],[-113.58242534899995,37.106493800000067],[-113.58232389999995,37.106493500000056],[-113.58205400099996,37.106492900000035],[-113.58168129999996,37.106492100000025],[-113.58130000099999,37.106491800000072],[-113.58108409999994,37.106491500000061],[-113.58069780099999,37.106490600000029],[-113.58009270099996,37.10649010000003],[-113.57949180099996,37.106489000000067],[-113.57923159999996,37.106488700000057],[-113.57920331199995,37.106488797000054],[-113.57909069999994,37.106488600000034],[-113.57905149999999,37.106488900000045],[-113.57905149999999,37.106518300000062],[-113.57905197099996,37.106575429000031],[-113.57905239999997,37.106665900000053],[-113.57905349999999,37.106823400000053],[-113.57905390099995,37.106892400000049],[-113.57905420299994,37.106944700000042],[-113.57905439999996,37.107010100000025],[-113.57905510499995,37.107049800000027],[-113.57905576899998,37.107173487000068],[-113.57905580099998,37.107183700000064],[-113.57905587299996,37.107193106000068],[-113.57905679999999,37.107367400000044],[-113.57905689999996,37.107381891000045],[-113.57905689999996,37.107407700000067],[-113.57905743999999,37.107460350000053],[-113.57905839999995,37.107599906000075],[-113.57905839999995,37.107608700000071],[-113.57905879999998,37.107722100000046],[-113.57905909999994,37.10776530000004],[-113.57905957799994,37.107808823000028],[-113.57906050099996,37.107987800000046],[-113.57906129999998,37.10824800000006],[-113.57906000299994,37.108393129000035],[-113.57905969999996,37.108422300000029],[-113.57905958099997,37.108440345000076],[-113.57905849999997,37.108561200000054],[-113.57905619999997,37.108854000000065],[-113.57905549399999,37.108933793000062],[-113.57905489999996,37.108998000000042],[-113.57905479999994,37.109012283000027],[-113.57905269999998,37.109249700000078],[-113.57905129999995,37.109419600000024],[-113.57905069999998,37.109452400000066],[-113.57904899999994,37.109648500000048],[-113.57904874399998,37.109704921000059],[-113.57904839999998,37.109736500000054],[-113.57904839999998,37.109750900000051],[-113.57904837599995,37.10975497700008],[-113.57904529999996,37.110006800000065],[-113.57904449399996,37.110069324000051],[-113.57904439999999,37.11007520000004],[-113.57904260099997,37.110182700000053],[-113.57904214799998,37.110217029000069],[-113.57904070099994,37.110303900000076],[-113.57903989999994,37.110362100000032],[-113.57903920099994,37.110411600000077],[-113.57903850099996,37.110457800000063],[-113.57903749999997,37.110537000000079],[-113.57903649999997,37.110595300000057],[-113.57903450099997,37.110714300000041],[-113.57903390099995,37.110781900000063],[-113.57903279999999,37.11083700000006],[-113.57903219999997,37.110888400000078],[-113.57903149999999,37.110929500000054],[-113.57903119999997,37.110996100000079],[-113.57903089999996,37.111062900000036],[-113.57903089999996,37.111098800000036],[-113.57903049999999,37.111169700000062],[-113.57902999999999,37.111363900000072],[-113.57902929999995,37.11153580000007],[-113.57902823499995,37.111721921000026],[-113.57902809999996,37.111735000000067],[-113.57902769999998,37.111803700000053],[-113.57902769999998,37.111809140000048],[-113.57902649999994,37.111994500000037],[-113.57902469999999,37.112241100000062],[-113.57902469999999,37.112271600000042],[-113.57902369999999,37.112376300000051],[-113.57902290099997,37.11255710000006],[-113.57902160099997,37.112738200000024],[-113.57902160099997,37.112792083000045],[-113.57902149999995,37.112806300000045],[-113.57902160099997,37.112807726000028],[-113.57902160099997,37.112814600000036],[-113.57902540099997,37.112863900000036],[-113.57903179999994,37.112945900000057],[-113.57903268399997,37.112957277000078],[-113.57903360099999,37.112969600000042],[-113.57903511599994,37.11298856500008],[-113.57903779999998,37.113023100000078],[-113.57904149999996,37.113072800000054],[-113.57904480099995,37.113115300000061],[-113.57904849699997,37.113164100000063],[-113.57904989999997,37.113204500000052],[-113.57905370699996,37.113334560000055],[-113.57905529999999,37.113394800000037],[-113.57905640299998,37.113428400000032],[-113.57905779999999,37.113480200000026],[-113.57905815399994,37.113490379000041],[-113.57905860099999,37.113506200000074],[-113.57905890099994,37.113520900000026],[-113.57906089999994,37.113548500000036],[-113.57906830099995,37.113611300000059],[-113.57907589999996,37.113677000000052],[-113.57907619599996,37.113677659000075],[-113.57907621099997,37.113677697000071],[-113.57909449999994,37.113721100000078],[-113.57911180099995,37.113762200000053],[-113.57911229399997,37.113770982000062],[-113.57911520099998,37.113844000000029],[-113.57912590099994,37.114126700000043],[-113.57915069999996,37.114794900000049],[-113.57915239999994,37.11483480000004],[-113.57915539999999,37.11492510000005],[-113.57915591199998,37.114935639000066],[-113.57915690099998,37.114960200000041],[-113.57915850699999,37.115006883000035],[-113.57915979999996,37.115049900000031],[-113.57916850099997,37.115300000000047],[-113.57919384199994,37.11595936100008],[-113.57919470099995,37.115983100000051],[-113.57919510099998,37.116000900000074],[-113.57919959999998,37.116115400000069],[-113.57920052599997,37.116138395000064],[-113.57920238199995,37.116188501000067],[-113.57920279999996,37.116204800000048],[-113.57920709999996,37.116321000000028],[-113.57920999999999,37.116395400000044],[-113.57921540099994,37.116549100000043],[-113.57921760099998,37.116603400000031],[-113.57922380099996,37.116768600000057],[-113.57922489999999,37.116802200000052],[-113.57922998699996,37.116933803000052],[-113.57924107499997,37.117233157000044],[-113.57924769999994,37.117420000000038],[-113.57925129999995,37.11751350000003],[-113.57925640099995,37.117652300000032],[-113.57926194599997,37.117796634000058],[-113.57926709799995,37.117935722000027],[-113.57927099999995,37.118043600000078],[-113.57927376799995,37.118115792000026],[-113.57928987599996,37.118550700000071],[-113.57929479999996,37.118685000000028],[-113.57930159999995,37.118869200000063],[-113.57930849999997,37.119063800000049],[-113.57931419999994,37.119225400000062],[-113.57931639999998,37.119281200000046],[-113.57932500099997,37.119509100000073],[-113.57933329999997,37.119731000000058],[-113.57934129999995,37.119948700000066],[-113.57934959999994,37.12016600000004],[-113.57935750099995,37.120390500000042],[-113.57936579999995,37.120609200000047],[-113.57937410099998,37.120832000000064],[-113.57938052999998,37.120998111000063],[-113.57938458799998,37.121107661000053],[-113.57939070099997,37.121280800000079],[-113.57939899999997,37.121506900000043],[-113.57940760099996,37.121730000000071],[-113.57941549999998,37.121957300000076],[-113.57942420099994,37.122178700000063],[-113.57943209999996,37.122400000000027],[-113.57944029999999,37.122613000000058],[-113.57944819999994,37.122832300000027],[-113.57945619999998,37.123045600000069],[-113.57946409999994,37.123264100000029],[-113.57947270099999,37.123490600000025],[-113.57947680099994,37.123616500000026],[-113.57947749999994,37.123634992000063],[-113.57947749999994,37.123686600000042],[-113.58004828599996,37.139900450000027],[-113.57991106899999,37.139905024000029],[-113.58004832699999,37.139901587000054],[-113.58005463599994,37.139901429000076],[-113.58187721299998,37.192075200000033],[-113.58132560899998,37.192507735000049],[-113.58132025499998,37.192511934000038],[-113.58136404799995,37.192581090000033],[-113.58138892699998,37.192620379000061],[-113.58143097799996,37.192694075000077],[-113.58149097499995,37.192837219000069],[-113.58153790699998,37.19300022200008],[-113.58154960899998,37.19306081600007],[-113.58156418899995,37.193136308000078],[-113.58158296099998,37.193314265000026],[-113.58160173399995,37.193499699000029],[-113.58162238399996,37.193658215000028],[-113.58162238399996,37.193846639000071],[-113.58163177099999,37.193946833000041],[-113.58163364699999,37.194124787000078],[-113.58162474099998,37.194292105000045],[-113.58162445599999,37.194319738000047],[-113.58162642399998,37.194356587000073],[-113.58163085299998,37.19439069200007],[-113.58163642599999,37.194450310000036],[-113.58164723899995,37.194522090000078],[-113.58165564899997,37.194592913000065],[-113.58167246999994,37.194701061000046],[-113.58168568599996,37.194801553000048],[-113.58169890199997,37.194906829000047],[-113.58173267399997,37.195149611000033],[-113.58175613999998,37.19534354700005],[-113.58177960599994,37.195544490000032],[-113.58178840599999,37.195773472000042],[-113.58180165499999,37.195956411000054],[-113.58180600399999,37.196016472000053],[-113.58182947099999,37.196252462000075],[-113.58183533699997,37.196460413000068],[-113.58183691899995,37.196496919000026],[-113.58184953399996,37.196788086000026],[-113.58186455199996,37.197103608000077],[-113.58188707899996,37.19729800500005],[-113.58190022099996,37.197369782000067],[-113.58191148499998,37.197429596000063],[-113.58194339799996,37.197528290000037],[-113.58198469799999,37.197625487000039],[-113.58209357899995,37.197804930000075],[-113.58219119799998,37.197929044000034],[-113.58222478599998,37.197967759000051],[-113.58226049899997,37.198008925000067],[-113.58230007999998,37.198048671000038],[-113.58237141699999,37.198109981000073],[-113.58242773499995,37.198166803000049],[-113.58250094799996,37.198223626000072],[-113.58260419799996,37.198278954000045],[-113.58276188899998,37.198355216000039],[-113.58291837899998,37.198426812000037],[-113.58293675099998,37.198438003000035],[-113.58297965299994,37.198464136000041],[-113.58301921999998,37.198497404000079],[-113.58302290499995,37.198500503000048],[-113.58306856099995,37.198560795000049],[-113.58306863699994,37.198560934000056],[-113.58309379199994,37.19860673200003],[-113.58311301499998,37.198674679000078],[-113.58312983499997,37.198742627000058],[-113.58313223799996,37.198814403000029],[-113.58311301499998,37.198912018000044],[-113.58308778499998,37.198983794000071],[-113.58302650999997,37.199076623000053],[-113.58290636399994,37.199217303000069],[-113.58280063599994,37.199332144000039],[-113.58261200799996,37.199522587000047],[-113.58253400799998,37.199607881000077],[-113.58250627999996,37.19963264200004],[-113.58245401699998,37.199699512000052],[-113.58238831199998,37.199787736000076],[-113.58233011699997,37.199896893000073],[-113.58230195699997,37.199953715000049],[-113.58226065699995,37.200056891000031],[-113.58220621699996,37.200191468000071],[-113.58209921199995,37.200442679000048],[-113.58203162999996,37.200592208000046],[-113.58196592499996,37.200756690000048],[-113.58190022099996,37.200948087000029],[-113.58186455199996,37.201073690000044],[-113.58180072499999,37.20123368600008],[-113.58173314299995,37.20138171900004],[-113.58169935199999,37.20146395900008],[-113.58164866499999,37.201583581000079],[-113.58159279499995,37.201702221000062],[-113.58150113199997,37.201906653000037],[-113.58145248999995,37.202037157000063],[-113.58141405099997,37.202140288000066],[-113.58130863699995,37.202381223000032],[-113.58121239099995,37.20260025500005],[-113.58112939599994,37.202786046000028],[-113.58110789399996,37.202834180000025],[-113.58104629599995,37.202972023000029],[-113.58099642999997,37.203095848000032],[-113.58092016599994,37.20327340800003],[-113.58084390199997,37.203436950000025],[-113.58080283699996,37.203542083000059],[-113.58078523699999,37.203637872000058],[-113.58078816999995,37.203735996000034],[-113.58080870299995,37.203841129000068],[-113.58084390199997,37.203925236000032],[-113.58089963299994,37.204018688000076],[-113.58099936399998,37.20412148500003],[-113.58109615999996,37.204235963000031],[-113.58132495299998,37.204453237000052],[-113.58156547899995,37.204682191000074],[-113.58180600399999,37.204934508000065],[-113.58197319999999,37.20511440000007],[-113.58208432699996,37.205216526000072],[-113.58216385999998,37.205289619000041],[-113.58234278799995,37.205483527000069],[-113.58252758299994,37.205665754000051],[-113.58267808299996,37.205836094000063],[-113.58269477699997,37.205854989000045],[-113.58277476799998,37.205938090000075],[-113.58289716999997,37.206065250000051],[-113.58311422999998,37.20627083800008],[-113.58325795899998,37.206418019000068],[-113.58335768999996,37.20650445900003],[-113.58348675099995,37.206621270000028],[-113.58358941499995,37.206733408000048],[-113.58360634799999,37.206765934000032],[-113.58360968399995,37.206772341000033],[-113.58363927999994,37.206829192000043],[-113.58366818299999,37.206852212000058],[-113.58368914599998,37.206868908000047],[-113.58381318599999,37.207085597000059],[-113.58382192699997,37.207125546000043],[-113.58382219999999,37.207126793000043],[-113.58383677099994,37.207193379000046],[-113.58800925999998,37.22625957200006],[-113.58836548199997,37.227887107000072],[-113.58836499599994,37.228307216000076],[-113.58836487199994,37.228414260000079],[-113.58831367899995,37.272628849000057],[-113.58761397299997,37.272630937000031],[-113.51282901299999,37.272854151000047],[-113.49941860199999,37.284578047000025],[-113.49941808999995,37.284578494000073],[-113.32948790599994,37.432979720000048],[-113.32948784499996,37.432979774000046],[-113.32557591099999,37.43639263700004],[-113.32727077999999,37.480357600000048],[-113.32728540899996,37.480736998000054],[-113.32724068099998,37.481287886000075],[-113.32724067799995,37.481287922000035],[-113.32704627499999,37.483682239000075],[-113.32704626199995,37.483682393000038],[-113.32676409799996,37.487157478000029],[-113.32672227199998,37.487672587000077]]]]},"properties":{"OBJECTID":1,"OBJECTID_1":3,"VertexCount":15,"Shape_Length":2.2161147682366993,"Shape_Area":0.16390691174006139}}]}