{"type":"FeatureCollection","features":[{"type":"Feature","id":1,"geometry":{"type":"Polygon","coordinates":[[[-113.55779119999994,37.109818200000063],[-113.55778429999998,37.109835200000077],[-113.55775319999998,37.109912100000031],[-113.55774310099997,37.10993620000005],[-113.55773660899996,37.109952391000036],[-113.55756084599994,37.110506762000057],[-113.55744483399997,37.110784311000032],[-113.55732624399997,37.111026908000042],[-113.55706007499998,37.111528705000069],[-113.55657232699997,37.112285113000041],[-113.55603657699999,37.112953269000059],[-113.55473547099996,37.114186772000039],[-113.55419972099997,37.114630056000067],[-113.55389835699998,37.114791491000062],[-113.55366919999994,37.114952100000039],[-113.55341750099996,37.115128200000072],[-113.55330380099997,37.115208000000052],[-113.55327999999997,37.11522350000007],[-113.55314319999997,37.115299300000061],[-113.55295830099999,37.115401600000041],[-113.55271359999995,37.115537400000051],[-113.55247509999998,37.115669900000057],[-113.55222509999999,37.11580820000006],[-113.55211279999997,37.11587030000004],[-113.55210160099995,37.115877200000057],[-113.55206769999995,37.115895900000055],[-113.55202699999995,37.115913400000068],[-113.55194080099994,37.115950100000077],[-113.55188929999997,37.115972500000055],[-113.55154390099995,37.11612000000008],[-113.55119539999998,37.116268800000057],[-113.55102340099995,37.11634330000004],[-113.55108389999998,37.116437200000064],[-113.55108819999998,37.116444100000024],[-113.55112959999997,37.116508800000076],[-113.55113320099997,37.116514800000061],[-113.55119379999996,37.116608900000074],[-113.55130519999994,37.116783100000077],[-113.55135429999996,37.116860200000076],[-113.55139460099997,37.116923100000065],[-113.55162900099998,37.117291600000044],[-113.55166819999994,37.117362300000025],[-113.55172410099999,37.117461500000047],[-113.55195529999997,37.117874100000051],[-113.55223409999996,37.118371700000068],[-113.55231189999995,37.118510400000048],[-113.55237110099995,37.118615200000079],[-113.55239409999996,37.118658000000039],[-113.55243489999998,37.118729500000029],[-113.55246380099999,37.118780900000047],[-113.55250809999995,37.118860000000041],[-113.55253989999994,37.118916900000045],[-113.55254129999997,37.118925200000035],[-113.55254379999997,37.118946200000039],[-113.55255039999997,37.119000400000061],[-113.55256839999998,37.119144700000049],[-113.55258969999994,37.119316000000026],[-113.55259150099994,37.119332100000065],[-113.55260060099994,37.119400600000063],[-113.55260889999994,37.119469600000059],[-113.55261710099995,37.11953740000007],[-113.55262539999995,37.119601300000056],[-113.55264910099999,37.119791900000052],[-113.55269205999997,37.120136953000042],[-113.55280698599995,37.121050208000042],[-113.55276568199997,37.121118565000074],[-113.55274929999996,37.121147000000065],[-113.55261090099998,37.121379300000058],[-113.55257339999997,37.121439100000032],[-113.55238929599994,37.121741478000047],[-113.55238910199995,37.121741800000052],[-113.55238907099999,37.121741852000071],[-113.55237657499998,37.121763558000055],[-113.55238801099995,37.121773687000029],[-113.55241079999996,37.121788300000048],[-113.55242759999999,37.121803500000055],[-113.55246579999999,37.121838000000025],[-113.55252559999997,37.121891400000038],[-113.55271540099994,37.122060300000044],[-113.55296559999999,37.122284600000057],[-113.55328169999996,37.12256380000008],[-113.55341720099995,37.122683900000027],[-113.55353686099994,37.122791284000073],[-113.55404477299999,37.123241166000071],[-113.55408133199995,37.123244788000079],[-113.55420259999994,37.123250621000068],[-113.55420304399996,37.123328659000038],[-113.55420709999999,37.123359900000025],[-113.55422009299997,37.123375822000071],[-113.55428975999996,37.123431439000058],[-113.55440099899994,37.123537027000054],[-113.55452283099999,37.123680627000056],[-113.55461033799997,37.123773324000069],[-113.55465040099995,37.123811900000078],[-113.55467230099998,37.123832900000025],[-113.55472349999997,37.123881200000028],[-113.55476509999994,37.123921800000062],[-113.55478500099997,37.123947900000076],[-113.55482169999999,37.123997100000054],[-113.55488980099994,37.124088000000029],[-113.55490309999999,37.124123300000065],[-113.55492166799996,37.124172695000027],[-113.55499603499999,37.124314154000047],[-113.55505430199997,37.124428188000024],[-113.55508078799994,37.12457319400005],[-113.55512697399996,37.12470604400005],[-113.55513199299997,37.124751988000071],[-113.55513728899996,37.124863206000043],[-113.55515671299997,37.125015251000036],[-113.55517789999999,37.125172926000062],[-113.55515671299997,37.125241909000067],[-113.55511515599994,37.125345935000041],[-113.55509839999996,37.125418900000057],[-113.55508719999995,37.125442500000077],[-113.55506519999994,37.125489600000037],[-113.55503639999995,37.125551100000052],[-113.55498464399994,37.125652502000037],[-113.55496425199999,37.125696632000029],[-113.55492364099996,37.125806440000076],[-113.55487949999997,37.125972561000026],[-113.55487420199995,37.126033096000072],[-113.55487067099995,37.126120380000032],[-113.55487949999997,37.126218926000035],[-113.55490951599995,37.126324510000074],[-113.55496425199999,37.126435726000068],[-113.55503841099994,37.126520193000033],[-113.55514258699998,37.126641263000067],[-113.55525559099999,37.126760925000042],[-113.55534034399994,37.126859470000056],[-113.55548866199996,37.127021365000076],[-113.55566169899998,37.127191706000076],[-113.55578529699994,37.127342339000052],[-113.55590183199996,37.127470446000075],[-113.55596009899995,37.12758025200003],[-113.55603602399998,37.127668941000024],[-113.55607310399995,37.127756223000063],[-113.55610488599996,37.127840689000038],[-113.55611724599999,37.127946271000042],[-113.55612607399996,37.128072970000062],[-113.55614902799999,37.128241901000024],[-113.55618257599997,37.128464327000074],[-113.55623738199995,37.128616603000069],[-113.55632710099997,37.128708000000074],[-113.55643040099994,37.128814900000066],[-113.55643939999999,37.128823500000067],[-113.55648409999998,37.128869800000075],[-113.55648737399997,37.128873105000025],[-113.55649510299997,37.128879613000038],[-113.55673347099997,37.129021795000028],[-113.55673703799994,37.129023455000038],[-113.55676879999999,37.129036300000053],[-113.55696780099998,37.12911710000003],[-113.55699829799994,37.129129428000056],[-113.55707071599994,37.129151308000075],[-113.55716782899998,37.129175239000062],[-113.55729848999999,37.129189317000055],[-113.55747152699996,37.129201986000055],[-113.55760571999997,37.129216063000058],[-113.55779641399994,37.129232957000056],[-113.55796768499999,37.129272373000049],[-113.55811953399996,37.129318828000066],[-113.55834630599998,37.129388732000052],[-113.55866852499997,37.129524797000045],[-113.55892716999995,37.129710387000046],[-113.55930651699998,37.130115934000059],[-113.55974190299997,37.130734560000064],[-113.56009538599994,37.131215710000049],[-113.56039282799998,37.13163499500007],[-113.56072906699995,37.132136759000048],[-113.56094460599996,37.132466685000054],[-113.56120325099994,37.132858470000031],[-113.56141447799996,37.133188393000069],[-113.56156104399997,37.133422086000053],[-113.56185417499995,37.133886036000035],[-113.56222921099999,37.134449645000075],[-113.56244370099995,37.134769394000045],[-113.56263086399997,37.135025584000061],[-113.56287982599997,37.135419719000026],[-113.56308817599995,37.13572376500008],[-113.56339187399999,37.136179832000039],[-113.56359316199996,37.136495136000065],[-113.56382270199998,37.136821700000041],[-113.56395336299994,37.137030025000058],[-113.56421821599997,37.137415704000034],[-113.56444245799997,37.13777041600008],[-113.56458018199999,37.137988590000077],[-113.56471790499995,37.138226471000053],[-113.56486269099997,37.138474203000044],[-113.56500218099995,37.138706451000076],[-113.56515402999997,37.138948552000045],[-113.56526879899997,37.13914842500003],[-113.56535531799994,37.139334222000059],[-113.56545419699995,37.139501720000055],[-113.56555837199994,37.139700184000048],[-113.56565901599998,37.139881758000058],[-113.56576319099997,37.140077406000046],[-113.56581172499995,37.140232763000029],[-113.56589830099995,37.14023050000003],[-113.56665320099995,37.140215400000045],[-113.56673979999999,37.140210800000034],[-113.56748960099998,37.140197000000057],[-113.57091759999997,37.140121200000067],[-113.57480689999994,37.140031700000065],[-113.57527620699994,37.140021079000064],[-113.57527624099998,37.140021079000064],[-113.57991106899999,37.139905024000029],[-113.58004828599996,37.139900450000027],[-113.57947749999994,37.123686600000042],[-113.57947749999994,37.123634992000063],[-113.57947680099994,37.123616500000026],[-113.57947270099999,37.123490600000025],[-113.57946409999994,37.123264100000029],[-113.57945619999998,37.123045600000069],[-113.57944819999994,37.122832300000027],[-113.57944029999999,37.122613000000058],[-113.57943209999996,37.122400000000027],[-113.57942420099994,37.122178700000063],[-113.57941549999998,37.121957300000076],[-113.57940760099996,37.121730000000071],[-113.57939899999997,37.121506900000043],[-113.57939070099997,37.121280800000079],[-113.57938458799998,37.121107661000053],[-113.57938052999998,37.120998111000063],[-113.57937410099998,37.120832000000064],[-113.57936579999995,37.120609200000047],[-113.57935750099995,37.120390500000042],[-113.57934959999994,37.12016600000004],[-113.57934129999995,37.119948700000066],[-113.57933329999997,37.119731000000058],[-113.57932500099997,37.119509100000073],[-113.57931639999998,37.119281200000046],[-113.57931419999994,37.119225400000062],[-113.57930849999997,37.119063800000049],[-113.57930159999995,37.118869200000063],[-113.57929479999996,37.118685000000028],[-113.57928987599996,37.118550700000071],[-113.57927376799995,37.118115792000026],[-113.57927099999995,37.118043600000078],[-113.57926709799995,37.117935722000027],[-113.57926194599997,37.117796634000058],[-113.57925640099995,37.117652300000032],[-113.57925129999995,37.11751350000003],[-113.57924769999994,37.117420000000038],[-113.57924107499997,37.117233157000044],[-113.57922998699996,37.116933803000052],[-113.57922489999999,37.116802200000052],[-113.57922380099996,37.116768600000057],[-113.57921760099998,37.116603400000031],[-113.57921540099994,37.116549100000043],[-113.57920999999999,37.116395400000044],[-113.57920709999996,37.116321000000028],[-113.57920279999996,37.116204800000048],[-113.57920238199995,37.116188501000067],[-113.57920052599997,37.116138395000064],[-113.57919959999998,37.116115400000069],[-113.57919510099998,37.116000900000074],[-113.57919470099995,37.115983100000051],[-113.57919384199994,37.11595936100008],[-113.57916850099997,37.115300000000047],[-113.57915979999996,37.115049900000031],[-113.57915850699999,37.115006883000035],[-113.57915690099998,37.114960200000041],[-113.57915591199998,37.114935639000066],[-113.57915539999999,37.11492510000005],[-113.57915239999994,37.11483480000004],[-113.57915069999996,37.114794900000049],[-113.57912590099994,37.114126700000043],[-113.57911520099998,37.113844000000029],[-113.57911229399997,37.113770982000062],[-113.57911180099995,37.113762200000053],[-113.57909449999994,37.113721100000078],[-113.57907620499998,37.11367769900005],[-113.57907619599996,37.113677659000075],[-113.57907589999996,37.113677000000052],[-113.57906830099995,37.113611300000059],[-113.57906089999994,37.113548500000036],[-113.57905890099994,37.113520900000026],[-113.57905860099999,37.113506200000074],[-113.57905815399994,37.113490379000041],[-113.57905779999999,37.113480200000026],[-113.57905640299998,37.113428400000032],[-113.57905529999999,37.113394800000037],[-113.57905370699996,37.113334560000055],[-113.57904989999997,37.113204500000052],[-113.57904849699997,37.113164100000063],[-113.57904480099995,37.113115300000061],[-113.57904149999996,37.113072800000054],[-113.57903779999998,37.113023100000078],[-113.57903511599994,37.11298856500008],[-113.57903360099999,37.112969600000042],[-113.57903268399997,37.112957277000078],[-113.57903179999994,37.112945900000057],[-113.57902540099997,37.112863900000036],[-113.57902160099997,37.112814600000036],[-113.57902160099997,37.112807726000028],[-113.57902149999995,37.112806300000045],[-113.57902160099997,37.112792083000045],[-113.57902160099997,37.112738200000024],[-113.57902290099997,37.11255710000006],[-113.57902369999999,37.112376300000051],[-113.57902469999999,37.112271600000042],[-113.57902469999999,37.112241100000062],[-113.57902649999994,37.111994500000037],[-113.57902769999998,37.111809140000048],[-113.57902769999998,37.111803700000053],[-113.57902809999996,37.111735000000067],[-113.57902823499995,37.111721921000026],[-113.57902929999995,37.11153580000007],[-113.57902999999999,37.111363900000072],[-113.57903049999999,37.111169700000062],[-113.57903089999996,37.111098800000036],[-113.57903089999996,37.111062900000036],[-113.57903119999997,37.110996100000079],[-113.57903149999999,37.110929500000054],[-113.57903219999997,37.110888400000078],[-113.57903279999999,37.11083700000006],[-113.57903390099995,37.110781900000063],[-113.57903450099997,37.110714300000041],[-113.57903649999997,37.110595300000057],[-113.57903749999997,37.110537000000079],[-113.57903850099996,37.110457800000063],[-113.57903920099994,37.110411600000077],[-113.57903989999994,37.110362100000032],[-113.57904070099994,37.110303900000076],[-113.57904214799998,37.110217029000069],[-113.57904260099997,37.110182700000053],[-113.57904439999999,37.11007520000004],[-113.57904449399996,37.110069324000051],[-113.57904529999996,37.110006800000065],[-113.57904837599995,37.10975497700008],[-113.57904839999998,37.109750900000051],[-113.57904839999998,37.109736500000054],[-113.57904874399998,37.109704921000059],[-113.57904899999994,37.109648500000048],[-113.57905069999998,37.109452400000066],[-113.57905129999995,37.109419600000024],[-113.57905269999998,37.109249700000078],[-113.57905479999994,37.109012283000027],[-113.57905489999996,37.108998000000042],[-113.57905549399999,37.108933793000062],[-113.57905619999997,37.108854000000065],[-113.57905849999997,37.108561200000054],[-113.57905958099997,37.108440345000076],[-113.57905969999996,37.108422300000029],[-113.57906000299994,37.108393129000035],[-113.57906129999998,37.10824800000006],[-113.57906050099996,37.107987800000046],[-113.57905957799994,37.107808823000028],[-113.57905909999994,37.10776530000004],[-113.57905879999998,37.107722100000046],[-113.57905839999995,37.107608700000071],[-113.57905839999995,37.107599906000075],[-113.57905743999999,37.107460350000053],[-113.57905689999996,37.107407700000067],[-113.57905689999996,37.107381891000045],[-113.57905679999999,37.107367400000044],[-113.57905587299996,37.107193106000068],[-113.57905580099998,37.107183700000064],[-113.57905576899998,37.107173487000068],[-113.57905510499995,37.107049800000027],[-113.57905439999996,37.107010100000025],[-113.57905420299994,37.106944700000042],[-113.57905390099995,37.106892400000049],[-113.57905349999999,37.106823400000053],[-113.57905239999997,37.106665900000053],[-113.57905197099996,37.106575429000031],[-113.57905149999999,37.106518300000062],[-113.57905149999999,37.106488900000045],[-113.57909069999994,37.106488600000034],[-113.57920331199995,37.106488797000054],[-113.57923159999996,37.106488700000057],[-113.57949180099996,37.106489000000067],[-113.58009270099996,37.10649010000003],[-113.58069780099999,37.106490600000029],[-113.58108409999994,37.106491500000061],[-113.58130000099999,37.106491800000072],[-113.58168129999996,37.106492100000025],[-113.58205400099996,37.106492900000035],[-113.58232389999995,37.106493500000056],[-113.58242534899995,37.106493800000067],[-113.58246579999997,37.106493800000067],[-113.58253442499995,37.106493861000047],[-113.58258260099996,37.106493700000044],[-113.58261553999995,37.106493933000024],[-113.58271603399999,37.106494023000039],[-113.58272000099998,37.106494000000055],[-113.58274055399994,37.106494044000044],[-113.58314130099996,37.106494400000031],[-113.58321550599999,37.106494800000064],[-113.58322879999997,37.106494800000064],[-113.58326879999998,37.106494800000064],[-113.58335499999998,37.106495100000075],[-113.58343759999997,37.106495400000028],[-113.58349419999996,37.106495400000028],[-113.58354890099997,37.106495600000073],[-113.58365530099996,37.106496200000038],[-113.58369298599996,37.106496373000027],[-113.58426109999999,37.106497800000056],[-113.58466804099999,37.106500236000045],[-113.58468769999996,37.10650030000005],[-113.58497099999994,37.10650140000007],[-113.58546109999997,37.106503600000053],[-113.58550219999995,37.106503900000064],[-113.58582699999994,37.106504700000073],[-113.58597809999998,37.106505000000027],[-113.58664070099996,37.10650830000003],[-113.58714110099999,37.106510300000025],[-113.58752689999994,37.106512100000032],[-113.58762899999999,37.106512100000032],[-113.58806290099994,37.106513800000073],[-113.58882880099998,37.106517100000076],[-113.58918416599994,37.10651851700004],[-113.58947360099995,37.106519200000037],[-113.58989741499994,37.106521169000075],[-113.59000839999999,37.106521500000042],[-113.59034599999995,37.106522900000073],[-113.59064089999998,37.106524400000069],[-113.59093049999996,37.106525300000044],[-113.59107219999999,37.106526100000053],[-113.59183979999995,37.106529200000068],[-113.59235513199997,37.106531300000029],[-113.59251970099996,37.106531300000029],[-113.59282403699996,37.106533242000069],[-113.59291840099996,37.106533600000034],[-113.59295989999998,37.106533300000024],[-113.59307985999999,37.106533998000032],[-113.59309699999994,37.106533400000046],[-113.59309970099997,37.106446300000073],[-113.59310039999997,37.106414700000073],[-113.59310440099995,37.106183200000032],[-113.59310970099995,37.105959400000074],[-113.59311169999995,37.105861000000061],[-113.59311169999995,37.105843900000025],[-113.59310239999996,37.10575190000003],[-113.59308636899999,37.105592164000029],[-113.59307599999994,37.105493600000045],[-113.59306229999999,37.105353200000025],[-113.59304999999995,37.105302600000073],[-113.59304322099996,37.105273512000053],[-113.59302259999998,37.105187900000033],[-113.59296321999994,37.104934077000053],[-113.59295239999994,37.104889300000025],[-113.59294089999997,37.104838800000039],[-113.59292789999995,37.104806100000076],[-113.59285409999995,37.104618400000049],[-113.59276040099996,37.104376400000035],[-113.59270596699997,37.104237535000038],[-113.59264800099999,37.104135100000065],[-113.59241119999996,37.103722900000037],[-113.59235859399996,37.10365160200007],[-113.59220549999998,37.103444600000046],[-113.59211180099999,37.10331750000006],[-113.59195186199997,37.103122386000052],[-113.59176269999995,37.102902300000039],[-113.59170769999997,37.102838700000063],[-113.59159499999998,37.10273600000005],[-113.59113970099997,37.102320900000052],[-113.59111524799999,37.102298782000048],[-113.59107979999999,37.102266800000052],[-113.59090719999995,37.102111100000059],[-113.59052720099999,37.101767800000061],[-113.59022159999995,37.101492000000064],[-113.59008559999995,37.101370300000042],[-113.58996949999994,37.10126450000007],[-113.58993662299997,37.101234764000026],[-113.58971556399996,37.101035403000026],[-113.58950099999998,37.100843100000077],[-113.58929291399994,37.100654238000061],[-113.58915946699994,37.100533889000076],[-113.58909770099996,37.100478500000065],[-113.58907117199999,37.100454311000078],[-113.58900889999995,37.100398200000029],[-113.58894180099998,37.100337800000034],[-113.58872249999996,37.100075200000049],[-113.58864380099999,37.099980344000073],[-113.58862839999995,37.099962100000027],[-113.58853351599998,37.099848115000043],[-113.58847510099997,37.099778900000047],[-113.58840199999997,37.099671900000033],[-113.58830679999994,37.099531300000024],[-113.58824825099998,37.099444567000035],[-113.58824619999996,37.099441600000034],[-113.58824264099997,37.099436257000036],[-113.58821829999999,37.099400200000048],[-113.58815259999994,37.099301800000035],[-113.58814376299995,37.099288917000024],[-113.58811930099995,37.099253800000042],[-113.58811852299999,37.099252121000063],[-113.58811699999995,37.099249900000075],[-113.58805239999998,37.099110400000029],[-113.58799269999997,37.098979400000076],[-113.58793639999999,37.098855800000024],[-113.58788469999996,37.098740900000053],[-113.58788354299998,37.098737741000036],[-113.58788019999997,37.098730300000057],[-113.58784661899995,37.098636912000075],[-113.58777479999998,37.098440800000049],[-113.58769469999999,37.098222300000032],[-113.58760970099996,37.097988000000043],[-113.58753381799994,37.097778428000026],[-113.58751401999996,37.097724090000042],[-113.58745690099994,37.09757060000004],[-113.58737780099995,37.097352600000079],[-113.58713949999998,37.09669660000003],[-113.58705124199997,37.09645262500004],[-113.58703190099999,37.096402400000045],[-113.58695135399995,37.096179265000046],[-113.58692899999994,37.096119100000067],[-113.58687929999996,37.095981700000038],[-113.58677749999998,37.095689600000071],[-113.58662190099994,37.095240500000045],[-113.58661413699997,37.095217709000053],[-113.58659699999998,37.09516810000008],[-113.58659621299995,37.095165082000051],[-113.58658909999997,37.09514420000005],[-113.58653879999997,37.094944100000077],[-113.58651019699994,37.094826860000069],[-113.58649350099995,37.09476010000003],[-113.58645989999997,37.094622400000048],[-113.58642530099996,37.094484400000056],[-113.58639069999998,37.094345800000042],[-113.58639048299995,37.094344599000067],[-113.58638990099996,37.094342300000051],[-113.58638389999999,37.094311300000072],[-113.58636379999996,37.09419900000006],[-113.58630939999995,37.093891500000041],[-113.58628099999999,37.09372959600006],[-113.58626919999995,37.093663800000058],[-113.58624991199997,37.093552372000033],[-113.58620471799998,37.093294732000061],[-113.58619298899998,37.093229354000073],[-113.58618139999999,37.09316780000006],[-113.58612629999999,37.092854800000055],[-113.58609410099996,37.092671900000028],[-113.58607715599999,37.092575766000039],[-113.58606769999994,37.092522700000075],[-113.58606066999994,37.092482615000051],[-113.58601560099999,37.092228900000066],[-113.58599744699995,37.092124400000046],[-113.58594909999999,37.091853400000048],[-113.58590649999996,37.091610100000025],[-113.58587779999999,37.091448200000059],[-113.58586663899996,37.091384886000071],[-113.58585579999999,37.091324900000075],[-113.58571992399999,37.090553193000062],[-113.58568839999998,37.090377200000034],[-113.58567599499997,37.090304274000061],[-113.58559300099995,37.089835500000049],[-113.58558629999999,37.08980020000007],[-113.58554749999996,37.089581300000077],[-113.58548639999998,37.089233100000058],[-113.58542739999996,37.088900600000045],[-113.58536640099999,37.088564500000075],[-113.58533890099994,37.088421100000062],[-113.58529669999996,37.088197500000035],[-113.58528720399994,37.088146261000077],[-113.58527205799999,37.088066565000076],[-113.58526979999999,37.088058400000079],[-113.58522139999997,37.087919500000055],[-113.58520069999997,37.087858500000038],[-113.58518119999997,37.087801800000079],[-113.58515239999997,37.087720000000047],[-113.58511749999997,37.08762100000007],[-113.58511131699998,37.087601853000024],[-113.58510003899994,37.087572363000049],[-113.58508427799995,37.087537681000072],[-113.58506899999998,37.087504700000068],[-113.58503319999994,37.087427800000057],[-113.58499341499999,37.087339641000028],[-113.58495860099998,37.08726420000005],[-113.58489690099998,37.087128900000039],[-113.58484259999994,37.087011700000062],[-113.58482650099995,37.086976500000048],[-113.58481310099995,37.08694760000003],[-113.58479328999999,37.08690398400006],[-113.58473920099999,37.086788700000056],[-113.58473989999999,37.086786700000062],[-113.58472140399999,37.086796805000063],[-113.58471930699994,37.086797760000024],[-113.58469986699998,37.08676859500008],[-113.58461810099999,37.086640900000077],[-113.58455189999995,37.086538800000028],[-113.58446609999999,37.086406500000066],[-113.58442419999994,37.08634150000006],[-113.58421800099995,37.086022400000047],[-113.58404199999995,37.085750300000029],[-113.58402329999996,37.085721000000035],[-113.58381879099994,37.085383947000025],[-113.58376328399999,37.085289528000033],[-113.58336320099994,37.084582600000033],[-113.58316070099994,37.084231300000056],[-113.58309859999997,37.084124800000041],[-113.58297299999998,37.083912700000042],[-113.58292537199998,37.083831346000068],[-113.58291820099998,37.083837900000049],[-113.58290340099995,37.083860100000038],[-113.58286840099998,37.083911300000068],[-113.58281599999998,37.083987600000057],[-113.58264749999995,37.084234200000026],[-113.58258649999999,37.084324200000026],[-113.58248690099998,37.084467400000051],[-113.58234299999998,37.084657100000072],[-113.58221129999998,37.084829900000045],[-113.58208609999997,37.084995500000048],[-113.58193000099999,37.085202000000038],[-113.58176939999998,37.085413300000027],[-113.58159480099999,37.085613900000055],[-113.58144529999998,37.085770400000058],[-113.58134000099994,37.08588050000003],[-113.58126439999995,37.085959500000058],[-113.58121999999997,37.086006100000077],[-113.58112129999995,37.086109500000077],[-113.58110169399998,37.08612996200003],[-113.58092174699999,37.086362830000041],[-113.58031122399996,37.086965339000074],[-113.57982186099997,37.087436675000049],[-113.57970491299994,37.087535247000062],[-113.57966379999999,37.087575600000037],[-113.57961260099995,37.087626800000066],[-113.57957799999997,37.08765040000003],[-113.57953729099995,37.087676530000067],[-113.57930063599997,37.087876000000051],[-113.57887775399996,37.088142731000062],[-113.57785496999998,37.088809556000058],[-113.57672508999997,37.089518669000029],[-113.57672503999999,37.089518702000078],[-113.57654689999998,37.089632300000062],[-113.57642789999994,37.089708600000051],[-113.57639970099996,37.089726100000064],[-113.57630080099995,37.089789200000041],[-113.57619079999995,37.089859100000069],[-113.57600560099996,37.089977300000044],[-113.57573490099998,37.090149900000029],[-113.57550110099999,37.090299100000038],[-113.57517559999997,37.090489700000035],[-113.57491089999996,37.090644600000076],[-113.57472899999999,37.090750700000058],[-113.57447619999999,37.090898400000071],[-113.57423259999996,37.09104080000003],[-113.57403629999999,37.091155600000036],[-113.57384310099997,37.091268900000046],[-113.57358409999995,37.091420500000027],[-113.57353419899999,37.091449605000037],[-113.57299929899995,37.091775007000024],[-113.57259245099999,37.092012781000051],[-113.57196413099996,37.092402464000031],[-113.57124621599996,37.092865293000045],[-113.57021776199997,37.093470246000038],[-113.57007949999996,37.093555400000071],[-113.56991789999995,37.093655000000069],[-113.56966580099999,37.093804300000045],[-113.56937410099999,37.093975000000057],[-113.56914668699994,37.094108281000047],[-113.56914664999999,37.094108303000041],[-113.56794192399997,37.094845410000062],[-113.56703706899998,37.095399038000039],[-113.56681997699997,37.095568122000032],[-113.56593282399996,37.096259087000078],[-113.56593253899996,37.09625931000005],[-113.56597699999998,37.096259700000076],[-113.56622290099995,37.096260500000028],[-113.56641230299999,37.096261799000047],[-113.56641244699995,37.096271854000065],[-113.56641209999998,37.096336000000065],[-113.56641068599998,37.096496886000068],[-113.56641000099995,37.096556700000065],[-113.56641009899994,37.096563759000048],[-113.56641000099995,37.096574900000064],[-113.56640910099998,37.096708100000058],[-113.56640889999994,37.096737700000062],[-113.56640979299999,37.096737696000048],[-113.56640979999997,37.096738000000073],[-113.56646820099996,37.096738000000073],[-113.56663451899999,37.09673734200004],[-113.56670809999997,37.096737300000029],[-113.56689589999996,37.096737300000029],[-113.56702510099996,37.096737200000064],[-113.56730990099999,37.096737800000028],[-113.56743160099995,37.096737700000062],[-113.56748569999996,37.096738300000027],[-113.56748569999996,37.096736800000031],[-113.56748651699996,37.096729284000048],[-113.56748819999996,37.096555900000055],[-113.56748871499997,37.096505256000057],[-113.56748979999998,37.096380000000067],[-113.56749031899994,37.096338132000028],[-113.56749039999994,37.09632780000004],[-113.56749049299998,37.096324137000067],[-113.56749080099996,37.096299300000055],[-113.56749110099997,37.096295589000079],[-113.56749110099997,37.096291800000074],[-113.56749170099994,37.096285900000055],[-113.56749188399999,37.096285900000055],[-113.56749189999999,37.096285700000067],[-113.56754599999999,37.096285200000068],[-113.56771716899999,37.09628589600004],[-113.56781999999998,37.096286100000043],[-113.56808704299999,37.096286888000066],[-113.56813879999999,37.096287000000075],[-113.56817403999997,37.09628714400003],[-113.56822700099997,37.096287300000029],[-113.56840790099994,37.096287600000039],[-113.56851680099999,37.09628820000006],[-113.56856220099996,37.09628820000006],[-113.56857171499996,37.096288590000029],[-113.56857459999998,37.096288600000037],[-113.56857459999998,37.096307800000034],[-113.56857373099996,37.096380921000048],[-113.56857369999994,37.096385100000077],[-113.56857340099998,37.09640870000004],[-113.56857119999995,37.096583300000077],[-113.56856769999996,37.096875600000033],[-113.56856564499998,37.09700906900008],[-113.56856539999995,37.097031400000049],[-113.56856250099997,37.097218100000077],[-113.56856169999998,37.097278567000046],[-113.56856169999998,37.097279800000024],[-113.56856167999996,37.097280125000054],[-113.56856160099994,37.097286100000076],[-113.56856130099999,37.097286097000051],[-113.56852020099996,37.097286100000076],[-113.56841826899995,37.097285752000062],[-113.56839869999999,37.097285800000066],[-113.56811810099998,37.097284700000046],[-113.56790150099994,37.097284100000024],[-113.56787298399996,37.097283983000068],[-113.56784010099994,37.097283900000036],[-113.56773797799997,37.097283429000072],[-113.56763329999995,37.097283000000061],[-113.56748339999996,37.097283200000049],[-113.56748279999999,37.097329100000024],[-113.56748209999995,37.09743700000007],[-113.56748140099995,37.097462700000051],[-113.56746089999996,37.097463000000062],[-113.56736701199998,37.097462909000058],[-113.56735720099999,37.097462900000039],[-113.56705069999998,37.097462337000024],[-113.56703019999998,37.097462294000024],[-113.56690930099995,37.097462002000043],[-113.56676769999996,37.097461400000043],[-113.56666100099994,37.097461300000077],[-113.56659620099998,37.097461300000077],[-113.56647010099999,37.097460700000056],[-113.56639720099997,37.097460000000069],[-113.56637794299996,37.097459839000066],[-113.56624999999997,37.097457200000065],[-113.56597099999999,37.097455500000081],[-113.56581479999994,37.09745520000007],[-113.56577620099995,37.097443200000043],[-113.56570520099996,37.097422597000048],[-113.56564290099999,37.097404100000062],[-113.56560470099998,37.097393100000033],[-113.56550309999994,37.097340200000076],[-113.56548337499999,37.097330380000074],[-113.56545850099997,37.097317500000031],[-113.56536189999997,37.097266900000079],[-113.56530279999998,37.097237000000064],[-113.56519474299995,37.097181033000027],[-113.56501829999996,37.09708900000004],[-113.56499777499994,37.09707901400003],[-113.56498789999995,37.097073900000055],[-113.56498030099999,37.097069800000043],[-113.56495400099999,37.097056300000077],[-113.56493189699995,37.097044974000028],[-113.56493002799999,37.097044009000058],[-113.56400967099995,37.097966524000071],[-113.56400925999998,37.097966935000045],[-113.56407679999995,37.09796620000003],[-113.56424450799994,37.097963858000071],[-113.56440870099999,37.09796220000004],[-113.56470239999999,37.097958100000028],[-113.56472566399998,37.097957737000058],[-113.56475360099995,37.097957300000076],[-113.56475674799998,37.09795738300005],[-113.56477185299997,37.09795777800008],[-113.56477270099998,37.097957800000074],[-113.56474279999998,37.097976000000074],[-113.56470809999996,37.097997500000076],[-113.56469292799994,37.098006655000063],[-113.56467279999998,37.098018800000034],[-113.56466119799995,37.098028069000065],[-113.56463750099999,37.098047000000065],[-113.56459300799997,37.098082706000071],[-113.56454182799996,37.098123776000079],[-113.56454129799994,37.098124200000029],[-113.56449839999999,37.098159000000066],[-113.56448939999996,37.098169300000052],[-113.56448503099995,37.098174287000063],[-113.56445925099996,37.098203716000057],[-113.56442509999999,37.098242700000071],[-113.56439179299997,37.098281020000059],[-113.56437859999994,37.09829620000005],[-113.56437855099995,37.098296326000025],[-113.56437069999998,37.098316500000067],[-113.56436094599997,37.098341747000063],[-113.56435879999998,37.098347300000057],[-113.56435787799995,37.098349769000038],[-113.56434580099994,37.098382100000038],[-113.56433349999998,37.09841490000008],[-113.56432959999995,37.098433000000057],[-113.56432810699994,37.098439549000034],[-113.56432159999997,37.098468100000048],[-113.56431330099997,37.098508600000059],[-113.56431369999996,37.098523900000032],[-113.56431375999995,37.098536654000043],[-113.56431399999997,37.098588300000074],[-113.56431426599994,37.098642957000038],[-113.56431510099998,37.098814400000037],[-113.56431549999996,37.098949600000026],[-113.56431619999995,37.09904240000003],[-113.56431646999994,37.099079414000073],[-113.56431689999994,37.099138400000072],[-113.56431689999994,37.099155463000045],[-113.56431689999994,37.099210800000037],[-113.56431730099996,37.099280700000065],[-113.56431783299996,37.099335205000045],[-113.56431809999998,37.099362700000029],[-113.56431822099995,37.099384565000037],[-113.56431839999999,37.099417100000039],[-113.56431879999997,37.099481800000035],[-113.56432019999994,37.099523200000078],[-113.56432081899999,37.099540973000046],[-113.56432309999997,37.099606600000072],[-113.56432379999995,37.099636500000031],[-113.56432406999994,37.09967976400003],[-113.56432450099999,37.099748900000066],[-113.56432529999995,37.099873700000046],[-113.56432529999995,37.099936600000035],[-113.56432599999999,37.100001900000052],[-113.56432599999999,37.10007470000005],[-113.56432590099996,37.100135505000026],[-113.56432589999997,37.100136300000031],[-113.56430854199999,37.10013602500004],[-113.56428809999994,37.100135700000067],[-113.56415651399999,37.100136078000048],[-113.56411409999998,37.100136200000065],[-113.56357776399994,37.100134900000057],[-113.56328889999998,37.10013420000007],[-113.56320547499996,37.10013420000007],[-113.56291029999994,37.10013420000007],[-113.56245933599996,37.100133095000047],[-113.56233920099999,37.10013280000004],[-113.56232839999996,37.10013280000004],[-113.56232447299999,37.10013280000004],[-113.56227352599996,37.10013280000004],[-113.56155117299994,37.101349651000078],[-113.56154111799998,37.101368594000064],[-113.56154073799996,37.101369308000073],[-113.56161550099995,37.101364900000078],[-113.56166210099997,37.101362499000061],[-113.56177950099999,37.101356300000077],[-113.56201870099994,37.101344100000063],[-113.56204551699994,37.101342818000035],[-113.56214420099997,37.10133810800005],[-113.56214448199995,37.101341866000041],[-113.56214570099996,37.10135820000005],[-113.56214610099994,37.10139300000003],[-113.56214709999995,37.101456000000042],[-113.56214790099995,37.101499100000069],[-113.56214910499995,37.101574199000027],[-113.56215070099995,37.101673600000026],[-113.56215146699998,37.101716898000063],[-113.56215309999999,37.101809100000025],[-113.56215494799994,37.101927860000046],[-113.56215629999997,37.102014800000063],[-113.56215909999997,37.102166000000068],[-113.56216089999998,37.102251100000046],[-113.56216269999999,37.10235810000006],[-113.56216369999999,37.102427700000078],[-113.56216589999997,37.102563400000065],[-113.56216659999995,37.102601682000056],[-113.56216989999996,37.102782300000058],[-113.56217309999994,37.102974300000028],[-113.56217420099995,37.103042400000049],[-113.56217559999999,37.103139700000042],[-113.56215469999995,37.103139900000031],[-113.56212950099996,37.103139700000042],[-113.56203650099997,37.103139900000031],[-113.56192179999999,37.103139300000066],[-113.56149319999997,37.103137000000061],[-113.56142321899995,37.103136457000062],[-113.56119679999995,37.103134700000055],[-113.56092335199997,37.103133323000066],[-113.56081949999998,37.103132800000026],[-113.56080939999998,37.103132800000026],[-113.56076469999999,37.103132800000026],[-113.56071492299998,37.103132236000079],[-113.56071169999996,37.103132200000061],[-113.56070738699998,37.103132385000038],[-113.56069079999997,37.103133100000036],[-113.56068470099996,37.103148300000043],[-113.56067889999997,37.103164400000026],[-113.56064010499995,37.103268446000072],[-113.56032075099995,37.104197848000069],[-113.56008864899997,37.104806497000027],[-113.56008825199996,37.104807540000024],[-113.56014279499999,37.104806502000031],[-113.56016029999995,37.10480670000004],[-113.56016790099994,37.104806446000055],[-113.56016929999998,37.104806400000029],[-113.56024650099994,37.104805700000043],[-113.56050449999998,37.104804100000024],[-113.56062876199996,37.104803262000075],[-113.56084529999998,37.104801800000075],[-113.56093924699996,37.104801145000067],[-113.56116257699995,37.104799587000059],[-113.56127530099997,37.104798800000026],[-113.56145901999997,37.10479764400003],[-113.56157719999999,37.104796900000053],[-113.56164339499998,37.104796380000039],[-113.56180659999995,37.104795100000047],[-113.56199270199994,37.104793546000053],[-113.56201020099996,37.104793400000062],[-113.56211980099994,37.10479250000003],[-113.56215399999996,37.104791900000066],[-113.56215399999996,37.104752800000028],[-113.56215360099998,37.104700500000035],[-113.56215409999999,37.104689900000039],[-113.56216429199998,37.104689803000042],[-113.56218580099994,37.104689600000029],[-113.56232041599998,37.104689859000075],[-113.56239369999997,37.104690000000062],[-113.56268570099996,37.104690805000075],[-113.56286250099998,37.10469130000007],[-113.56289500299999,37.104691480000042],[-113.56291660099998,37.104691600000024],[-113.56296379999998,37.104691900000034],[-113.56297656299995,37.104691700000046],[-113.56298289999995,37.104691600000024],[-113.56314658999997,37.10469233300006],[-113.56331809999995,37.104693100000077],[-113.56341567599998,37.104693379000025],[-113.56352790099999,37.104693700000041],[-113.56369007399996,37.10469420000004],[-113.56372260099994,37.104694300000062],[-113.56383609999995,37.104694600000073],[-113.56387119999999,37.104694701000028],[-113.56390499999998,37.104694800000061],[-113.56394990399997,37.104695698000057],[-113.56394999999998,37.104695700000036],[-113.56395080099998,37.104707500000075],[-113.56395015899994,37.104736100000025],[-113.56394999999998,37.10474320000003],[-113.56395020099995,37.104748362000066],[-113.56395039999995,37.104753500000072],[-113.56395020099995,37.104778360000068],[-113.56395009999994,37.104790900000069],[-113.56395009999994,37.104829267000071],[-113.56395009999994,37.104862200000071],[-113.56394990099994,37.104873076000047],[-113.56394929999999,37.10490580000004],[-113.56395009999994,37.10492510000006],[-113.56394969999997,37.104952400000059],[-113.56394969999997,37.104977725000026],[-113.56394969999997,37.105057000000045],[-113.56394909999995,37.10522990000004],[-113.56394879999999,37.105351800000051],[-113.56394849999998,37.10544740000006],[-113.56394849999998,37.105471900000055],[-113.56394849999998,37.105506400000024],[-113.56394809999995,37.105603900000062],[-113.56394779999999,37.105620800000054],[-113.56394779999999,37.105685100000073],[-113.56394765799996,37.10572366100007],[-113.56394700099997,37.105902400000048],[-113.56394730099998,37.105918200000076],[-113.56394653199999,37.106162796000035],[-113.56394610099994,37.106299800000045],[-113.56394499999999,37.106395700000064],[-113.56392299999999,37.106395700000064],[-113.56387109999997,37.106395300000031],[-113.56378669999998,37.106394400000056],[-113.56363120099996,37.106393300000036],[-113.56327030099999,37.106390700000077],[-113.56318449999998,37.106390100000056],[-113.56313229899996,37.106389682000042],[-113.56304700699997,37.106388998000057],[-113.56304280199998,37.106388965000065],[-113.56297240099997,37.106388400000071],[-113.56281219399995,37.106387462000043],[-113.56278449999996,37.106387300000051],[-113.56276289999994,37.106387300000051],[-113.56252127199997,37.106384994000052],[-113.56243810099994,37.106384200000036],[-113.56227299999995,37.106383000000051],[-113.56225075799995,37.106383138000069],[-113.56222469999994,37.106383300000061],[-113.56213959999997,37.106382500000052],[-113.56213961099996,37.106382000000053],[-113.56214130099994,37.106345000000033],[-113.56214823799996,37.106177462000062],[-113.56215059999994,37.106120400000066],[-113.56216279999995,37.105867200000034],[-113.56217169999996,37.105668500000036],[-113.56217270699995,37.105644600000062],[-113.56217539999994,37.105581000000029],[-113.56210399999998,37.10558050000003],[-113.56208313999997,37.105580583000062],[-113.56197779999997,37.105581000000029],[-113.56177204399995,37.105582655000035],[-113.56148069999995,37.105585000000076],[-113.56086769999996,37.105589100000032],[-113.56069319999995,37.105590200000051],[-113.56052380099999,37.105591400000037],[-113.56035220099994,37.105593100000078],[-113.56022749999994,37.105593700000043],[-113.55992829999997,37.10559580000006],[-113.55992483399996,37.105595600000072],[-113.55991789999996,37.105595200000039],[-113.55988617399998,37.105595600000072],[-113.55980879999998,37.105595600000072],[-113.55978773199996,37.105595601000061],[-113.55978719399997,37.105597010000054],[-113.55953337899996,37.10626258700006],[-113.55943365499996,37.106503170000053],[-113.55945469999995,37.106503000000032],[-113.55958134299999,37.106503774000032],[-113.55960200099997,37.106503900000064],[-113.56003622699996,37.106503628000041],[-113.56012793799999,37.106503650000036],[-113.56026629999997,37.106503800000041],[-113.56045455999998,37.106503745000055],[-113.56060559999997,37.106503800000041],[-113.56064020099996,37.106504100000052],[-113.56083180099995,37.106504100000052],[-113.56110369999999,37.106503900000064],[-113.56113940099999,37.106504100000052],[-113.56138050799996,37.106503700000076],[-113.56147009999995,37.106503700000076],[-113.56148102899999,37.106503700000076],[-113.56150479999997,37.106503900000064],[-113.56184120099999,37.106503801000031],[-113.56184740099997,37.106503800000041],[-113.56199920099999,37.106503900000064],[-113.56201610299996,37.106504100000052],[-113.56201629199995,37.10652089000007],[-113.56201569999996,37.106611600000065],[-113.56201460099999,37.106743800000061],[-113.56201360099999,37.10685060000003],[-113.56201319999997,37.106877600000075],[-113.56201267899996,37.106964757000071],[-113.56201229999999,37.106994200000031],[-113.56201199999998,37.107046800000035],[-113.56201207699996,37.107049863000043],[-113.56201119799999,37.107192869000073],[-113.56200730199998,37.10740171100008],[-113.56196909999994,37.107402300000047],[-113.56194616699997,37.107402735000051],[-113.56181569999995,37.107405000000028],[-113.56158279999994,37.107407800000033],[-113.56139569999999,37.10741100000007],[-113.56135885299994,37.10741226500005],[-113.56132809999997,37.107413100000031],[-113.56104330099998,37.107415400000036],[-113.56101185399996,37.107416400000034],[-113.56100969999994,37.107416400000034],[-113.56089190899996,37.107418210000048],[-113.56061920099995,37.10742220000003],[-113.56053443099995,37.107423565000033],[-113.56040830099994,37.107425300000045],[-113.56039764799999,37.107425454000065],[-113.56037260099998,37.107425100000057],[-113.56007020099997,37.107430300000033],[-113.56003699999997,37.107430300000033],[-113.55996279999999,37.107431500000075],[-113.55965696799996,37.10743575500004],[-113.55959920099997,37.107436300000074],[-113.55935632499995,37.107439900000031],[-113.55926309999995,37.107439900000031],[-113.55919239999997,37.107442200000037],[-113.55917320099996,37.10744274700005],[-113.55910689999996,37.107443600000067],[-113.55908059899997,37.107444359000056],[-113.55904829299999,37.107445293000069],[-113.55851202099996,37.10881179900008],[-113.55839829999996,37.109147500000063],[-113.55825895999999,37.109554174000039],[-113.55825617299996,37.10957101300005],[-113.55824804899999,37.10962008000007],[-113.55818535099996,37.109805608000045],[-113.55786926799999,37.109787579000056],[-113.55780419999996,37.109788000000037],[-113.55779119999994,37.109818200000063]],[[-113.56995759999995,37.108175800000026],[-113.56996190099994,37.108270100000027],[-113.56996750099995,37.108392900000069],[-113.56997989999996,37.108654200000046],[-113.56998600099996,37.108787800000073],[-113.56998779999998,37.108839600000067],[-113.56998570099995,37.108875200000057],[-113.56997630099994,37.108996800000057],[-113.56997089999999,37.109066900000073],[-113.56996760099997,37.109117200000071],[-113.57014720099994,37.109121300000027],[-113.57027629999999,37.109123900000043],[-113.57043700099996,37.10912710000008],[-113.57056559999995,37.109130300000061],[-113.57058329999995,37.10913110000007],[-113.57058469999998,37.109201300000052],[-113.57058510099995,37.109271800000045],[-113.57058619999998,37.109376400000031],[-113.57058730099999,37.109448300000054],[-113.57058829999994,37.109544200000073],[-113.57058909999995,37.10962440000003],[-113.57058980099998,37.10968100000008],[-113.57059010099999,37.109733000000062],[-113.57059010099999,37.109770400000059],[-113.57039499999996,37.109774600000037],[-113.57021580099996,37.109777700000052],[-113.57005099999998,37.109781200000043],[-113.56994869999994,37.109782900000027],[-113.56979359999997,37.109785800000054],[-113.56961589999997,37.109789100000057],[-113.56944999999996,37.109791900000062],[-113.56919079999994,37.109796800000026],[-113.56902170099994,37.109799900000041],[-113.56883869999996,37.109803200000044],[-113.56866550099994,37.109806400000025],[-113.56853699999999,37.109808800000053],[-113.56849339999997,37.109809400000074],[-113.56849370099997,37.109749900000054],[-113.56849439999996,37.109609800000044],[-113.56849539999996,37.109408500000029],[-113.56849610099999,37.109243000000049],[-113.56849740099995,37.109086900000079],[-113.56849839999995,37.10885920000004],[-113.56849979999998,37.108617500000037],[-113.56850129999998,37.108378600000037],[-113.56850219999995,37.108181700000046],[-113.56850249999997,37.108160400000031],[-113.56850289899995,37.108155699000065],[-113.56860059999997,37.108154800000079],[-113.56867809999994,37.108154500000069],[-113.56876359999995,37.108154500000069],[-113.56884969999999,37.10815400000007],[-113.56902140099999,37.108153400000049],[-113.56919119999998,37.108153100000038],[-113.56937510099999,37.108152500000074],[-113.56959029999996,37.108151700000064],[-113.56970769999998,37.108151400000054],[-113.56989229999999,37.108150800000033],[-113.56995609999996,37.108150800000033],[-113.56995759999995,37.108175800000026]],[[-113.56214409099999,37.109037900000033],[-113.56224039999995,37.109037900000033],[-113.56236980099999,37.109037600000079],[-113.56263419999999,37.109037500000056],[-113.56317449999995,37.109037600000079],[-113.56318890099999,37.109037600000079],[-113.56319180099996,37.109123000000068],[-113.56320050099998,37.109410300000036],[-113.56320550099997,37.109567900000059],[-113.56320949999997,37.109694500000046],[-113.56321169999995,37.10978010000008],[-113.56290389999998,37.109781700000042],[-113.56280979999997,37.109782000000052],[-113.56250529999994,37.109783200000038],[-113.56227929999994,37.109784000000047],[-113.56223859999994,37.109784300000058],[-113.56215409999999,37.10978440000008],[-113.56211619999999,37.10978440000008],[-113.56211799999994,37.109731500000066],[-113.56212269999997,37.109599900000035],[-113.56212999999997,37.10940800000003],[-113.56213799999995,37.109195800000066],[-113.56214189999997,37.109086600000069],[-113.56214409099999,37.109037900000033],[-113.56214379899995,37.109037901000079],[-113.56214409999995,37.109037700000044],[-113.56214409099999,37.109037900000033]],[[-113.56637560099995,37.108187900000075],[-113.56637470099997,37.108407100000079],[-113.56637539999997,37.108616600000062],[-113.56637470099997,37.108719500000063],[-113.56637389999997,37.10877430000005],[-113.56637319999999,37.108791600000075],[-113.56626579999994,37.108792700000038],[-113.56610789999996,37.108792100000073],[-113.56607040099999,37.108792100000073],[-113.56574719999998,37.108790200000044],[-113.56551450099994,37.108789800000068],[-113.56544449999996,37.108789300000069],[-113.56542000099995,37.108788700000048],[-113.56542000099995,37.108732900000064],[-113.56542179999997,37.108383600000025],[-113.56542190099998,37.108123800000044],[-113.56531309999997,37.10812210000006],[-113.56496039999996,37.10812020000003],[-113.56485359999999,37.10812020000003],[-113.56485440099999,37.107956900000033],[-113.56485649999996,37.107673300000044],[-113.56485850099995,37.107311400000071],[-113.56485919999994,37.107277500000066],[-113.56485899899997,37.10726439900003],[-113.56496789999994,37.107264900000075],[-113.56525329999994,37.107267600000057],[-113.56570249999999,37.107271800000035],[-113.56575909999998,37.107272600000044],[-113.56577020099996,37.107272600000044],[-113.56577060099994,37.107279800000072],[-113.56577389999995,37.107377600000063],[-113.56577479999999,37.107411100000036],[-113.56577659999999,37.107469500000036],[-113.56577759999999,37.107513800000049],[-113.56577900099995,37.107547900000043],[-113.56579340099995,37.107556200000033],[-113.56579439999996,37.107556699000042],[-113.56584519999996,37.107555600000069],[-113.56599019999999,37.107553000000053],[-113.56617769999997,37.107550200000048],[-113.56631610099998,37.107547600000032],[-113.56633779999999,37.107547300000078],[-113.56635039999998,37.107547600000032],[-113.56635759999995,37.107547600000032],[-113.56635819999997,37.107548400000042],[-113.56635969999996,37.107462200000043],[-113.56636180099997,37.107329100000072],[-113.56636219999996,37.107290200000079],[-113.56636329999998,37.107277600000032],[-113.56636358899999,37.107277598000053],[-113.56636239899996,37.107277200000055],[-113.56640489999995,37.107277200000055],[-113.56651990099999,37.107277200000055],[-113.56692729999997,37.107278500000064],[-113.56697113299998,37.107279250000033],[-113.56697989999998,37.107279300000073],[-113.56708148199999,37.10727974100007],[-113.56736750099998,37.107280700000047],[-113.56737191099995,37.107280779000064],[-113.56739039999997,37.107280800000069],[-113.56740410099997,37.107280800000069],[-113.56741239999997,37.107281200000045],[-113.56741029999995,37.107432500000073],[-113.56740928099998,37.107485763000057],[-113.56740769999999,37.107592800000077],[-113.56740705899995,37.107614157000057],[-113.56740668199996,37.107626727000024],[-113.56740630099995,37.107639400000039],[-113.56740630199994,37.107640099000037],[-113.56740699999995,37.107649300000048],[-113.56740880099994,37.10779830000007],[-113.56741119999998,37.107970300000034],[-113.56741380099999,37.108130500000073],[-113.56730099999999,37.108130500000073],[-113.56708789999999,37.108130500000073],[-113.56697329999997,37.108130500000073],[-113.56697220099994,37.108130800000026],[-113.56678599999998,37.108130200000062],[-113.56659679999996,37.108128800000031],[-113.56642619999997,37.108127900000056],[-113.56637579999995,37.108127600000046],[-113.56637609999996,37.108120500000041],[-113.56637608799997,37.108119983000051],[-113.56637500099998,37.108128100000044],[-113.56636154099999,37.10812803400006],[-113.56637519999998,37.108128400000055],[-113.56637560099995,37.108187900000075]],[[-113.56853340099997,37.105770900000039],[-113.56865020099997,37.105771200000049],[-113.56894629999999,37.105772500000057],[-113.56905520099997,37.105773100000079],[-113.56908999999996,37.105773300000067],[-113.56909039999999,37.105808100000047],[-113.56908930099996,37.105917000000034],[-113.56908900099995,37.105954100000076],[-113.56895410099997,37.105953800000066],[-113.56872139999996,37.105952700000046],[-113.56859220099994,37.105952200000047],[-113.56853159999997,37.105951900000036],[-113.56850819999994,37.105951400000038],[-113.56851039999998,37.105853000000025],[-113.56851199999994,37.10578600000008],[-113.56851240099996,37.105776300000059],[-113.56851279999995,37.105770600000028],[-113.56853340099997,37.105770900000039]],[[-113.56153289999997,37.104323802000067],[-113.56153290099996,37.104022200000031],[-113.56153510099995,37.103958400000067],[-113.56156830099997,37.10395660000006],[-113.56165049999998,37.10395660000006],[-113.56199569999995,37.103956500000038],[-113.56212469999997,37.103957100000059],[-113.56216369999999,37.10395770000008],[-113.56216219999999,37.104081000000065],[-113.56215929999996,37.104280000000074],[-113.56215849999995,37.104314800000054],[-113.56215809999998,37.10432000000003],[-113.56215830099995,37.10432250100007],[-113.56195709999997,37.104323600000043],[-113.56155380099995,37.104323200000067],[-113.56153289999997,37.104323802000067]],[[-113.56866089999994,37.104045400000075],[-113.56853409999997,37.104044700000031],[-113.56853449999994,37.10393520000008],[-113.56853500099999,37.103794900000025],[-113.56853569999998,37.10375010000007],[-113.56864390099997,37.103751700000032],[-113.56893379999997,37.103758700000071],[-113.56909659999997,37.103762700000061],[-113.56912259999996,37.103763600000036],[-113.56913129999998,37.103764500000068],[-113.56913229999998,37.103803000000028],[-113.56913440099999,37.103950500000053],[-113.56913519999995,37.104002300000047],[-113.56913519999995,37.104029900000057],[-113.56913510099997,37.104046501000028],[-113.56906050099997,37.104046800000049],[-113.56866089999994,37.104045400000075]]]},"properties":{"OBJECTID":1,"OBJECTID_1":1,"VertexCount":1096,"Shape_Length":0.21660425612251089,"Shape_Area":0.0011338948487259054}},{"type":"Feature","id":3,"geometry":{"type":"Polygon","coordinates":[[[-113.56214409999995,37.109037700000044],[-113.56214379899995,37.109037901000079],[-113.56214409099999,37.109037900000033],[-113.56214409999995,37.109037700000044]]]},"properties":{"OBJECTID":3,"OBJECTID_1":1,"VertexCount":1096,"Shape_Length":8.5414613828775941e-07,"Shape_Area":2.9195501914515732e-14}}]}